[
  {
    "street": "Woodward Avenue",
    "housenumber": "5996",
    "city": "Detroit",
    "postcode": "48202",
    "lat": 42.3650303,
    "lon": -83.06946
  },
  {
    "street": "Seward Street",
    "housenumber": "620",
    "city": "Detroit",
    "postcode": "48202",
    "lat": 42.3741929,
    "lon": -83.0801315
  },
  {
    "street": "Erwin Avenue",
    "housenumber": "10200",
    "city": "Detroit",
    "postcode": "48234",
    "lat": 42.4041198,
    "lon": -83.0179536
  },
  {
    "street": "Adams Avenue East",
    "housenumber": "33",
    "city": "Detroit",
    "postcode": "48201",
    "lat": 42.3374506,
    "lon": -83.0502836
  },
  {
    "street": "Kay Street",
    "housenumber": "4715",
    "city": "Detroit",
    "postcode": "48204",
    "lat": 42.3693647,
    "lon": -83.128044
  },
  {
    "street": "Gratiot Avenue",
    "housenumber": "13800",
    "city": "Detroit",
    "lat": 42.4277453,
    "lon": -82.9817624
  },
  {
    "street": "East Outer Drive",
    "housenumber": "12350",
    "city": "Detroit",
    "postcode": "48224",
    "lat": 42.4040659,
    "lon": -82.937247
  },
  {
    "street": "Woodward Avenue",
    "housenumber": "5201",
    "city": "Detroit",
    "lat": 42.3297366,
    "lon": -83.0433073
  },
  {
    "street": "Livernois Avenue",
    "housenumber": "12000",
    "city": "Detroit",
    "postcode": "48204",
    "lat": 42.3765843,
    "lon": -83.1387515
  },
  {
    "street": "3rd Street",
    "housenumber": "5254",
    "city": "Detroit",
    "postcode": "48202",
    "lat": 42.3577845,
    "lon": -83.072723
  },
  {
    "street": "Cass Avenue",
    "housenumber": "1220",
    "city": "Detroit",
    "postcode": "48226",
    "lat": 42.33136,
    "lon": -83.0520837
  },
  {
    "street": "Madison Street",
    "housenumber": "333",
    "city": "Detroit",
    "postcode": "48226",
    "lat": 42.3375812,
    "lon": -83.0462643
  },
  {
    "street": "East Jefferson",
    "housenumber": "8825",
    "city": "Detroit",
    "postcode": "48214-2811",
    "lat": 42.3566506,
    "lon": -82.987821
  },
  {
    "street": "Grove St.",
    "housenumber": "13200",
    "city": "Detroit",
    "postcode": "48235",
    "lat": 42.414774,
    "lon": -83.175781
  },
  {
    "street": "Woodward Avenue",
    "housenumber": "4421",
    "city": "Detroit",
    "postcode": "48201",
    "lat": 42.3527285,
    "lon": -83.0621298
  },
  {
    "street": "Lafayette Boulevard West",
    "housenumber": "118",
    "city": "Detroit",
    "postcode": "48226",
    "lat": 42.3314078,
    "lon": -83.048825
  },
  {
    "street": "Lafayette Boulevard West",
    "housenumber": "114",
    "city": "Detroit",
    "postcode": "48226",
    "lat": 42.3314383,
    "lon": -83.0487429
  },
  {
    "street": "Beaubien Street",
    "housenumber": "735",
    "city": "Detroit",
    "postcode": "48226",
    "lat": 42.333652,
    "lon": -83.0419421
  },
  {
    "street": "East Lafayette Street",
    "housenumber": "454",
    "city": "Detroit",
    "postcode": "48226",
    "lat": 42.3338552,
    "lon": -83.0421003
  },
  {
    "street": "Fort Street West",
    "housenumber": "450",
    "city": "Detroit",
    "postcode": "48226",
    "lat": 42.3290254,
    "lon": -83.0518078
  },
  {
    "street": "West Congress Street",
    "housenumber": "205",
    "city": "Detroit",
    "postcode": "48220",
    "lat": 42.3290466,
    "lon": -83.0481376
  },
  {
    "street": "Fort Street West",
    "housenumber": "460",
    "city": "Detroit",
    "postcode": "48226",
    "lat": 42.3290408,
    "lon": -83.0520808
  },
  {
    "street": "Cass Avenue",
    "housenumber": "4710",
    "city": "Detroit",
    "postcode": "48201",
    "lat": 42.3540733,
    "lon": -83.0653679
  },
  {
    "street": "East Forest Avenue",
    "housenumber": "66",
    "city": "Detroit",
    "postcode": "48201",
    "lat": 42.354844,
    "lon": -83.0614814
  },
  {
    "street": "2nd Avenue",
    "housenumber": "2727",
    "city": "Detroit",
    "postcode": "48201",
    "lat": 42.3399572,
    "lon": -83.0617334
  },
  {
    "street": "Southfield Expressway",
    "housenumber": "5801",
    "city": "Detroit",
    "postcode": "48228",
    "lat": 42.3312255,
    "lon": -83.2180563
  },
  {
    "street": "3rd Street",
    "housenumber": "1301",
    "city": "Detroit",
    "postcode": "48226",
    "lat": 42.3300386,
    "lon": -83.0577532
  },
  {
    "street": "3rd Street",
    "housenumber": "1301",
    "city": "Detroit",
    "postcode": "48226",
    "lat": 42.3302408,
    "lon": -83.0578873
  },
  {
    "street": "West Canfield Street",
    "housenumber": "460",
    "city": "Detroit",
    "postcode": "48201",
    "lat": 42.3515695,
    "lon": -83.065562
  },
  {
    "street": "3rd Street",
    "housenumber": "4700",
    "city": "Detroit",
    "postcode": "48201",
    "lat": 42.3524822,
    "lon": -83.0697434
  },
  {
    "street": "Michigan Avenue",
    "housenumber": "2124",
    "city": "Detroit",
    "postcode": "48216",
    "lat": 42.3315564,
    "lon": -83.0757066
  },
  {
    "street": "Michigan Avenue",
    "housenumber": "2130",
    "city": "Detroit",
    "postcode": "48226",
    "lat": 42.3315604,
    "lon": -83.0757759
  },
  {
    "street": "3rd Street",
    "housenumber": "8838",
    "city": "Detroit",
    "postcode": "48202",
    "lat": 42.3787924,
    "lon": -83.0862311
  },
  {
    "street": "West Grand Boulevard",
    "housenumber": "2590",
    "city": "Detroit",
    "postcode": "48208",
    "lat": 42.363361,
    "lon": -83.090168
  },
  {
    "street": "West Grand Boulevard",
    "housenumber": "2716",
    "city": "Detroit",
    "postcode": "48208",
    "lat": 42.3650164,
    "lon": -83.0862137
  },
  {
    "street": "West Willis Street",
    "housenumber": "422",
    "city": "Detroit",
    "postcode": "48201",
    "lat": 42.350535,
    "lon": -83.064125
  },
  {
    "street": "Cass Avenue",
    "housenumber": "4240",
    "city": "Detroit",
    "postcode": "48201",
    "lat": 42.3515361,
    "lon": -83.0639062
  },
  {
    "street": "Cass Avenue",
    "housenumber": "4240",
    "city": "Detroit",
    "postcode": "48201",
    "lat": 42.351374,
    "lon": -83.063841
  },
  {
    "street": "Cass Avenue",
    "housenumber": "4240",
    "city": "Detroit",
    "postcode": "48201",
    "lat": 42.351303,
    "lon": -83.063803
  },
  {
    "street": "Cass Avenue",
    "housenumber": "4240",
    "city": "Detroit",
    "postcode": "48201",
    "lat": 42.351098,
    "lon": -83.063685
  },
  {
    "street": "Woodward Avenue",
    "housenumber": "1241",
    "city": "Detroit",
    "postcode": "48226",
    "lat": 42.3334042,
    "lon": -83.048487
  },
  {
    "street": "8 Mile Road West",
    "housenumber": "2001",
    "city": "Detroit",
    "postcode": "48203",
    "lat": 42.4446697,
    "lon": -83.1217855
  },
  {
    "street": "Clay Street",
    "housenumber": "1604",
    "city": "Detroit",
    "postcode": "48211",
    "lat": 42.3788042,
    "lon": -83.0598324
  },
  {
    "street": "Greenfield Road",
    "housenumber": "6889",
    "city": "Detroit",
    "lat": 42.3424799,
    "lon": -83.1964974
  },
  {
    "street": "Michigan Avenue",
    "housenumber": "2445",
    "city": "Detroit",
    "postcode": "48216",
    "lat": 42.3311486,
    "lon": -83.0794726
  },
  {
    "street": "2nd Avenue",
    "housenumber": "4444",
    "city": "Detroit",
    "postcode": "48201",
    "lat": 42.3518863,
    "lon": -83.066716
  },
  {
    "street": "Mack Avenue",
    "housenumber": "101",
    "city": "Detroit",
    "postcode": "48201",
    "lat": 42.3477838,
    "lon": -83.0577976
  },
  {
    "street": "Woodward Avenue",
    "housenumber": "777",
    "city": "Detroit",
    "postcode": "48226",
    "lat": 42.3311984,
    "lon": -83.0472108
  },
  {
    "street": "East Jefferson Avenue",
    "housenumber": "14820",
    "city": "Detroit",
    "postcode": "48215",
    "lat": 42.3744805,
    "lon": -82.9396863
  },
  {
    "street": "East Jefferson Avenue",
    "housenumber": "14900",
    "city": "Detroit",
    "postcode": "48215",
    "lat": 42.374793,
    "lon": -82.939011
  },
  {
    "street": "Broadway Street",
    "housenumber": "1301",
    "city": "Detroit",
    "postcode": "48225",
    "lat": 42.3346546,
    "lon": -83.0458297
  },
  {
    "street": "3rd Street",
    "housenumber": "4474",
    "city": "Detroit",
    "postcode": "48201",
    "lat": 42.3514195,
    "lon": -83.0691403
  },
  {
    "street": "Woodward Avenue",
    "housenumber": "4265",
    "city": "Detroit",
    "lat": 42.3524547,
    "lon": -83.0616009
  },
  {
    "street": "Bretton Drive",
    "housenumber": "18660",
    "city": "Detroit",
    "postcode": "48219",
    "lat": 42.4061555,
    "lon": -83.223181
  },
  {
    "street": "Grand River Avenue",
    "housenumber": "19180",
    "city": "Detroit",
    "postcode": "48219",
    "lat": 42.4057657,
    "lon": -83.2301329
  },
  {
    "street": "Rosemont Avenue",
    "housenumber": "17320",
    "city": "Detroit",
    "postcode": "48219",
    "lat": 42.4185565,
    "lon": -83.2212305
  },
  {
    "street": "Garfield Street",
    "housenumber": "71",
    "city": "Detroit",
    "lat": 42.354497,
    "lon": -83.0612132
  },
  {
    "street": "Grand River Avenue",
    "housenumber": "21431",
    "city": "Detroit",
    "postcode": "48219",
    "lat": 42.4135652,
    "lon": -83.2523536
  },
  {
    "street": "Plymouth Road",
    "housenumber": "20427",
    "city": "Detroit",
    "postcode": "48228",
    "lat": 42.3715882,
    "lon": -83.2400998
  },
  {
    "street": "E. Fisher Service Dr",
    "housenumber": "1343",
    "city": "Detroit",
    "postcode": "48207",
    "lat": 42.3452165,
    "lon": -83.0404774
  },
  {
    "street": "West Canfield Street",
    "housenumber": "441",
    "city": "Detroit",
    "lat": 42.3512927,
    "lon": -83.0652117
  },
  {
    "street": "Woodward Avenue",
    "housenumber": "3965",
    "city": "Detroit",
    "postcode": "48201",
    "lat": 42.3503889,
    "lon": -83.0601644
  },
  {
    "street": "Schaefer Highway",
    "housenumber": "13150",
    "city": "Detroit",
    "postcode": "48227",
    "lat": 42.384129,
    "lon": -83.1780833
  },
  {
    "street": "Wyoming Street",
    "housenumber": "18207",
    "city": "Detroit",
    "postcode": "48221",
    "lat": 42.4245841,
    "lon": -83.1609817
  },
  {
    "street": "West Vernor Highway",
    "housenumber": "4627",
    "city": "Detroit",
    "lat": 42.3191913,
    "lon": -83.0974853
  },
  {
    "street": "West Vernor Highway",
    "housenumber": "4645",
    "city": "Detroit",
    "postcode": "48209",
    "lat": 42.3185577,
    "lon": -83.0975027
  },
  {
    "street": "West Vernor Highway",
    "housenumber": "4848",
    "city": "Detroit",
    "postcode": "48209",
    "lat": 42.318527,
    "lon": -83.1004317
  },
  {
    "street": "West Vernor Highway",
    "housenumber": "4850",
    "city": "Detroit",
    "postcode": "48209",
    "lat": 42.3185032,
    "lon": -83.1005135
  },
  {
    "street": "West Vernor Highway",
    "housenumber": "5458",
    "city": "Detroit",
    "lat": 42.3179982,
    "lon": -83.1017278
  },
  {
    "street": "West Vernor Highway",
    "housenumber": "5684",
    "city": "Detroit",
    "postcode": "48209",
    "lat": 42.3173312,
    "lon": -83.1033354
  },
  {
    "street": "West Vernor Highway",
    "housenumber": "5831",
    "city": "Detroit",
    "postcode": "48209",
    "lat": 42.3165725,
    "lon": -83.104348
  },
  {
    "street": "West Vernor Highway",
    "housenumber": "6171",
    "city": "Detroit",
    "postcode": "48209",
    "lat": 42.3163424,
    "lon": -83.1045036
  },
  {
    "street": "West Vernor Highway",
    "housenumber": "6200",
    "city": "Detroit",
    "postcode": "48209",
    "lat": 42.316036,
    "lon": -83.1084692
  },
  {
    "street": "West Vernor Highway",
    "housenumber": "6170",
    "city": "Detroit",
    "postcode": "48209",
    "lat": 42.316039,
    "lon": -83.1083284
  },
  {
    "street": "West Vernor Highway",
    "housenumber": "6162",
    "city": "Detroit",
    "postcode": "48209",
    "lat": 42.3160469,
    "lon": -83.108146
  },
  {
    "street": "West Vernor Highway",
    "housenumber": "6415",
    "city": "Detroit",
    "postcode": "48209",
    "lat": 42.3160578,
    "lon": -83.1079221
  },
  {
    "street": "West Vernor Highway",
    "housenumber": "6138",
    "city": "Detroit",
    "postcode": "48209",
    "lat": 42.3160687,
    "lon": -83.1075908
  },
  {
    "street": "West Vernor Highway",
    "housenumber": "6100",
    "city": "Detroit",
    "postcode": "48209",
    "lat": 42.3160777,
    "lon": -83.1073481
  },
  {
    "street": "Fort Street West",
    "housenumber": "450",
    "city": "Detroit",
    "postcode": "48226",
    "lat": 42.3290691,
    "lon": -83.0516898
  },
  {
    "street": "Park Avenue",
    "housenumber": "2233",
    "city": "Detroit",
    "postcode": "48226",
    "lat": 42.3380282,
    "lon": -83.0539945
  },
  {
    "street": "Clifford Street",
    "housenumber": "110",
    "city": "Detroit",
    "postcode": "48226",
    "lat": 42.3347836,
    "lon": -83.0503093
  },
  {
    "street": "Griswold Street",
    "housenumber": "1220",
    "city": "Detroit",
    "postcode": "48226",
    "lat": 42.3329874,
    "lon": -83.0489956
  },
  {
    "street": "Greenfield Road",
    "housenumber": "12070",
    "city": "Detroit",
    "postcode": "48227",
    "lat": 42.3758166,
    "lon": -83.1972358
  },
  {
    "street": "Cass Avenue",
    "housenumber": "4130",
    "city": "Detroit",
    "lat": 42.3501143,
    "lon": -83.0630264
  },
  {
    "street": "Woodward Avenue",
    "housenumber": "3670",
    "city": "Detroit",
    "postcode": "48201",
    "lat": 42.3483562,
    "lon": -83.058174
  },
  {
    "street": "Woodward Avenue",
    "housenumber": "3433",
    "city": "Detroit",
    "postcode": "48201",
    "lat": 42.3457613,
    "lon": -83.0570793
  },
  {
    "street": "Peterboro Street",
    "housenumber": "412",
    "city": "Detroit",
    "lat": 42.3443597,
    "lon": -83.0604367
  },
  {
    "street": "Cass Avenue",
    "housenumber": "3401",
    "city": "Detroit",
    "lat": 42.3444241,
    "lon": -83.0602476
  },
  {
    "street": "Gullen Mall",
    "housenumber": "5221",
    "city": "Detroit",
    "postcode": "48202",
    "lat": 42.3584087,
    "lon": -83.0710154
  },
  {
    "street": "Woodward Avenue",
    "housenumber": "3111",
    "city": "Detroit",
    "postcode": "48201",
    "lat": 42.3444618,
    "lon": -83.0561941
  },
  {
    "street": "Gullen Mall",
    "housenumber": "5221",
    "city": "Detroit",
    "postcode": "48202",
    "lat": 42.3584583,
    "lon": -83.0709067
  },
  {
    "street": "Gullen Mall",
    "housenumber": "5221",
    "city": "Detroit",
    "postcode": "48202",
    "lat": 42.3583839,
    "lon": -83.071006
  },
  {
    "street": "Cass Avenue",
    "housenumber": "4704",
    "city": "Detroit",
    "postcode": "48201",
    "lat": 42.3539002,
    "lon": -83.0652808
  },
  {
    "street": "Cass Avenue",
    "housenumber": "3409",
    "city": "Detroit",
    "lat": 42.3445451,
    "lon": -83.060304
  },
  {
    "street": "Renaissance Drive West",
    "housenumber": "400",
    "city": "Detroit",
    "postcode": "48243",
    "lat": 42.3289907,
    "lon": -83.0397978
  },
  {
    "street": "Market",
    "housenumber": "2468",
    "city": "Detroit",
    "postcode": "48207",
    "lat": 42.3461365,
    "lon": -83.0388675
  },
  {
    "street": "Division Street",
    "housenumber": "1345",
    "city": "Detroit",
    "postcode": "48207",
    "lat": 42.3468349,
    "lon": -83.041551
  },
  {
    "street": "Market Street",
    "housenumber": "2534",
    "city": "Detroit",
    "lat": 42.3468069,
    "lon": -83.0394028
  },
  {
    "street": "Russell Street",
    "housenumber": "2509",
    "city": "Detroit",
    "lat": 42.3461685,
    "lon": -83.0405233
  },
  {
    "street": "Russell Street",
    "housenumber": "2461",
    "city": "Detroit",
    "lat": 42.3454606,
    "lon": -83.0400854
  },
  {
    "street": "East Fisher Freeway",
    "housenumber": "1416",
    "city": "Detroit",
    "postcode": "48207",
    "lat": 42.3448107,
    "lon": -83.0390077
  },
  {
    "street": "Russell Street",
    "housenumber": "2457",
    "city": "Detroit",
    "lat": 42.3453951,
    "lon": -83.0400382
  },
  {
    "street": "Russell Street",
    "housenumber": "2469",
    "city": "Detroit",
    "lat": 42.3455454,
    "lon": -83.0401403
  },
  {
    "street": "Market Street",
    "housenumber": "2530",
    "city": "Detroit",
    "lat": 42.346744,
    "lon": -83.0393598
  },
  {
    "street": "Library Street",
    "housenumber": "1260",
    "city": "Detroit",
    "postcode": "48226",
    "lat": 42.3345521,
    "lon": -83.0471933
  },
  {
    "street": "Library Street",
    "housenumber": "1250",
    "city": "Detroit",
    "postcode": "48226",
    "lat": 42.3344738,
    "lon": -83.0469904
  },
  {
    "street": "Conner Street",
    "housenumber": "4703",
    "city": "Detroit",
    "postcode": "48215",
    "lat": 42.3872246,
    "lon": -82.9728123
  },
  {
    "street": "East Warren Avenue",
    "housenumber": "11950",
    "city": "Detroit",
    "postcode": "48214",
    "lat": 42.3883122,
    "lon": -82.9769107
  },
  {
    "street": "Jefferson Avenue",
    "housenumber": "2600",
    "city": "Detroit",
    "postcode": "48207",
    "lat": 42.3381616,
    "lon": -83.0221555
  },
  {
    "street": "Van Dyke Street",
    "housenumber": "19638",
    "city": "Detroit",
    "postcode": "48234",
    "lat": 42.4393943,
    "lon": -83.0240288
  },
  {
    "street": "West Vernor Highway",
    "housenumber": "6408",
    "city": "Detroit",
    "postcode": "48209",
    "lat": 42.3159181,
    "lon": -83.1120569
  },
  {
    "street": "Brush Street",
    "housenumber": "575",
    "city": "Detroit",
    "postcode": "48226",
    "lat": 42.3315929,
    "lon": -83.0420431
  },
  {
    "street": "Fenkell Street",
    "housenumber": "13534",
    "city": "Detroit",
    "postcode": "48227",
    "lat": 42.4022625,
    "lon": -83.1788286
  },
  {
    "street": "Porter Street",
    "housenumber": "1400",
    "city": "Detroit",
    "lat": 42.3284895,
    "lon": -83.0633192
  },
  {
    "street": "West Vernor Highway",
    "housenumber": "7620",
    "city": "Detroit",
    "lat": 42.3130789,
    "lon": -83.1236054
  },
  {
    "street": "West Vernor Highway",
    "housenumber": "7603",
    "city": "Detroit",
    "postcode": "48209",
    "lat": 42.3129817,
    "lon": -83.1230944
  },
  {
    "street": "West Vernor Highway",
    "housenumber": "7139",
    "city": "Detroit",
    "postcode": "48209",
    "lat": 42.3139536,
    "lon": -83.120773
  },
  {
    "street": "John R Street",
    "housenumber": "17900",
    "city": "Detroit",
    "postcode": "48203",
    "lat": 42.4240499,
    "lon": -83.1018391
  },
  {
    "street": "Livernois Avenue",
    "housenumber": "15018",
    "city": "Detroit",
    "postcode": "48238",
    "lat": 42.400751,
    "lon": -83.139815
  },
  {
    "street": "Fairfield Avenue",
    "housenumber": "16249",
    "city": "Detroit",
    "postcode": "48221",
    "lat": 42.4121395,
    "lon": -83.1353729
  },
  {
    "street": "East Grand Boulevard",
    "housenumber": "2844",
    "city": "Detroit",
    "postcode": "48211",
    "lat": 42.3737682,
    "lon": -83.0647872
  },
  {
    "street": "Griswold Street",
    "housenumber": "719",
    "city": "Detroit",
    "postcode": "48226",
    "lat": 42.3309932,
    "lon": -83.0478905
  },
  {
    "street": "Adams Street West",
    "housenumber": "76",
    "city": "Detroit",
    "lat": 42.3365317,
    "lon": -83.0522304
  },
  {
    "street": "W 7 Mile Rd",
    "housenumber": "20227",
    "city": "Detroit",
    "postcode": "48219",
    "lat": 42.4292539,
    "lon": -83.2412941
  },
  {
    "street": "Jefferson Avenue East",
    "housenumber": "3180",
    "city": "Detroit",
    "postcode": "48207",
    "lat": 42.3404888,
    "lon": -83.0163873
  },
  {
    "street": "Woodward Avenue",
    "housenumber": "660",
    "city": "Detroit",
    "postcode": "48226",
    "lat": 42.3307076,
    "lon": -83.0449477
  },
  {
    "street": "Trumbull Street",
    "housenumber": "1701",
    "city": "Detroit",
    "postcode": "48216",
    "lat": 42.3296059,
    "lon": -83.0658454
  },
  {
    "street": "Livernois Avenue",
    "housenumber": "19983",
    "city": "Detroit",
    "postcode": "48221",
    "lat": 42.4400674,
    "lon": -83.1421249
  },
  {
    "street": "West McNichols Road",
    "housenumber": "8031",
    "city": "Detroit",
    "postcode": "48221",
    "lat": 42.4168931,
    "lon": -83.1503843
  },
  {
    "street": "East Forest Avenue",
    "housenumber": "33",
    "city": "Detroit",
    "postcode": "48201",
    "lat": 42.3551503,
    "lon": -83.0626779
  },
  {
    "street": "Woodward Avenue",
    "housenumber": "1459",
    "city": "Detroit",
    "postcode": "48226",
    "lat": 42.3347782,
    "lon": -83.049514
  },
  {
    "street": "Woodward Avenue",
    "housenumber": "1261",
    "city": "Detroit",
    "postcode": "48226",
    "lat": 42.3335824,
    "lon": -83.0486082
  },
  {
    "street": "Woodward Avenue",
    "housenumber": "1000",
    "city": "Detroit",
    "postcode": "48226",
    "lat": 42.3324368,
    "lon": -83.0471077
  },
  {
    "street": "Monroe Street",
    "housenumber": "95",
    "city": "Detroit",
    "postcode": "48226",
    "lat": 42.3331857,
    "lon": -83.0456926
  },
  {
    "street": "Monroe Street",
    "housenumber": "119",
    "city": "Detroit",
    "postcode": "48226",
    "lat": 42.3337028,
    "lon": -83.0452929
  },
  {
    "street": "Russell Street",
    "housenumber": "3500",
    "city": "Detroit",
    "postcode": "48207",
    "lat": 42.3523174,
    "lon": -83.0441586
  },
  {
    "street": "Woodward Avenue",
    "housenumber": "660",
    "city": "Detroit",
    "postcode": "48226",
    "lat": 42.3310799,
    "lon": -83.0460237
  },
  {
    "street": "Woodward Avenue",
    "housenumber": "660",
    "city": "Detroit",
    "postcode": "48226",
    "lat": 42.3312547,
    "lon": -83.0460042
  },
  {
    "street": "Woodward Avenue",
    "housenumber": "660",
    "city": "Detroit",
    "postcode": "48226",
    "lat": 42.3312511,
    "lon": -83.0457994
  },
  {
    "street": "Cadillac Square",
    "housenumber": "139",
    "city": "Detroit",
    "postcode": "48226",
    "lat": 42.3318455,
    "lon": -83.0436398
  },
  {
    "street": "West Vernor Highway",
    "housenumber": "4430",
    "city": "Detroit",
    "lat": 42.3201566,
    "lon": -83.0965034
  },
  {
    "street": "Joseph Campau Street",
    "housenumber": "237",
    "city": "Detroit",
    "postcode": "48207",
    "lat": 42.3372918,
    "lon": -83.0184893
  },
  {
    "street": "Heidelberg Street",
    "housenumber": "3600",
    "city": "Detroit",
    "postcode": "48207",
    "lat": 42.3589172,
    "lon": -83.0215022
  },
  {
    "street": "Livernois Avenue",
    "housenumber": "19345",
    "city": "Detroit",
    "postcode": "48221",
    "lat": 42.4341419,
    "lon": -83.1419467
  },
  {
    "street": "Larned Street West",
    "housenumber": "250",
    "city": "Detroit",
    "lat": 42.3282327,
    "lon": -83.0483848
  },
  {
    "street": "Trumbull Street",
    "housenumber": "1331",
    "city": "Detroit",
    "lat": 42.3270936,
    "lon": -83.0643498
  },
  {
    "street": "Meyers Road",
    "housenumber": "11600",
    "city": "Detroit",
    "postcode": "48227",
    "lat": 42.3734592,
    "lon": -83.1678752
  },
  {
    "street": "Woodward Avenue",
    "housenumber": "19854",
    "city": "Detroit",
    "postcode": "48203",
    "lat": 42.4390902,
    "lon": -83.1194472
  },
  {
    "street": "Cass Avenue",
    "housenumber": "5800",
    "city": "Detroit",
    "lat": 42.3625133,
    "lon": -83.0701039
  },
  {
    "street": "Cass Avenue",
    "housenumber": "5482",
    "city": "Detroit",
    "postcode": "48202",
    "lat": 42.3606226,
    "lon": -83.0690985
  },
  {
    "street": "Cass Avenue",
    "housenumber": "5440",
    "city": "Detroit",
    "postcode": "48226",
    "lat": 42.3598979,
    "lon": -83.0686453
  },
  {
    "street": "Cass Avenue",
    "housenumber": "3611",
    "city": "Detroit",
    "postcode": "48201",
    "lat": 42.346341,
    "lon": -83.0613584
  },
  {
    "street": "Gratiot Avenue",
    "housenumber": "1464",
    "city": "Detroit",
    "lat": 42.3443905,
    "lon": -83.0377864
  },
  {
    "street": "Mack Avenue",
    "housenumber": "18051",
    "city": "Detroit",
    "postcode": "48224",
    "lat": 42.4057894,
    "lon": -82.9161579
  },
  {
    "street": "West Baltimore Avenue",
    "housenumber": "460",
    "city": "Detroit",
    "postcode": "48202",
    "lat": 42.3680145,
    "lon": -83.0748092
  },
  {
    "street": "West Grand Boulevard",
    "housenumber": "3011",
    "city": "Detroit",
    "lat": 42.3699211,
    "lon": -83.077155
  },
  {
    "street": "Oakland Avenue",
    "housenumber": "9354",
    "city": "Detroit",
    "postcode": "48211",
    "lat": 42.3871811,
    "lon": -83.0731861
  },
  {
    "street": "Fort Street West",
    "housenumber": "211",
    "city": "Detroit",
    "lat": 42.3292319,
    "lon": -83.0489805
  },
  {
    "street": "East 8 Mile Road",
    "housenumber": "1830",
    "city": "Highland Park",
    "postcode": "48203",
    "lat": 42.4467627,
    "lon": -83.0838215
  },
  {
    "street": "East 8 Mile Road",
    "housenumber": "2050",
    "city": "Detroit",
    "postcode": "48234",
    "lat": 42.4468156,
    "lon": -83.0800241
  },
  {
    "street": "East 8 Mile Road",
    "housenumber": "2600",
    "city": "Detroit",
    "postcode": "48234",
    "lat": 42.4468502,
    "lon": -83.0761457
  },
  {
    "street": "East 8 Mile Road",
    "housenumber": "3000",
    "city": "Detroit",
    "postcode": "48234",
    "lat": 42.4469423,
    "lon": -83.0727392
  },
  {
    "street": "Rosa Parks Boulevard",
    "housenumber": "8665",
    "city": "Detroit",
    "lat": 42.3719268,
    "lon": -83.0979365
  },
  {
    "street": "Livernois Avenue",
    "housenumber": "13300",
    "city": "Detroit",
    "postcode": "48238",
    "lat": 42.3861231,
    "lon": -83.1391802
  },
  {
    "street": "West Fort Street",
    "housenumber": "160",
    "city": "Detroit",
    "postcode": "48226",
    "lat": 42.330625,
    "lon": -83.0483036
  },
  {
    "street": "Livernois Avenue",
    "housenumber": "3149",
    "city": "Detroit",
    "lat": 42.3247586,
    "lon": -83.1165091
  },
  {
    "street": "Michigan Avenue",
    "housenumber": "2015",
    "city": "Detroit",
    "lat": 42.3311861,
    "lon": -83.0739045
  },
  {
    "street": "Lenox Street",
    "housenumber": "383",
    "city": "Detroit",
    "postcode": "48215",
    "lat": 42.3617777,
    "lon": -82.9463022
  },
  {
    "street": "Marseilles Street",
    "housenumber": "4300",
    "city": "Detroit",
    "postcode": "48224",
    "lat": 42.4050219,
    "lon": -82.9183515
  },
  {
    "street": "West Davison Avenue",
    "housenumber": "7501",
    "city": "Detroit",
    "postcode": "48238",
    "lat": 42.3860618,
    "lon": -83.145639
  },
  {
    "street": "West Davison Avenue",
    "housenumber": "7500",
    "city": "Detroit",
    "postcode": "48238",
    "lat": 42.38657,
    "lon": -83.1455765
  },
  {
    "street": "Livernois Avenue",
    "housenumber": "13500",
    "city": "Detroit",
    "postcode": "48238",
    "lat": 42.3869789,
    "lon": -83.1392738
  },
  {
    "street": "Livernois",
    "housenumber": "14001",
    "city": "Detroit",
    "postcode": "48238",
    "lat": 42.3916427,
    "lon": -83.1401128
  },
  {
    "street": "Livernois Avenue",
    "housenumber": "15230",
    "city": "Detroit",
    "postcode": "48238",
    "lat": 42.4024241,
    "lon": -83.1399075
  },
  {
    "street": "Fenkell Street",
    "housenumber": "6306",
    "city": "Detroit",
    "postcode": "48238",
    "lat": 42.4029641,
    "lon": -83.1405778
  },
  {
    "street": "Livernois Avenue",
    "housenumber": "15464",
    "city": "Detroit",
    "postcode": "48238",
    "lat": 42.4056351,
    "lon": -83.1400139
  },
  {
    "street": "Livernois Avenue",
    "housenumber": "15880",
    "city": "Detroit",
    "postcode": "48238",
    "lat": 42.4087265,
    "lon": -83.1401348
  },
  {
    "street": "Livernois Avenue",
    "housenumber": "15911",
    "city": "Detroit",
    "postcode": "48221",
    "lat": 42.4095893,
    "lon": -83.1407802
  },
  {
    "street": "Livernois Avenue",
    "housenumber": "17100",
    "city": "Detroit",
    "postcode": "48221",
    "lat": 42.4174457,
    "lon": -83.1405332
  },
  {
    "street": "Saint Antoine Street",
    "housenumber": "1900",
    "city": "Detroit",
    "postcode": "48226",
    "lat": 42.3397052,
    "lon": -83.0426359
  },
  {
    "street": "Grand River Avenue",
    "housenumber": "19614",
    "city": "Detroit",
    "postcode": "48223",
    "lat": 42.4078595,
    "lon": -83.2352705
  },
  {
    "street": "Gratiot Avenue",
    "housenumber": "14749",
    "city": "Detroit",
    "lat": 42.4406816,
    "lon": -82.9743456
  },
  {
    "street": "Gratiot Avenue",
    "housenumber": "14659",
    "city": "Detroit",
    "lat": 42.43966,
    "lon": -82.9749846
  },
  {
    "street": "Gratiot Avenue",
    "housenumber": "14655",
    "city": "Detroit",
    "lat": 42.4396276,
    "lon": -82.9749987
  },
  {
    "street": "East 7 Mile Road",
    "housenumber": "15235",
    "city": "Detroit",
    "postcode": "48205",
    "lat": 42.4356608,
    "lon": -82.9646419
  },
  {
    "street": "East 7 Mile Road",
    "housenumber": "14119",
    "city": "Detroit",
    "postcode": "48205",
    "lat": 42.4354497,
    "lon": -82.9791296
  },
  {
    "street": "Gratiot Avenue",
    "housenumber": "14243",
    "city": "Detroit",
    "lat": 42.4343741,
    "lon": -82.9784648
  },
  {
    "street": "Gratiot Avenue",
    "housenumber": "14318",
    "city": "Detroit",
    "postcode": "48205",
    "lat": 42.4357785,
    "lon": -82.9763463
  },
  {
    "street": "Gratiot Avenue",
    "housenumber": "14418",
    "city": "Detroit",
    "lat": 42.4367125,
    "lon": -82.9763059
  },
  {
    "street": "Gratiot Avenue",
    "housenumber": "14366",
    "city": "Detroit",
    "lat": 42.4361196,
    "lon": -82.9767082
  },
  {
    "street": "Gratiot Avenue",
    "housenumber": "14130",
    "city": "Detroit",
    "lat": 42.432973,
    "lon": -82.9787474
  },
  {
    "street": "Gratiot Avenue",
    "housenumber": "14025",
    "city": "Detroit",
    "lat": 42.4317044,
    "lon": -82.9801954
  },
  {
    "street": "Gratiot Avenue",
    "housenumber": "13959",
    "city": "Detroit",
    "lat": 42.4305072,
    "lon": -82.981048
  },
  {
    "street": "Gratiot Avenue",
    "housenumber": "13935",
    "city": "Detroit",
    "lat": 42.430076,
    "lon": -82.9812842
  },
  {
    "street": "Gratiot Avenue",
    "housenumber": "15084",
    "city": "Detroit",
    "lat": 42.444924,
    "lon": -82.9706934
  },
  {
    "street": "Gratiot Avenue",
    "housenumber": "15080",
    "city": "Detroit",
    "lat": 42.4448956,
    "lon": -82.9707365
  },
  {
    "street": "Gratiot Avenue",
    "housenumber": "15092",
    "city": "Detroit",
    "lat": 42.445056,
    "lon": -82.9706282
  },
  {
    "street": "Gratiot Avenue",
    "housenumber": "15088",
    "city": "Detroit",
    "lat": 42.4449913,
    "lon": -82.9706723
  },
  {
    "street": "Gratiot Avenue",
    "housenumber": "15068",
    "city": "Detroit",
    "lat": 42.4447603,
    "lon": -82.970812
  },
  {
    "street": "Gratiot Avenue",
    "housenumber": "15072",
    "city": "Detroit",
    "lat": 42.4448069,
    "lon": -82.9707929
  },
  {
    "street": "Gratiot Avenue",
    "housenumber": "15076",
    "city": "Detroit",
    "lat": 42.444852,
    "lon": -82.9707675
  },
  {
    "street": "Gratiot Avenue",
    "housenumber": "15096",
    "city": "Detroit",
    "lat": 42.4451095,
    "lon": -82.970604
  },
  {
    "street": "Gratiot Avenue",
    "housenumber": "15100",
    "city": "Detroit",
    "lat": 42.4451563,
    "lon": -82.9705764
  },
  {
    "street": "Gratiot Avenue",
    "housenumber": "15157",
    "city": "Detroit",
    "lat": 42.4457781,
    "lon": -82.9709289
  },
  {
    "street": "West Warren Avenue",
    "housenumber": "16050",
    "city": "Detroit",
    "postcode": "48228",
    "lat": 42.3438662,
    "lon": -83.2022495
  },
  {
    "street": "Gratiot Avenue",
    "housenumber": "13644",
    "city": "Detroit",
    "lat": 42.4263856,
    "lon": -82.9829075
  },
  {
    "street": "East 7 Mile Road",
    "housenumber": "15236",
    "city": "Detroit",
    "lat": 42.4351646,
    "lon": -82.9643075
  },
  {
    "street": "East 7 Mile Road",
    "housenumber": "15632",
    "city": "Detroit",
    "lat": 42.4351616,
    "lon": -82.9644191
  },
  {
    "street": "East 7 Mile Road",
    "housenumber": "15226",
    "city": "Detroit",
    "lat": 42.4351624,
    "lon": -82.9645156
  },
  {
    "street": "East 7 Mile Road",
    "housenumber": "15224",
    "city": "Detroit",
    "lat": 42.4351573,
    "lon": -82.964648
  },
  {
    "street": "East 7 Mile Road",
    "housenumber": "15212",
    "city": "Detroit",
    "lat": 42.435151,
    "lon": -82.9647839
  },
  {
    "street": "East 7 Mile Road",
    "housenumber": "15208",
    "city": "Detroit",
    "lat": 42.4351419,
    "lon": -82.9648598
  },
  {
    "street": "East 7 Mile Road",
    "housenumber": "15200",
    "city": "Detroit",
    "lat": 42.4351419,
    "lon": -82.9649444
  },
  {
    "street": "Gratiot Avenue",
    "housenumber": "15405",
    "city": "Detroit",
    "postcode": "48205",
    "lat": 42.4482709,
    "lon": -82.9698194
  },
  {
    "street": "Gratiot Avenue",
    "housenumber": "15415",
    "city": "Detroit",
    "postcode": "48205",
    "lat": 42.4487756,
    "lon": -82.9702561
  },
  {
    "street": "Gratiot Avenue",
    "housenumber": "15137;15133",
    "city": "Detroit",
    "lat": 42.4455975,
    "lon": -82.971059
  },
  {
    "street": "Michigan Avenue",
    "housenumber": "1800",
    "city": "Detroit",
    "postcode": "48216",
    "lat": 42.3315704,
    "lon": -83.0708588
  },
  {
    "street": "West Lafayette Boulevard",
    "housenumber": "1627",
    "city": "Detroit",
    "postcode": "48216",
    "lat": 42.3244825,
    "lon": -83.0641978
  },
  {
    "street": "West Lafayette Boulevard",
    "housenumber": "1629",
    "city": "Detroit",
    "postcode": "48216",
    "lat": 42.3244088,
    "lon": -83.0643709
  },
  {
    "street": "West Fort Street",
    "housenumber": "1444",
    "city": "Detroit",
    "postcode": "48216",
    "lat": 42.3252081,
    "lon": -83.0612032
  },
  {
    "street": "Michigan Avenue",
    "housenumber": "1446",
    "city": "Detroit",
    "postcode": "48216",
    "lat": 42.3316179,
    "lon": -83.0665049
  },
  {
    "street": "Monroe Avenue",
    "housenumber": "419",
    "city": "Detroit",
    "postcode": "48226",
    "lat": 42.334748,
    "lon": -83.0432982
  },
  {
    "street": "Van Dyke Street",
    "housenumber": "19030",
    "city": "Detroit",
    "postcode": "48234",
    "lat": 42.4337352,
    "lon": -83.0234953
  },
  {
    "street": "Van Dyke Street",
    "housenumber": "19030",
    "city": "Detroit",
    "postcode": "48234",
    "lat": 42.4337848,
    "lon": -83.023788
  },
  {
    "street": "Trumbull Street",
    "housenumber": "1400",
    "city": "Detroit",
    "postcode": "48216",
    "lat": 42.3281198,
    "lon": -83.0641047
  },
  {
    "street": "Telegraph Rd",
    "housenumber": "16160",
    "city": "Detroit",
    "postcode": "48219",
    "lat": 42.4083769,
    "lon": -83.2763258
  },
  {
    "street": "Howard Street",
    "housenumber": "1752",
    "city": "Detroit",
    "postcode": "48216",
    "lat": 42.3249297,
    "lon": -83.0666103
  },
  {
    "street": "Rowan Street",
    "housenumber": "7000",
    "city": "Detroit",
    "postcode": "48209",
    "lat": 42.308625,
    "lon": -83.1145865
  },
  {
    "street": "Michigan Avenue",
    "housenumber": "5407",
    "city": "Detroit",
    "postcode": "48210",
    "lat": 42.3308689,
    "lon": -83.1096601
  },
  {
    "street": "Mound Road",
    "housenumber": "19737",
    "city": "Detroit",
    "lat": 42.4401782,
    "lon": -83.0444492
  },
  {
    "street": "Telegraph Road",
    "housenumber": "19150",
    "city": "Detroit",
    "postcode": "48219",
    "lat": 42.4299906,
    "lon": -83.2764903
  },
  {
    "street": "Livernois Avenue",
    "housenumber": "20510",
    "city": "Detroit",
    "postcode": "48221",
    "lat": 42.4453925,
    "lon": -83.1416246
  },
  {
    "street": "Michigan Avenue",
    "housenumber": "2100",
    "city": "Detroit",
    "postcode": "48216",
    "lat": 42.3315628,
    "lon": -83.0752579
  },
  {
    "street": "Michigan Avenue",
    "housenumber": "2114",
    "city": "Detroit",
    "postcode": "48216",
    "lat": 42.3315506,
    "lon": -83.0754917
  },
  {
    "street": "E 8 Mile Rd",
    "housenumber": "13000",
    "city": "Detroit",
    "postcode": "48205",
    "lat": 42.4489536,
    "lon": -82.9915629
  },
  {
    "street": "Trumbull Street",
    "housenumber": "1701",
    "city": "Detroit",
    "postcode": "48216",
    "lat": 42.3295223,
    "lon": -83.065772
  },
  {
    "street": "Trumbull Street",
    "housenumber": "1701",
    "city": "Detroit",
    "postcode": "48216",
    "lat": 42.3296336,
    "lon": -83.0658634
  },
  {
    "street": "Woodward Avenue",
    "housenumber": "3939",
    "city": "Detroit",
    "postcode": "48201",
    "lat": 42.3500766,
    "lon": -83.0599323
  },
  {
    "street": "Orleans Street",
    "housenumber": "2638",
    "city": "Detroit",
    "postcode": "48207",
    "lat": 42.348327,
    "lon": -83.0377682
  },
  {
    "street": "Woodward Avenue",
    "housenumber": "4206",
    "city": "Detroit",
    "postcode": "48201",
    "lat": 42.3520075,
    "lon": -83.06068
  },
  {
    "street": "Mack Avenue",
    "housenumber": "14845",
    "city": "Detroit",
    "postcode": "48215",
    "lat": 42.3877836,
    "lon": -82.9486343
  },
  {
    "street": "Mack Avenue",
    "housenumber": "14845",
    "city": "Detroit",
    "postcode": "48215",
    "lat": 42.3875548,
    "lon": -82.9484385
  },
  {
    "street": "East Fort Street",
    "housenumber": "407",
    "city": "Detroit",
    "postcode": "48226",
    "lat": 42.3331247,
    "lon": -83.0426916
  },
  {
    "street": "Greenfield Road",
    "housenumber": "14170",
    "city": "Detroit",
    "postcode": "48227",
    "lat": 42.3905166,
    "lon": -83.1977639
  },
  {
    "street": "Vermont Street",
    "housenumber": "2746",
    "city": "Detroit",
    "postcode": "48216",
    "lat": 42.3355712,
    "lon": -83.0754906
  },
  {
    "street": "Woodward Avenue",
    "housenumber": "800",
    "city": "Detroit",
    "postcode": "48226",
    "lat": 42.3318412,
    "lon": -83.0465537
  },
  {
    "street": "Michigan Avenue",
    "housenumber": "1715",
    "city": "Detroit",
    "postcode": "48216",
    "lat": 42.3311409,
    "lon": -83.0695602
  },
  {
    "street": "Russell Street",
    "housenumber": "2501",
    "city": "Detroit",
    "postcode": "48207",
    "lat": 42.3460052,
    "lon": -83.0404444
  },
  {
    "street": "East Jefferson Avenue",
    "housenumber": "3171",
    "city": "Detroit",
    "postcode": "48207",
    "lat": 42.3411444,
    "lon": -83.017114
  },
  {
    "street": "East Jefferson Avenue",
    "housenumber": "2990",
    "city": "Detroit",
    "postcode": "48207",
    "lat": 42.3399653,
    "lon": -83.0181018
  },
  {
    "street": "East Jefferson Avenue",
    "housenumber": "3245",
    "city": "Detroit",
    "postcode": "48207",
    "lat": 42.3419071,
    "lon": -83.0154346
  },
  {
    "street": "Mack Avenue",
    "housenumber": "14708",
    "city": "Detroit",
    "postcode": "48215",
    "lat": 42.3861588,
    "lon": -82.9489704
  },
  {
    "street": "Mack Avenue",
    "housenumber": "14712",
    "city": "Detroit",
    "postcode": "48215",
    "lat": 42.386281,
    "lon": -82.948628
  },
  {
    "street": "Mack Avenue",
    "housenumber": "14642",
    "city": "Detroit",
    "postcode": "48215",
    "lat": 42.3861673,
    "lon": -82.949478
  },
  {
    "street": "East Jefferson Avenue",
    "housenumber": "3321",
    "city": "Detroit",
    "postcode": "48207",
    "lat": 42.3422582,
    "lon": -83.0143397
  },
  {
    "street": "East Jefferson Avenue",
    "housenumber": "3333",
    "city": "Detroit",
    "postcode": "48207",
    "lat": 42.3422548,
    "lon": -83.0140694
  },
  {
    "street": "Brush Street",
    "housenumber": "3411",
    "city": "Detroit",
    "postcode": "48201",
    "lat": 42.3476837,
    "lon": -83.0526846
  },
  {
    "street": "Woodward Avenue",
    "housenumber": "2901",
    "city": "Detroit",
    "postcode": "48201",
    "lat": 42.3433902,
    "lon": -83.055754
  },
  {
    "street": "East Jefferson Avenue",
    "housenumber": "3370",
    "city": "Detroit",
    "postcode": "48207",
    "lat": 42.3416491,
    "lon": -83.0130429
  },
  {
    "street": "East Harbortown Drive",
    "housenumber": "3374",
    "city": "Detroit",
    "postcode": "48207",
    "lat": 42.3417627,
    "lon": -83.0128259
  },
  {
    "street": "East Jefferson Avenue",
    "housenumber": "3472",
    "city": "Detroit",
    "postcode": "48207",
    "lat": 42.3425016,
    "lon": -83.0110912
  },
  {
    "street": "East Jefferson Avenue",
    "housenumber": "3498",
    "city": "Detroit",
    "postcode": "48207",
    "lat": 42.342975,
    "lon": -83.0110065
  },
  {
    "street": "East Jefferson Avenue",
    "housenumber": "6412",
    "city": "Detroit",
    "postcode": "48207",
    "lat": 42.3438862,
    "lon": -83.0084127
  },
  {
    "street": "Field Street",
    "housenumber": "416",
    "city": "Detroit",
    "postcode": "48214",
    "lat": 42.3481663,
    "lon": -83.000366
  },
  {
    "street": "East Jefferson Avenue",
    "housenumber": "11250",
    "city": "Detroit",
    "postcode": "48215",
    "lat": 42.3653054,
    "lon": -82.9707696
  },
  {
    "street": "Rosa Parks Boulevard",
    "housenumber": "8677",
    "city": "Detroit",
    "postcode": "48206",
    "lat": 42.3725482,
    "lon": -83.0981044
  },
  {
    "street": "Rosa Parks Boulevard",
    "housenumber": "8679",
    "city": "Detroit",
    "postcode": "48206",
    "lat": 42.3726404,
    "lon": -83.0978907
  },
  {
    "street": "Cass Avenue",
    "housenumber": "4163",
    "city": "Detroit",
    "postcode": "48201",
    "lat": 42.3502903,
    "lon": -83.0635982
  },
  {
    "street": "Cass Avenue",
    "housenumber": "4145",
    "city": "Detroit",
    "postcode": "48201",
    "lat": 42.3500872,
    "lon": -83.0635057
  },
  {
    "street": "Chene Street",
    "housenumber": "700",
    "city": "Detroit",
    "postcode": "48207",
    "lat": 42.3408188,
    "lon": -83.0232337
  },
  {
    "street": "Chene Street",
    "housenumber": "644",
    "city": "Detroit",
    "postcode": "48207",
    "lat": 42.340254,
    "lon": -83.0237238
  },
  {
    "street": "Livernois Avenue",
    "housenumber": "19363",
    "city": "Detroit",
    "postcode": "48221",
    "lat": 42.4343791,
    "lon": -83.1419444
  },
  {
    "street": "Livernois Avenue",
    "housenumber": "18956",
    "city": "Detroit",
    "postcode": "48221",
    "lat": 42.4310407,
    "lon": -83.1410713
  },
  {
    "street": "Conant Street",
    "housenumber": "19437",
    "city": "Detroit",
    "postcode": "48234",
    "lat": 42.4276998,
    "lon": -83.0700734
  },
  {
    "street": "Dexter Avenue",
    "housenumber": "10330",
    "city": "Detroit",
    "postcode": "48206",
    "lat": 42.3765934,
    "lon": -83.1217521
  },
  {
    "street": "Gratiot Avenue",
    "housenumber": "3750",
    "city": "Detroit",
    "postcode": "48207",
    "lat": 42.3640853,
    "lon": -83.0241829
  },
  {
    "street": "Fenkell Street",
    "housenumber": "22200",
    "city": "Detroit",
    "postcode": "48223",
    "lat": 42.4004618,
    "lon": -83.2594908
  },
  {
    "street": "Lahser Road",
    "housenumber": "17336",
    "city": "Detroit",
    "postcode": "48219",
    "lat": 42.4169027,
    "lon": -83.257514
  },
  {
    "street": "West McNichols Road",
    "housenumber": "13801",
    "city": "Detroit",
    "postcode": "48235",
    "lat": 42.4163768,
    "lon": -83.1820444
  },
  {
    "street": "Michigan Avenue",
    "housenumber": "6424",
    "city": "Detroit",
    "postcode": "48210",
    "lat": 42.3313325,
    "lon": -83.1227979
  },
  {
    "street": "Michigan Avenue",
    "housenumber": "6820",
    "city": "detroit",
    "postcode": "48210",
    "lat": 42.3313112,
    "lon": -83.1279171
  },
  {
    "street": "Michigan Avenue",
    "housenumber": "6876",
    "city": "Detroit",
    "postcode": "48210",
    "lat": 42.331474,
    "lon": -83.1295954
  },
  {
    "street": "Michigan Avenue",
    "housenumber": "6862",
    "city": "Detroit",
    "postcode": "48210",
    "lat": 42.3316788,
    "lon": -83.1287837
  },
  {
    "street": "Michigan Avenue",
    "housenumber": "5931",
    "city": "Detroit",
    "postcode": "48210",
    "lat": 42.3306066,
    "lon": -83.1161699
  },
  {
    "street": "West Warren Avenue",
    "housenumber": "3845",
    "city": "Detroit",
    "postcode": "48208",
    "lat": 42.3446492,
    "lon": -83.1050059
  },
  {
    "street": "Lawndale Street",
    "housenumber": "1136",
    "city": "Detroit",
    "postcode": "48209",
    "lat": 42.3013077,
    "lon": -83.1268862
  },
  {
    "street": "Michigan Avenue",
    "housenumber": "7800",
    "city": "Detroit",
    "postcode": "48210",
    "lat": 42.331321,
    "lon": -83.1389316
  },
  {
    "street": "Gilbert Avenue",
    "housenumber": "3500",
    "city": "Detroit",
    "postcode": "48210",
    "lat": 42.3269226,
    "lon": -83.1188203
  },
  {
    "street": "Gratiot Avenue",
    "housenumber": "2051",
    "city": "Detroit",
    "postcode": "48207",
    "lat": 42.3493091,
    "lon": -83.03457
  },
  {
    "street": "Toledo Street",
    "housenumber": "6172",
    "city": "Detroit",
    "postcode": "48209",
    "lat": 42.3189881,
    "lon": -83.1101707
  },
  {
    "street": "Woodward Avenue",
    "housenumber": "4750",
    "city": "Detroit",
    "lat": 42.355682,
    "lon": -83.0631873
  },
  {
    "street": "Woodward Avenue",
    "housenumber": "1075",
    "city": "Detroit",
    "postcode": "48226",
    "lat": 42.3327374,
    "lon": -83.0479722
  },
  {
    "street": "Selden Street",
    "housenumber": "438",
    "city": "Detroit",
    "postcode": "48201",
    "lat": 42.3480768,
    "lon": -83.0631174
  },
  {
    "street": "2nd Avenue",
    "housenumber": "3980",
    "city": "Detroit",
    "postcode": "48201",
    "lat": 42.3486829,
    "lon": -83.0647355
  },
  {
    "street": "Cass Avenue",
    "housenumber": "3138",
    "city": "Detroit",
    "postcode": "48201",
    "lat": 42.3436091,
    "lon": -83.0593544
  },
  {
    "street": "Woodward Avenue",
    "housenumber": "4719",
    "city": "Detroit",
    "postcode": "48201",
    "lat": 42.3548516,
    "lon": -83.0633573
  },
  {
    "street": "Woodward Avenue",
    "housenumber": "4717",
    "city": "Detroit",
    "postcode": "48201",
    "lat": 42.3547425,
    "lon": -83.063278
  },
  {
    "street": "Woodward Avenue",
    "housenumber": "4216",
    "city": "Detroit",
    "postcode": "48201",
    "lat": 42.3521406,
    "lon": -83.0607738
  },
  {
    "street": "Woodward Avenue",
    "housenumber": "4250",
    "city": "Detroit",
    "postcode": "48201",
    "lat": 42.3525278,
    "lon": -83.0610103
  },
  {
    "street": "East Canfield Street",
    "housenumber": "50",
    "city": "Detroit",
    "postcode": "48201",
    "lat": 42.3528684,
    "lon": -83.0607798
  },
  {
    "street": "Woodward Avenue",
    "housenumber": "500",
    "city": "Detroit",
    "postcode": "48226",
    "lat": 42.3301215,
    "lon": -83.0452
  },
  {
    "street": "Saint Antoine Street",
    "housenumber": "1200",
    "city": "Detroit",
    "postcode": "48226",
    "lat": 42.3357621,
    "lon": -83.0409056
  },
  {
    "street": "Woodward Avenue",
    "housenumber": "630",
    "city": "Detroit",
    "postcode": "48226",
    "lat": 42.330745,
    "lon": -83.0457851
  },
  {
    "street": "Cass Avenue",
    "housenumber": "3627",
    "city": "Detroit",
    "postcode": "48201",
    "lat": 42.3465206,
    "lon": -83.0614386
  },
  {
    "street": "Cass Avenue",
    "housenumber": "3535",
    "city": "Detroit",
    "postcode": "48201",
    "lat": 42.3460434,
    "lon": -83.0615957
  },
  {
    "street": "Woodward Avenue",
    "housenumber": "3157",
    "city": "Detroit",
    "postcode": "48201",
    "lat": 42.345036,
    "lon": -83.0565628
  },
  {
    "street": "Michigan Avenue",
    "housenumber": "8258",
    "city": "Detroit",
    "postcode": "48210",
    "lat": 42.3307857,
    "lon": -83.1443481
  },
  {
    "street": "Michigan Avenue",
    "housenumber": "3255",
    "city": "Detroit",
    "postcode": "48216",
    "lat": 42.3312279,
    "lon": -83.0881633
  },
  {
    "street": "Lafayette Boulevard West",
    "housenumber": "615",
    "city": "Detroit",
    "postcode": "48226",
    "lat": 42.3286398,
    "lon": -83.0544798
  },
  {
    "street": "Park Avenue",
    "housenumber": "2233",
    "city": "Detroit",
    "lat": 42.3378896,
    "lon": -83.0538867
  },
  {
    "street": "Market Street",
    "housenumber": "2460",
    "city": "Detroit",
    "postcode": "48207",
    "lat": 42.3460519,
    "lon": -83.0388196
  },
  {
    "street": "Woodward Avenue",
    "housenumber": "1037",
    "city": "Detroit",
    "postcode": "48226",
    "lat": 42.3323658,
    "lon": -83.0476452
  },
  {
    "street": "Woodward Avenue",
    "housenumber": "1045",
    "city": "Detroit",
    "postcode": "48226",
    "lat": 42.3325891,
    "lon": -83.0478459
  },
  {
    "street": "Woodward Avenue",
    "housenumber": "1014",
    "city": "Detroit",
    "postcode": "48226",
    "lat": 42.3326304,
    "lon": -83.0472301
  },
  {
    "street": "Woodward Avenue",
    "housenumber": "1043",
    "city": "Detroit",
    "postcode": "48226",
    "lat": 42.3325141,
    "lon": -83.0477875
  },
  {
    "street": "Woodward Avenue",
    "housenumber": "1020",
    "city": "Detroit",
    "postcode": "48226",
    "lat": 42.3328222,
    "lon": -83.0473917
  },
  {
    "street": "Griswold",
    "housenumber": "615",
    "city": "Detroit",
    "postcode": "48226",
    "lat": 42.3298721,
    "lon": -83.0469278
  },
  {
    "street": "Congress Street East",
    "housenumber": "155",
    "city": "Detroit",
    "lat": 42.3293115,
    "lon": -83.0475747
  },
  {
    "street": "Washington Boulevard",
    "housenumber": "1514",
    "city": "Detroit",
    "postcode": "48226",
    "lat": 42.3348343,
    "lon": -83.0505896
  },
  {
    "street": "Grand River Avenue",
    "housenumber": "3111",
    "city": "Detroit",
    "postcode": "48208",
    "lat": 42.3403816,
    "lon": -83.0709018
  },
  {
    "street": "Grand River Avenue",
    "housenumber": "3401",
    "city": "Detroit",
    "postcode": "48208",
    "lat": 42.3414341,
    "lon": -83.0717523
  },
  {
    "street": "East Jefferson Avenue",
    "housenumber": "333",
    "city": "Detroit",
    "postcode": "48226",
    "lat": 42.3304371,
    "lon": -83.0412788
  },
  {
    "street": "East Jefferson Avenue",
    "housenumber": "333",
    "city": "Detroit",
    "postcode": "48226",
    "lat": 42.330522,
    "lon": -83.0413428
  },
  {
    "street": "Woodward Avenue",
    "housenumber": "1",
    "city": "Detroit",
    "postcode": "48226",
    "lat": 42.3290568,
    "lon": -83.0454335
  },
  {
    "street": "Woodward Avenue",
    "housenumber": "1",
    "city": "Detroit",
    "lat": 42.3290494,
    "lon": -83.0454953
  },
  {
    "street": "Lafayette Boulevard West",
    "housenumber": "122",
    "city": "Detroit",
    "postcode": "48226",
    "lat": 42.3313934,
    "lon": -83.0489134
  },
  {
    "street": "Griswold Street",
    "housenumber": "645",
    "city": "Detroit",
    "postcode": "48226",
    "lat": 42.3304897,
    "lon": -83.0474846
  },
  {
    "street": "Griswold Street",
    "housenumber": "535",
    "city": "Detroit",
    "postcode": "48226",
    "lat": 42.3294416,
    "lon": -83.0466027
  },
  {
    "street": "Woodward Avenue",
    "housenumber": "777",
    "city": "Detroit",
    "postcode": "48226",
    "lat": 42.331026,
    "lon": -83.0471894
  },
  {
    "street": "Washington Boulevard",
    "housenumber": "1420",
    "city": "Detroit",
    "postcode": "48226",
    "lat": 42.3341269,
    "lon": -83.050609
  },
  {
    "street": "Washington Boulevard",
    "housenumber": "1420",
    "city": "Detroit",
    "postcode": "48226",
    "lat": 42.3339957,
    "lon": -83.0506031
  },
  {
    "street": "Livernois Avenue",
    "housenumber": "4201",
    "city": "Detroit",
    "postcode": "48210",
    "lat": 42.3314332,
    "lon": -83.1209566
  },
  {
    "street": "Library Street",
    "housenumber": "1234",
    "city": "Detroit",
    "postcode": "48226",
    "lat": 42.3346881,
    "lon": -83.0468767
  },
  {
    "street": "Mount Elliott Street",
    "housenumber": "500",
    "city": "Detroit",
    "lat": 42.3447622,
    "lon": -83.0101951
  },
  {
    "street": "East Jefferson Avenue",
    "housenumber": "7255",
    "city": "Detroit",
    "postcode": "48214",
    "lat": 42.3479103,
    "lon": -83.0008981
  },
  {
    "street": "Woodward Avenue",
    "housenumber": "500",
    "city": "Detroit",
    "postcode": "48226",
    "lat": 42.3300735,
    "lon": -83.045168
  },
  {
    "street": "Woodward Avenue",
    "housenumber": "500",
    "city": "Detroit",
    "postcode": "48226",
    "lat": 42.3299882,
    "lon": -83.0451545
  },
  {
    "street": "Howard Street",
    "housenumber": "431",
    "city": "Detroit",
    "postcode": "48226",
    "lat": 42.3306077,
    "lon": -83.0526589
  },
  {
    "street": "Cass Avenue",
    "housenumber": "3745",
    "city": "Detroit",
    "lat": 42.3475,
    "lon": -83.0620616
  },
  {
    "street": "East Jefferson Avenue",
    "housenumber": "9149",
    "city": "Detroit",
    "lat": 42.3582768,
    "lon": -82.9856209
  },
  {
    "street": "East Jefferson Avenue",
    "housenumber": "6905",
    "city": "Detroit",
    "postcode": "48214",
    "lat": 42.3466282,
    "lon": -83.0039276
  },
  {
    "street": "East Jefferson Avenue",
    "housenumber": "7869",
    "city": "Detroit",
    "postcode": "48214",
    "lat": 42.3510866,
    "lon": -82.9957766
  },
  {
    "street": "East Jefferson Avenue",
    "housenumber": "8311",
    "city": "Detroit",
    "postcode": "48214",
    "lat": 42.3534176,
    "lon": -82.9924878
  },
  {
    "street": "East Jefferson Avenue",
    "housenumber": "8325",
    "city": "Detroit",
    "postcode": "48214",
    "lat": 42.3535408,
    "lon": -82.9922805
  },
  {
    "street": "East Jefferson Avenue",
    "housenumber": "8347",
    "city": "Detroit",
    "postcode": "48214",
    "lat": 42.3539462,
    "lon": -82.991734
  },
  {
    "street": "East Jefferson Avenue",
    "housenumber": "8845",
    "city": "Detroit",
    "postcode": "48214",
    "lat": 42.3569931,
    "lon": -82.9872655
  },
  {
    "street": "East Jefferson Avenue",
    "housenumber": "10201",
    "city": "Detroit",
    "postcode": "48214",
    "lat": 42.3624109,
    "lon": -82.9803757
  },
  {
    "street": "East Jefferson Avenue",
    "housenumber": "12871",
    "city": "Detroit",
    "postcode": "48215",
    "lat": 42.3706539,
    "lon": -82.9546888
  },
  {
    "street": "East Jefferson Avenue",
    "housenumber": "12871",
    "city": "Detroit",
    "postcode": "48215",
    "lat": 42.3706591,
    "lon": -82.954586
  },
  {
    "street": "East Jefferson Avenue",
    "housenumber": "12871",
    "city": "Detroit",
    "postcode": "48215",
    "lat": 42.3707229,
    "lon": -82.9545627
  },
  {
    "street": "East Jefferson Avenue",
    "housenumber": "12871",
    "city": "Detroit",
    "postcode": "48215",
    "lat": 42.3707954,
    "lon": -82.954572
  },
  {
    "street": "East Jefferson Avenue",
    "housenumber": "14411",
    "city": "Detroit",
    "postcode": "48215",
    "lat": 42.373326,
    "lon": -82.943818
  },
  {
    "street": "East Jefferson Avenue",
    "housenumber": "14415",
    "city": "Detroit",
    "postcode": "48215",
    "lat": 42.3733599,
    "lon": -82.9437203
  },
  {
    "street": "Mount Elliott Street",
    "housenumber": "500",
    "city": "Detroit",
    "postcode": "48207",
    "lat": 42.3446598,
    "lon": -83.0101291
  },
  {
    "street": "Mount Elliott Street",
    "housenumber": "500",
    "city": "Detroit",
    "postcode": "48207",
    "lat": 42.3449075,
    "lon": -83.0102929
  },
  {
    "street": "Mount Elliott Street",
    "housenumber": "500",
    "city": "Detroit",
    "postcode": "48207",
    "lat": 42.3450598,
    "lon": -83.010655
  },
  {
    "street": "Dexter Avenue",
    "housenumber": "12707",
    "city": "Detroit",
    "lat": 42.3863464,
    "lon": -83.1289744
  },
  {
    "street": "8 Mile Road",
    "housenumber": "3927",
    "city": "Detroit",
    "postcode": "48221",
    "lat": 42.4458999,
    "lon": -83.1392959
  },
  {
    "street": "Livernois Avenue",
    "housenumber": "19195",
    "city": "Detroit",
    "postcode": "48221",
    "lat": 42.4328526,
    "lon": -83.1426142
  },
  {
    "street": "Mack Avenue",
    "housenumber": "11205",
    "city": "Detroit",
    "postcode": "48214",
    "lat": 42.3789514,
    "lon": -82.9794154
  },
  {
    "street": "Mack Avenue",
    "housenumber": "11207",
    "city": "Detroit",
    "lat": 42.3790565,
    "lon": -82.9794883
  },
  {
    "street": "East Grand Boulevard",
    "housenumber": "231",
    "city": "Detroit",
    "lat": 42.3503402,
    "lon": -83.0046734
  },
  {
    "street": "Kercheval Street",
    "housenumber": "9920",
    "city": "Detroit",
    "postcode": "48214",
    "lat": 42.3641895,
    "lon": -82.9849204
  },
  {
    "street": "Mack Avenue",
    "housenumber": "10400",
    "city": "Detroit",
    "lat": 42.3751245,
    "lon": -82.9869166
  },
  {
    "street": "Kercheval Street",
    "housenumber": "10151",
    "city": "Detroit",
    "postcode": "48214",
    "lat": 42.3650582,
    "lon": -82.9835532
  },
  {
    "street": "Kercheval Street",
    "housenumber": "10137",
    "city": "Detroit",
    "postcode": "48214",
    "lat": 42.3649654,
    "lon": -82.9836996
  },
  {
    "street": "Kercheval Street",
    "housenumber": "9916",
    "city": "Detroit",
    "postcode": "48214",
    "lat": 42.3641537,
    "lon": -82.9850336
  },
  {
    "street": "Kercheval Street",
    "housenumber": "9912",
    "city": "Detroit",
    "postcode": "48214",
    "lat": 42.364122,
    "lon": -82.9851301
  },
  {
    "street": "Kercheval Street",
    "housenumber": "9908",
    "city": "Detroit",
    "postcode": "48214",
    "lat": 42.3640903,
    "lon": -82.9852052
  },
  {
    "street": "Kercheval Street",
    "housenumber": "8104",
    "city": "Detroit",
    "postcode": "48214",
    "lat": 42.3588629,
    "lon": -82.9982974
  },
  {
    "street": "Kercheval Street",
    "housenumber": "8100",
    "city": "Detroit",
    "postcode": "48214",
    "lat": 42.3588258,
    "lon": -82.998357
  },
  {
    "street": "Parker Street",
    "housenumber": "1814",
    "city": "Detroit",
    "postcode": "48214",
    "lat": 42.3587061,
    "lon": -82.9982709
  },
  {
    "street": "Kercheval Street",
    "housenumber": "7353",
    "city": "Detroit",
    "postcode": "48214",
    "lat": 42.3566561,
    "lon": -83.00513
  },
  {
    "street": "E McNichols Rd",
    "housenumber": "11200",
    "city": "Detroit",
    "postcode": "48234",
    "lat": 42.419552,
    "lon": -83.0101403
  },
  {
    "street": "West McNichols Road",
    "housenumber": "10620",
    "city": "Detroit",
    "postcode": "48221",
    "lat": 42.4169834,
    "lon": -83.1679714
  },
  {
    "street": "West McNichols Road",
    "housenumber": "10740",
    "city": "Detroit",
    "postcode": "48221",
    "lat": 42.4172141,
    "lon": -83.1688611
  },
  {
    "street": "Livernois Avenue",
    "housenumber": "16100",
    "city": "Detroit",
    "postcode": "48221",
    "lat": 42.4102008,
    "lon": -83.140054
  },
  {
    "street": "Livernois Avenue",
    "housenumber": "16126",
    "city": "Detroit",
    "lat": 42.4103738,
    "lon": -83.1402288
  },
  {
    "street": "Grand River Avenue",
    "housenumber": "21756",
    "city": "Detroit",
    "postcode": "48219",
    "lat": 42.4166991,
    "lon": -83.257532
  },
  {
    "street": "Grand River Avenue",
    "housenumber": "21310",
    "city": "Detroit",
    "postcode": "48219",
    "lat": 42.4141792,
    "lon": -83.2506872
  },
  {
    "street": "Grand River Avenue",
    "housenumber": "21310",
    "city": "Detroit",
    "postcode": "48219",
    "lat": 42.4143257,
    "lon": -83.2511049
  },
  {
    "street": "Bagley Avenue",
    "housenumber": "400",
    "city": "Detroit",
    "postcode": "48226",
    "lat": 42.3337412,
    "lon": -83.0543093
  },
  {
    "street": "Grand River Avenue",
    "housenumber": "1903",
    "city": "Detroit",
    "postcode": "48226",
    "lat": 42.3344961,
    "lon": -83.0548672
  },
  {
    "street": "Schoolcraft Street",
    "housenumber": "15525",
    "city": "Detroit",
    "postcode": "48227",
    "lat": 42.3867846,
    "lon": -83.1984824
  },
  {
    "street": "Schoolcraft Street",
    "housenumber": "15420",
    "city": "Detroit",
    "postcode": "48227",
    "lat": 42.3872588,
    "lon": -83.1973139
  },
  {
    "street": "Greenfield Road",
    "housenumber": "14104",
    "city": "Detroit",
    "postcode": "48227",
    "lat": 42.3895168,
    "lon": -83.1974029
  },
  {
    "street": "Greenfield Road",
    "housenumber": "14040",
    "city": "Detroit",
    "postcode": "48227",
    "lat": 42.3891366,
    "lon": -83.197379
  },
  {
    "street": "Mack Avenue",
    "housenumber": "18201",
    "city": "Detroit",
    "postcode": "48224",
    "lat": 42.4094595,
    "lon": -82.9144782
  },
  {
    "street": "Plymouth Road",
    "housenumber": "19800",
    "city": "Detroit",
    "postcode": "48228",
    "lat": 42.3723154,
    "lon": -83.2357226
  },
  {
    "street": "Schaefer Highway",
    "housenumber": "14424",
    "city": "Detroit",
    "postcode": "48227",
    "lat": 42.3943973,
    "lon": -83.1778573
  },
  {
    "street": "East 8 Mile Road",
    "housenumber": "1940",
    "city": "Detroit",
    "postcode": "48234",
    "lat": 42.446436,
    "lon": -83.0817675
  },
  {
    "street": "Woodward Avenue",
    "housenumber": "2211",
    "city": "Detroit",
    "lat": 42.3385829,
    "lon": -83.0522455
  },
  {
    "street": "East Jefferson Avenue",
    "housenumber": "14615",
    "city": "Detroit",
    "postcode": "48215",
    "lat": 42.3740977,
    "lon": -82.9421626
  },
  {
    "street": "West Vernor Highway",
    "housenumber": "4802",
    "city": "Detroit",
    "postcode": "48209",
    "lat": 42.3191086,
    "lon": -83.0999556
  },
  {
    "street": "West Vernor Highway",
    "housenumber": "5688",
    "city": "Detroit",
    "postcode": "48209",
    "lat": 42.3173073,
    "lon": -83.1033456
  },
  {
    "street": "Outer Drive West",
    "housenumber": "25875",
    "city": "Detroit",
    "postcode": "48217",
    "lat": 42.2631038,
    "lon": -83.1670119
  },
  {
    "street": "East 8 Mile Road",
    "housenumber": "12230",
    "city": "Detroit",
    "postcode": "48205",
    "lat": 42.4480064,
    "lon": -83.0009387
  },
  {
    "street": "Watson Street",
    "housenumber": "47",
    "city": "Detroit",
    "postcode": "48201",
    "lat": 42.3451498,
    "lon": -83.0556733
  },
  {
    "street": "Clark Street",
    "housenumber": "2524",
    "city": "Detroit",
    "postcode": "48216",
    "lat": 42.3254683,
    "lon": -83.0990403
  },
  {
    "street": "Clark Street",
    "housenumber": "2444",
    "city": "Detroit",
    "postcode": "48216",
    "lat": 42.3248085,
    "lon": -83.0987045
  },
  {
    "street": "Conant Street",
    "housenumber": "11640",
    "city": "Detroit",
    "postcode": "48212",
    "lat": 42.4053735,
    "lon": -83.0542054
  },
  {
    "street": "Conant Street",
    "housenumber": "11620",
    "city": "Detroit",
    "postcode": "48212",
    "lat": 42.4050843,
    "lon": -83.0542645
  },
  {
    "street": "Woodward Avenue",
    "housenumber": "5564",
    "city": "Detroit",
    "postcode": "48202",
    "lat": 42.3620125,
    "lon": -83.0667895
  },
  {
    "street": "East 8 Mile Road",
    "housenumber": "14900",
    "city": "Detroit",
    "postcode": "48205",
    "lat": 42.4494643,
    "lon": -82.9687293
  },
  {
    "street": "Livernois Avenue",
    "housenumber": "13939",
    "city": "Detroit",
    "postcode": "48238",
    "lat": 42.3909336,
    "lon": -83.14024
  },
  {
    "street": "Morang Drive",
    "housenumber": "12055",
    "city": "Detroit",
    "postcode": "48224",
    "lat": 42.4265665,
    "lon": -82.9518352
  },
  {
    "street": "West 7 Mile Road",
    "housenumber": "20001",
    "city": "Detroit",
    "postcode": "48219",
    "lat": 42.4290839,
    "lon": -83.2393292
  },
  {
    "street": "Mack Avenue",
    "housenumber": "18145",
    "city": "Detroit",
    "postcode": "48224",
    "lat": 42.4069028,
    "lon": -82.9155541
  },
  {
    "street": "East Warren Avenue",
    "housenumber": "16835",
    "city": "Detroit",
    "postcode": "48224",
    "lat": 42.4053357,
    "lon": -82.9325845
  },
  {
    "street": "Wyoming Street",
    "housenumber": "8656",
    "city": "Detroit",
    "postcode": "48204",
    "lat": 42.35868,
    "lon": -83.1573525
  },
  {
    "street": "Abbott Street",
    "housenumber": "1401",
    "city": "Detroit",
    "postcode": "48216",
    "lat": 42.3277189,
    "lon": -83.0611718
  },
  {
    "street": "Broadway Street",
    "housenumber": "1529",
    "city": "Detroit",
    "postcode": "48226",
    "lat": 42.3359216,
    "lon": -83.0488521
  },
  {
    "street": "Woodward Avenue",
    "housenumber": "500",
    "city": "Detroit",
    "postcode": "48226",
    "lat": 42.3302424,
    "lon": -83.04491
  },
  {
    "street": "Joy Road",
    "housenumber": "20221",
    "city": "Detroit",
    "postcode": "48228",
    "lat": 42.3572005,
    "lon": -83.2390615
  },
  {
    "street": "West Jefferson Avenue",
    "housenumber": "150",
    "city": "Detroit",
    "postcode": "48226-4449",
    "lat": 42.3284697,
    "lon": -83.0466134
  },
  {
    "street": "Plymouth Road",
    "housenumber": "15041",
    "city": "Detroit",
    "postcode": "48227",
    "lat": 42.3724058,
    "lon": -83.1928077
  },
  {
    "street": "Amsterdam Street",
    "housenumber": "435",
    "city": "Detroit",
    "postcode": "48202",
    "lat": 42.3655972,
    "lon": -83.0726791
  },
  {
    "street": "Military Street",
    "housenumber": "4366",
    "city": "Detroit",
    "postcode": "48210",
    "lat": 42.3323267,
    "lon": -83.1185206
  },
  {
    "street": "West Grand Boulevard",
    "housenumber": "2894",
    "city": "Detroit",
    "postcode": "48202",
    "lat": 42.3672602,
    "lon": -83.0806124
  },
  {
    "street": "Redford Street",
    "housenumber": "17195",
    "city": "Detroit",
    "postcode": "48219",
    "lat": 42.4161655,
    "lon": -83.2599017
  },
  {
    "street": "25th Street",
    "housenumber": "1450",
    "city": "Detroit",
    "postcode": "48216",
    "lat": 42.3208429,
    "lon": -83.0853564
  },
  {
    "street": "Howard Street",
    "housenumber": "2635",
    "city": "Detroit",
    "postcode": "48216",
    "lat": 42.3209133,
    "lon": -83.0762878
  },
  {
    "street": "East Jefferson Avenue",
    "housenumber": "11340",
    "city": "Detroit",
    "postcode": "48214",
    "lat": 42.3655558,
    "lon": -82.9701917
  },
  {
    "street": "Woodward Avenue",
    "housenumber": "6529",
    "city": "Detroit",
    "postcode": "48202",
    "lat": 42.3695459,
    "lon": -83.0731443
  },
  {
    "street": "Anthony Wayne Drive",
    "housenumber": "4704",
    "city": "Detroit",
    "lat": 42.3526156,
    "lon": -83.0698315
  },
  {
    "street": "Michigan Avenue",
    "housenumber": "8421",
    "city": "Detroit",
    "postcode": "48210",
    "lat": 42.3299912,
    "lon": -83.1458949
  },
  {
    "street": "Livernois Avenue",
    "housenumber": "3969",
    "city": "Detroit",
    "postcode": "48210",
    "lat": 42.3300792,
    "lon": -83.1201845
  },
  {
    "street": "Livernois Avenue",
    "housenumber": "3278",
    "city": "Detroit",
    "postcode": "48210",
    "lat": 42.3261888,
    "lon": -83.1163712
  },
  {
    "street": "Division Street",
    "housenumber": "1948",
    "city": "Detroit",
    "postcode": "48207",
    "lat": 42.3489591,
    "lon": -83.036009
  },
  {
    "street": "Ashton Avenue",
    "housenumber": "8474",
    "city": "Detroit",
    "postcode": "48228",
    "lat": 42.3554477,
    "lon": -83.2174017
  },
  {
    "street": "Ashton Avenue",
    "housenumber": "8468",
    "city": "Detroit",
    "postcode": "48228",
    "lat": 42.3553199,
    "lon": -83.2173917
  },
  {
    "street": "Ashton Avenue",
    "housenumber": "8458",
    "city": "Detroit",
    "postcode": "48228",
    "lat": 42.355207,
    "lon": -83.2173729
  },
  {
    "street": "Ashton Avenue",
    "housenumber": "8450",
    "city": "Detroit",
    "postcode": "48228",
    "lat": 42.3551134,
    "lon": -83.2173694
  },
  {
    "street": "Ashton Avenue",
    "housenumber": "8444",
    "city": "Detroit",
    "postcode": "48228",
    "lat": 42.3550231,
    "lon": -83.2173646
  },
  {
    "street": "Ashton Avenue",
    "housenumber": "8438",
    "city": "Detroit",
    "postcode": "48228",
    "lat": 42.3549252,
    "lon": -83.2173619
  },
  {
    "street": "Ashton Avenue",
    "housenumber": "8400",
    "city": "Detroit",
    "postcode": "48228",
    "lat": 42.3544619,
    "lon": -83.2173511
  },
  {
    "street": "Ashton Avenue",
    "housenumber": "8414",
    "city": "Detroit",
    "postcode": "48228",
    "lat": 42.3545847,
    "lon": -83.2173578
  },
  {
    "street": "Ashton Avenue",
    "housenumber": "8424",
    "city": "Detroit",
    "postcode": "48228",
    "lat": 42.3547219,
    "lon": -83.2173611
  },
  {
    "street": "Southfield Freeway",
    "housenumber": "3859",
    "city": "Detroit",
    "postcode": "48228",
    "lat": 42.3558974,
    "lon": -83.2168417
  },
  {
    "street": "Southfield Freeway",
    "housenumber": "8491",
    "city": "Detroit",
    "postcode": "48228",
    "lat": 42.355667,
    "lon": -83.2168218
  },
  {
    "street": "Southfield Freeway",
    "housenumber": "8463",
    "city": "Detroit",
    "postcode": "48228",
    "lat": 42.3555627,
    "lon": -83.2168106
  },
  {
    "street": "Southfield Freeway",
    "housenumber": "8459",
    "city": "Detroit",
    "postcode": "48228",
    "lat": 42.3553309,
    "lon": -83.2168063
  },
  {
    "street": "Southfield Freeway",
    "housenumber": "8455",
    "city": "Detroit",
    "postcode": "48228",
    "lat": 42.3552258,
    "lon": -83.2168025
  },
  {
    "street": "Southfield Freeway",
    "housenumber": "8451",
    "city": "Detroit",
    "postcode": "48228",
    "lat": 42.3550894,
    "lon": -83.2168161
  },
  {
    "street": "Southfield Freeway",
    "housenumber": "8441",
    "city": "Detroit",
    "postcode": "48228",
    "lat": 42.3549189,
    "lon": -83.2168538
  },
  {
    "street": "Southfield Freeway",
    "housenumber": "8431",
    "city": "Detroit",
    "postcode": "48228",
    "lat": 42.3548164,
    "lon": -83.2168203
  },
  {
    "street": "Southfield Freeway",
    "housenumber": "8425",
    "city": "Detroit",
    "postcode": "48228",
    "lat": 42.3547487,
    "lon": -83.2167748
  },
  {
    "street": "Southfield Freeway",
    "housenumber": "8421",
    "city": "Detroit",
    "postcode": "48228",
    "lat": 42.3546798,
    "lon": -83.2167758
  },
  {
    "street": "Southfield Freeway",
    "housenumber": "8411",
    "city": "Detroit",
    "postcode": "48228",
    "lat": 42.3544456,
    "lon": -83.2167893
  },
  {
    "street": "Southfield Freeway",
    "housenumber": "8419",
    "city": "Detroit",
    "postcode": "48228",
    "lat": 42.3546186,
    "lon": -83.2167751
  },
  {
    "street": "Joy Road",
    "housenumber": "19001",
    "city": "Detroit",
    "postcode": "48204",
    "lat": 42.3573208,
    "lon": -83.2268355
  },
  {
    "street": "Brewery Park Boulevard",
    "housenumber": "1155",
    "city": "Detroit",
    "postcode": "48207",
    "lat": 42.3428662,
    "lon": -83.0423244
  },
  {
    "street": "West Baltimore Avenue",
    "housenumber": "11",
    "city": "Detroit",
    "postcode": "48202",
    "lat": 42.3677514,
    "lon": -83.072425
  },
  {
    "street": "Michigan Avenue",
    "housenumber": "2000",
    "city": "Detroit",
    "postcode": "48216",
    "lat": 42.33166,
    "lon": -83.0736829
  },
  {
    "street": "Riopelle Street",
    "housenumber": "2712",
    "city": "Detroit",
    "lat": 42.3480988,
    "lon": -83.0394974
  },
  {
    "street": "Riopelle Street",
    "housenumber": "2712",
    "city": "Detroit",
    "lat": 42.3481317,
    "lon": -83.0395227
  },
  {
    "street": "West McNichols Road",
    "housenumber": "7410",
    "city": "Detroit",
    "lat": 42.4173012,
    "lon": -83.1455994
  },
  {
    "street": "Putnam Street",
    "housenumber": "1521",
    "city": "Detroit",
    "lat": 42.3529108,
    "lon": -83.0797845
  },
  {
    "street": "Bates Street",
    "housenumber": "609",
    "city": "Detroit",
    "lat": 42.330879,
    "lon": -83.0446958
  },
  {
    "street": "Woodward Avenue",
    "housenumber": "660",
    "city": "Detroit",
    "postcode": "48226",
    "lat": 42.330771,
    "lon": -83.0447497
  },
  {
    "street": "Woodward Avenue",
    "housenumber": "660",
    "city": "Detroit",
    "postcode": "48226",
    "lat": 42.3306768,
    "lon": -83.0449221
  },
  {
    "street": "Monroe Street",
    "housenumber": "97",
    "city": "Detroit",
    "postcode": "48226",
    "lat": 42.333279,
    "lon": -83.0456204
  },
  {
    "street": "Monroe Street",
    "housenumber": "111",
    "city": "Detroit",
    "postcode": "48226",
    "lat": 42.3335312,
    "lon": -83.0454396
  },
  {
    "street": "Monroe Street",
    "housenumber": "127",
    "city": "Detroit",
    "postcode": "48226",
    "lat": 42.3338708,
    "lon": -83.045163
  },
  {
    "street": "Monroe Street",
    "housenumber": "123",
    "city": "Detroit",
    "postcode": "48226",
    "lat": 42.3337881,
    "lon": -83.0452269
  },
  {
    "street": "Telegraph Road",
    "housenumber": "14044",
    "city": "Detroit",
    "postcode": "48239",
    "lat": 42.3867412,
    "lon": -83.2749105
  },
  {
    "street": "Telegraph Road",
    "housenumber": "14000",
    "city": "Detroit",
    "postcode": "48239",
    "lat": 42.3862969,
    "lon": -83.2748784
  },
  {
    "street": "West Grand Boulevard",
    "housenumber": "1540",
    "city": "Detroit",
    "postcode": "48208",
    "lat": 42.3451001,
    "lon": -83.1073874
  },
  {
    "street": "West Warren Avenue",
    "housenumber": "4040",
    "city": "Detroit",
    "postcode": "48210",
    "lat": 42.3449673,
    "lon": -83.1092032
  },
  {
    "street": "Fenkell Street",
    "housenumber": "22022",
    "city": "Detroit",
    "postcode": "48223",
    "lat": 42.4003891,
    "lon": -83.2575436
  },
  {
    "street": "Fenkell Street",
    "housenumber": "22000",
    "city": "Detroit",
    "postcode": "48223",
    "lat": 42.400597,
    "lon": -83.2572673
  },
  {
    "street": "Fenkell Street",
    "housenumber": "22001",
    "city": "Detroit",
    "postcode": "48223",
    "lat": 42.4001069,
    "lon": -83.2572042
  },
  {
    "street": "East McNichols Road",
    "housenumber": "11500",
    "city": "Detroit",
    "lat": 42.4197009,
    "lon": -83.0055125
  },
  {
    "street": "West McNichols Road",
    "housenumber": "15631",
    "city": "Detroit",
    "postcode": "48235",
    "lat": 42.4157546,
    "lon": -83.201438
  },
  {
    "street": "West McNichols Road",
    "housenumber": "15640",
    "city": "Detroit",
    "postcode": "48235",
    "lat": 42.4162424,
    "lon": -83.2018388
  },
  {
    "street": "West Elizabeth Street",
    "housenumber": "1441",
    "city": "Detroit",
    "postcode": "48216",
    "lat": 42.3319398,
    "lon": -83.0666647
  },
  {
    "street": "West Chicago Street",
    "housenumber": "19840",
    "city": "Detroit",
    "postcode": "48228",
    "lat": 42.3649046,
    "lon": -83.2355631
  },
  {
    "street": "Livernois Avenue",
    "housenumber": "18000",
    "city": "Detroit",
    "postcode": "48221",
    "lat": 42.4233327,
    "lon": -83.1408609
  },
  {
    "street": "West Warren Avenue",
    "housenumber": "22640",
    "city": "Detroit",
    "postcode": "48239",
    "lat": 42.3419527,
    "lon": -83.2620257
  },
  {
    "street": "West Warren Avenue",
    "housenumber": "20005",
    "city": "Detroit",
    "postcode": "48228",
    "lat": 42.3429034,
    "lon": -83.2360848
  },
  {
    "street": "West Warren Avenue",
    "housenumber": "18141",
    "city": "Detroit",
    "postcode": "48228",
    "lat": 42.3430425,
    "lon": -83.2168398
  },
  {
    "street": "West Warren Avenue",
    "housenumber": "17720",
    "city": "Detroit",
    "postcode": "48228",
    "lat": 42.3437509,
    "lon": -83.2151802
  },
  {
    "street": "Plymouth Road",
    "housenumber": "22443",
    "city": "Detroit",
    "postcode": "48239",
    "lat": 42.3713783,
    "lon": -83.2619191
  },
  {
    "street": "Livernois Avenue",
    "housenumber": "19416",
    "city": "Detroit",
    "postcode": "48221",
    "lat": 42.4355714,
    "lon": -83.1412583
  },
  {
    "street": "Woodward Avenue",
    "housenumber": "1001",
    "city": "Detroit",
    "postcode": "48226",
    "lat": 42.3318605,
    "lon": -83.0478591
  },
  {
    "street": "Dogtown Road",
    "housenumber": "161",
    "city": "Detroit",
    "postcode": "04929",
    "lat": 44.800328,
    "lon": -69.3416171
  },
  {
    "street": "Main Street",
    "housenumber": "94",
    "city": "Detroit",
    "postcode": "04929",
    "lat": 44.8030606,
    "lon": -69.3065823
  },
  {
    "street": "River Road",
    "housenumber": "148",
    "city": "Detroit",
    "postcode": "04929",
    "lat": 44.7822953,
    "lon": -69.3202943
  },
  {
    "street": "River Road",
    "housenumber": "328",
    "city": "Detroit",
    "postcode": "04929",
    "lat": 44.7732865,
    "lon": -69.3530406
  },
  {
    "street": "Troy Road",
    "housenumber": "486",
    "city": "Detroit",
    "postcode": "04929",
    "lat": 44.7304825,
    "lon": -69.3137949
  },
  {
    "street": "Troy Road",
    "housenumber": "520",
    "city": "Detroit",
    "postcode": "04929",
    "lat": 44.7262411,
    "lon": -69.3109875
  },
  {
    "street": "Main Street",
    "housenumber": "17",
    "city": "Detroit",
    "postcode": "04929",
    "lat": 44.79457,
    "lon": -69.2969351
  },
  {
    "street": "River Road",
    "housenumber": "305",
    "city": "Detroit",
    "postcode": "04929",
    "lat": 44.7737836,
    "lon": -69.3480009
  },
  {
    "street": "River Road",
    "housenumber": "339",
    "city": "Detroit",
    "postcode": "04929",
    "lat": 44.7759035,
    "lon": -69.3538907
  },
  {
    "street": "Basford Road",
    "housenumber": "5",
    "city": "Detroit",
    "postcode": "04929",
    "lat": 44.7346447,
    "lon": -69.3159202
  },
  {
    "street": "Basford Road",
    "housenumber": "108",
    "city": "Detroit",
    "postcode": "04929",
    "lat": 44.7316195,
    "lon": -69.3350431
  },
  {
    "street": "Bragg Road",
    "housenumber": "64",
    "city": "Detroit",
    "postcode": "04929",
    "lat": 44.7592622,
    "lon": -69.2775868
  },
  {
    "street": "Bragg Road",
    "housenumber": "63",
    "city": "Detroit",
    "postcode": "04929",
    "lat": 44.7597586,
    "lon": -69.2788906
  },
  {
    "street": "Bragg Road",
    "housenumber": "72",
    "city": "Detroit",
    "postcode": "04929",
    "lat": 44.7583855,
    "lon": -69.2771404
  },
  {
    "street": "Clark Road",
    "housenumber": "33",
    "city": "Detroit",
    "postcode": "04929",
    "lat": 44.7765835,
    "lon": -69.2827253
  },
  {
    "street": "Dogtown Road",
    "housenumber": "155",
    "city": "Detroit",
    "postcode": "04929",
    "lat": 44.7999238,
    "lon": -69.3428159
  },
  {
    "street": "Dogtown Road",
    "housenumber": "99",
    "city": "Detroit",
    "postcode": "04929",
    "lat": 44.7984648,
    "lon": -69.3533774
  },
  {
    "street": "Joshua Drive",
    "housenumber": "10",
    "city": "Detroit",
    "postcode": "04929",
    "lat": 44.7914156,
    "lon": -69.3606984
  },
  {
    "street": "Philbrick Drive",
    "housenumber": "62",
    "city": "Detroit",
    "postcode": "04929",
    "lat": 44.8020364,
    "lon": -69.3157441
  },
  {
    "street": "North Road",
    "housenumber": "49",
    "city": "Detroit",
    "postcode": "04929",
    "lat": 44.8028874,
    "lon": -69.3236769
  },
  {
    "street": "North Road",
    "housenumber": "35",
    "city": "Detroit",
    "postcode": "04929",
    "lat": 44.8012607,
    "lon": -69.3178957
  },
  {
    "street": "North Road",
    "housenumber": "130",
    "city": "Detroit",
    "postcode": "04929",
    "lat": 44.7949011,
    "lon": -69.3335063
  },
  {
    "street": "North Road",
    "housenumber": "54",
    "city": "Detroit",
    "postcode": "04929",
    "lat": 44.7991104,
    "lon": -69.319085
  },
  {
    "street": "North Road",
    "housenumber": "122",
    "city": "Detroit",
    "postcode": "04929",
    "lat": 44.7948742,
    "lon": -69.3319385
  },
  {
    "street": "River Road",
    "housenumber": "49",
    "city": "Detroit",
    "postcode": "04929",
    "lat": 44.789825,
    "lon": -69.3040597
  },
  {
    "street": "River Road",
    "housenumber": "56",
    "city": "Detroit",
    "postcode": "04929",
    "lat": 44.7888492,
    "lon": -69.3054009
  },
  {
    "street": "River Road",
    "housenumber": "325",
    "city": "Detroit",
    "postcode": "04929",
    "lat": 44.7747811,
    "lon": -69.3514951
  },
  {
    "street": "River Road",
    "housenumber": "300",
    "city": "Detroit",
    "postcode": "04929",
    "lat": 44.7728125,
    "lon": -69.3476286
  },
  {
    "street": "River Road",
    "housenumber": "263",
    "city": "Detroit",
    "postcode": "04929",
    "lat": 44.7755709,
    "lon": -69.3419072
  },
  {
    "street": "River Road",
    "housenumber": "341",
    "city": "Detroit",
    "postcode": "04929",
    "lat": 44.7759611,
    "lon": -69.3556351
  },
  {
    "street": "River Road",
    "housenumber": "309",
    "city": "Detroit",
    "postcode": "04929",
    "lat": 44.7742221,
    "lon": -69.3488566
  },
  {
    "street": "River Road",
    "housenumber": "337",
    "city": "Detroit",
    "postcode": "04929",
    "lat": 44.7748673,
    "lon": -69.3542129
  },
  {
    "street": "Troy Road",
    "housenumber": "491",
    "city": "Detroit",
    "postcode": "04929",
    "lat": 44.729477,
    "lon": -69.3144335
  },
  {
    "street": "Troy Road",
    "housenumber": "15",
    "city": "Detroit",
    "postcode": "04929",
    "lat": 44.7891354,
    "lon": -69.2906054
  },
  {
    "street": "Troy Road",
    "housenumber": "395",
    "city": "Detroit",
    "postcode": "04929",
    "lat": 44.7427787,
    "lon": -69.3125161
  },
  {
    "street": "Troy Road",
    "housenumber": "237",
    "city": "Detroit",
    "postcode": "04929",
    "lat": 44.7602943,
    "lon": -69.2967532
  },
  {
    "street": "Troy Road",
    "housenumber": "335",
    "city": "Detroit",
    "postcode": "04929",
    "lat": 44.7494821,
    "lon": -69.3071201
  },
  {
    "street": "Troy Road",
    "housenumber": "436",
    "city": "Detroit",
    "postcode": "04929",
    "lat": 44.7370937,
    "lon": -69.3141716
  },
  {
    "street": "Troy Road",
    "housenumber": "323",
    "city": "Detroit",
    "postcode": "04929",
    "lat": 44.7509904,
    "lon": -69.305271
  },
  {
    "street": "Troy Road",
    "housenumber": "58",
    "city": "Detroit",
    "postcode": "04929",
    "lat": 44.783205,
    "lon": -69.2879781
  },
  {
    "street": "Troy Road",
    "housenumber": "476",
    "city": "Detroit",
    "postcode": "04929",
    "lat": 44.7317015,
    "lon": -69.3141046
  },
  {
    "street": "Troy Road",
    "housenumber": "130",
    "city": "Detroit",
    "postcode": "04929",
    "lat": 44.773531,
    "lon": -69.2866346
  },
  {
    "street": "River Road",
    "housenumber": "122",
    "city": "Detroit",
    "postcode": "04929",
    "lat": 44.7838262,
    "lon": -69.3168709
  },
  {
    "street": "River Road",
    "housenumber": "312",
    "city": "Detroit",
    "postcode": "04929",
    "lat": 44.7736194,
    "lon": -69.3501674
  },
  {
    "street": "North Road",
    "housenumber": "175",
    "city": "Detroit",
    "postcode": "04929",
    "lat": 44.7945119,
    "lon": -69.3418357
  },
  {
    "street": "North Road",
    "housenumber": "199",
    "city": "Detroit",
    "postcode": "04929",
    "lat": 44.7940241,
    "lon": -69.3468646
  },
  {
    "street": "North Road",
    "housenumber": "57",
    "city": "Detroit",
    "postcode": "04929",
    "lat": 44.7988567,
    "lon": -69.3212647
  },
  {
    "street": "North Road",
    "housenumber": "193",
    "city": "Detroit",
    "postcode": "04929",
    "lat": 44.7943647,
    "lon": -69.3458679
  },
  {
    "street": "North Road",
    "housenumber": "217",
    "city": "Detroit",
    "postcode": "04929",
    "lat": 44.7937908,
    "lon": -69.349594
  },
  {
    "street": "North Road",
    "housenumber": "251",
    "city": "Detroit",
    "postcode": "04929",
    "lat": 44.7932196,
    "lon": -69.3567209
  },
  {
    "street": "North Road",
    "housenumber": "215",
    "city": "Detroit",
    "postcode": "04929",
    "lat": 44.7937374,
    "lon": -69.3493661
  },
  {
    "street": "North Road",
    "housenumber": "63",
    "city": "Detroit",
    "postcode": "04929",
    "lat": 44.798636,
    "lon": -69.3229072
  },
  {
    "street": "North Road",
    "housenumber": "93",
    "city": "Detroit",
    "postcode": "04929",
    "lat": 44.7960538,
    "lon": -69.3271661
  },
  {
    "street": "Main Street",
    "housenumber": "115",
    "city": "Detroit",
    "postcode": "04929",
    "lat": 44.8049726,
    "lon": -69.308622
  },
  {
    "street": "Main Street",
    "housenumber": "108",
    "city": "Detroit",
    "postcode": "04929",
    "lat": 44.8042204,
    "lon": -69.3088139
  },
  {
    "street": "Troy Road",
    "housenumber": "164",
    "city": "Detroit",
    "postcode": "04929",
    "lat": 44.7689938,
    "lon": -69.2884382
  },
  {
    "street": "G H Lord Road",
    "housenumber": "26",
    "city": "Detroit",
    "postcode": "04929",
    "lat": 44.7748766,
    "lon": -69.2920379
  },
  {
    "street": "G H Lord Road",
    "housenumber": "34",
    "city": "Detroit",
    "postcode": "04929",
    "lat": 44.7746798,
    "lon": -69.2933134
  },
  {
    "street": "Main Street",
    "housenumber": "84",
    "city": "Detroit",
    "postcode": "04929",
    "lat": 44.8021779,
    "lon": -69.3050729
  },
  {
    "street": "Main Street",
    "housenumber": "100",
    "city": "Detroit",
    "postcode": "04929",
    "lat": 44.8036563,
    "lon": -69.3076855
  },
  {
    "street": "Main Street",
    "housenumber": "104",
    "city": "Detroit",
    "postcode": "04929",
    "lat": 44.8038222,
    "lon": -69.3079014
  },
  {
    "street": "Main Street",
    "housenumber": "106",
    "city": "Detroit",
    "postcode": "04929",
    "lat": 44.803898,
    "lon": -69.3081673
  },
  {
    "street": "Main Street",
    "housenumber": "75",
    "city": "Detroit",
    "postcode": "04929",
    "lat": 44.8014851,
    "lon": -69.3032359
  },
  {
    "street": "Main Street",
    "housenumber": "52",
    "city": "Detroit",
    "postcode": "04929",
    "lat": 44.7985948,
    "lon": -69.3017604
  },
  {
    "street": "Main Street",
    "housenumber": "1",
    "city": "Detroit",
    "postcode": "04929",
    "lat": 44.7929524,
    "lon": -69.2958586
  },
  {
    "street": "Main Street",
    "housenumber": "6",
    "city": "Detroit",
    "postcode": "04929",
    "lat": 44.7929196,
    "lon": -69.2963514
  },
  {
    "street": "South Main Street",
    "housenumber": "46",
    "city": "Detroit",
    "postcode": "04929",
    "lat": 44.7900043,
    "lon": -69.2869816
  },
  {
    "street": "East Branch Lane",
    "housenumber": "9",
    "city": "Detroit",
    "postcode": "04929",
    "lat": 44.7927042,
    "lon": -69.2926019
  },
  {
    "street": "Field Road",
    "housenumber": "48",
    "city": "Detroit",
    "postcode": "04929",
    "lat": 44.8000176,
    "lon": -69.2911974
  },
  {
    "street": "Birchwood Street",
    "housenumber": "5",
    "city": "Detroit",
    "postcode": "04929",
    "lat": 44.7463338,
    "lon": -69.3078613
  },
  {
    "street": "Bean Lane",
    "housenumber": "1",
    "city": "Detroit",
    "postcode": "04929",
    "lat": 44.7905347,
    "lon": -69.2995124
  },
  {
    "street": "Bean Lane",
    "housenumber": "2",
    "city": "Detroit",
    "postcode": "04929",
    "lat": 44.7907296,
    "lon": -69.2990014
  },
  {
    "street": "Wakefield Place",
    "housenumber": "2",
    "city": "Detroit",
    "postcode": "04929",
    "lat": 44.7946918,
    "lon": -69.3358377
  },
  {
    "street": "Peltoma Road",
    "housenumber": "635",
    "city": "Detroit",
    "postcode": "04929",
    "lat": 44.7493432,
    "lon": -69.3432369
  },
  {
    "street": "Peltoma Road",
    "housenumber": "637",
    "city": "Detroit",
    "postcode": "04929",
    "lat": 44.7487727,
    "lon": -69.3428735
  },
  {
    "street": "North Road",
    "housenumber": "271",
    "city": "Detroit",
    "postcode": "04929",
    "lat": 44.792838,
    "lon": -69.3607073
  },
  {
    "street": "North Road",
    "housenumber": "286",
    "city": "Detroit",
    "postcode": "04929",
    "lat": 44.7917764,
    "lon": -69.3633176
  },
  {
    "street": "North Road",
    "housenumber": "239",
    "city": "Detroit",
    "postcode": "04929",
    "lat": 44.7931861,
    "lon": -69.354464
  },
  {
    "street": "Joshua Drive",
    "housenumber": "14",
    "city": "Detroit",
    "postcode": "04929",
    "lat": 44.7906738,
    "lon": -69.3590061
  },
  {
    "street": "Tuttle Road",
    "housenumber": "115",
    "city": "Detroit",
    "postcode": "04929",
    "lat": 44.7525884,
    "lon": -69.2861141
  },
  {
    "street": "Clark Road",
    "housenumber": "79",
    "city": "Detroit",
    "postcode": "04929",
    "lat": 44.7718179,
    "lon": -69.2786264
  },
  {
    "street": "Basford Road",
    "housenumber": "11",
    "city": "Detroit",
    "postcode": "04929",
    "lat": 44.7346725,
    "lon": -69.3172591
  },
  {
    "street": "Basford Road",
    "housenumber": "17",
    "city": "Detroit",
    "postcode": "04929",
    "lat": 44.734599,
    "lon": -69.3177955
  },
  {
    "street": "Basford Road",
    "housenumber": "104",
    "city": "Detroit",
    "postcode": "04929",
    "lat": 44.7324132,
    "lon": -69.3345046
  },
  {
    "street": "Buttons Road",
    "housenumber": "5",
    "city": "Detroit",
    "postcode": "04929",
    "lat": 44.7953942,
    "lon": -69.3372641
  },
  {
    "street": "Dogtown Road",
    "housenumber": "87",
    "city": "Detroit",
    "postcode": "04929",
    "lat": 44.7986893,
    "lon": -69.3550161
  },
  {
    "street": "Dogtown Road",
    "housenumber": "107",
    "city": "Detroit",
    "postcode": "04929",
    "lat": 44.7987892,
    "lon": -69.3518242
  },
  {
    "street": "North Road",
    "housenumber": "29",
    "city": "Detroit",
    "postcode": "04929",
    "lat": 44.8019347,
    "lon": -69.3166919
  },
  {
    "street": "North Road",
    "housenumber": "123",
    "city": "Detroit",
    "postcode": "04929",
    "lat": 44.7959542,
    "lon": -69.3320332
  },
  {
    "street": "North Road",
    "housenumber": "168",
    "city": "Detroit",
    "postcode": "04929",
    "lat": 44.7939133,
    "lon": -69.340334
  },
  {
    "street": "North Road",
    "housenumber": "188",
    "city": "Detroit",
    "postcode": "04929",
    "lat": 44.7936356,
    "lon": -69.344359
  },
  {
    "street": "River Road",
    "housenumber": "8",
    "city": "Detroit",
    "postcode": "04929",
    "lat": 44.7921487,
    "lon": -69.2967963
  },
  {
    "street": "River Road",
    "housenumber": "26",
    "city": "Detroit",
    "postcode": "04929",
    "lat": 44.7905066,
    "lon": -69.2999547
  },
  {
    "street": "River Road",
    "housenumber": "51",
    "city": "Detroit",
    "postcode": "04929",
    "lat": 44.7895265,
    "lon": -69.3046017
  },
  {
    "street": "River Road",
    "housenumber": "74",
    "city": "Detroit",
    "postcode": "04929",
    "lat": 44.7875538,
    "lon": -69.308428
  },
  {
    "street": "River Road",
    "housenumber": "76",
    "city": "Detroit",
    "postcode": "04929",
    "lat": 44.7875481,
    "lon": -69.3088704
  },
  {
    "street": "River Road",
    "housenumber": "116",
    "city": "Detroit",
    "postcode": "04929",
    "lat": 44.7849412,
    "lon": -69.3157204
  },
  {
    "street": "Tuttle Road",
    "housenumber": "105",
    "city": "Detroit",
    "postcode": "04929",
    "lat": 44.7544989,
    "lon": -69.2871343
  },
  {
    "street": "North Road",
    "housenumber": "232",
    "city": "Detroit",
    "postcode": "04929",
    "lat": 44.7928436,
    "lon": -69.3531345
  },
  {
    "street": "River Road",
    "housenumber": "89",
    "city": "Detroit",
    "postcode": "04929",
    "lat": 44.7874877,
    "lon": -69.3112024
  },
  {
    "street": "River Road",
    "housenumber": "103",
    "city": "Detroit",
    "postcode": "04929",
    "lat": 44.7865038,
    "lon": -69.3138391
  },
  {
    "street": "River Road",
    "housenumber": "102",
    "city": "Detroit",
    "postcode": "04929",
    "lat": 44.7860236,
    "lon": -69.3132929
  },
  {
    "street": "River Road",
    "housenumber": "162",
    "city": "Detroit",
    "postcode": "04929",
    "lat": 44.7812887,
    "lon": -69.32288
  },
  {
    "street": "River Road",
    "housenumber": "227",
    "city": "Detroit",
    "postcode": "04929",
    "lat": 44.7774121,
    "lon": -69.3342525
  },
  {
    "street": "River Road",
    "housenumber": "282",
    "city": "Detroit",
    "postcode": "04929",
    "lat": 44.7742697,
    "lon": -69.3435425
  },
  {
    "street": "River Road",
    "housenumber": "284",
    "city": "Detroit",
    "postcode": "04929",
    "lat": 44.7741515,
    "lon": -69.3439399
  },
  {
    "street": "River Road",
    "housenumber": "299",
    "city": "Detroit",
    "postcode": "04929",
    "lat": 44.7749012,
    "lon": -69.3460803
  },
  {
    "street": "River Road",
    "housenumber": "314",
    "city": "Detroit",
    "postcode": "04929",
    "lat": 44.7738408,
    "lon": -69.3513757
  },
  {
    "street": "River Road",
    "housenumber": "344",
    "city": "Detroit",
    "postcode": "04929",
    "lat": 44.774539,
    "lon": -69.3555569
  },
  {
    "street": "River Road",
    "housenumber": "336",
    "city": "Detroit",
    "postcode": "04929",
    "lat": 44.7741207,
    "lon": -69.3539935
  },
  {
    "street": "River Road",
    "housenumber": "338",
    "city": "Detroit",
    "postcode": "04929",
    "lat": 44.7742545,
    "lon": -69.3543988
  },
  {
    "street": "Troy Road",
    "housenumber": "122",
    "city": "Detroit",
    "postcode": "04929",
    "lat": 44.7749036,
    "lon": -69.2867298
  },
  {
    "street": "Troy Road",
    "housenumber": "149",
    "city": "Detroit",
    "postcode": "04929",
    "lat": 44.7711152,
    "lon": -69.2878738
  },
  {
    "street": "Troy Road",
    "housenumber": "261",
    "city": "Detroit",
    "postcode": "04929",
    "lat": 44.7573679,
    "lon": -69.2987156
  },
  {
    "street": "Troy Road",
    "housenumber": "306",
    "city": "Detroit",
    "postcode": "04929",
    "lat": 44.7522337,
    "lon": -69.3032056
  },
  {
    "street": "Troy Road",
    "housenumber": "231",
    "city": "Detroit",
    "postcode": "04929",
    "lat": 44.7607335,
    "lon": -69.2957573
  },
  {
    "street": "Troy Road",
    "housenumber": "244",
    "city": "Detroit",
    "postcode": "04929",
    "lat": 44.7589277,
    "lon": -69.2960702
  },
  {
    "street": "Troy Road",
    "housenumber": "438",
    "city": "Detroit",
    "postcode": "04929",
    "lat": 44.7367693,
    "lon": -69.3142962
  },
  {
    "street": "Troy Road",
    "housenumber": "423",
    "city": "Detroit",
    "postcode": "04929",
    "lat": 44.7387571,
    "lon": -69.3149006
  },
  {
    "street": "Troy Road",
    "housenumber": "424",
    "city": "Detroit",
    "postcode": "04929",
    "lat": 44.7385342,
    "lon": -69.3141226
  },
  {
    "street": "Troy Road",
    "housenumber": "431",
    "city": "Detroit",
    "postcode": "04929",
    "lat": 44.7377219,
    "lon": -69.3148887
  },
  {
    "street": "Troy Road",
    "housenumber": "560",
    "city": "Detroit",
    "postcode": "04929",
    "lat": 44.7214262,
    "lon": -69.3088025
  },
  {
    "street": "Troy Road",
    "housenumber": "545",
    "city": "Detroit",
    "postcode": "04929",
    "lat": 44.7226819,
    "lon": -69.3105328
  },
  {
    "street": "Wakefield Place",
    "housenumber": "12",
    "city": "Detroit",
    "postcode": "04929",
    "lat": 44.7930818,
    "lon": -69.335348
  },
  {
    "street": "Field Road",
    "housenumber": "52",
    "city": "Detroit",
    "postcode": "04929",
    "lat": 44.8001728,
    "lon": -69.2903321
  },
  {
    "street": "Basford Road",
    "housenumber": "26",
    "city": "Detroit",
    "postcode": "04929",
    "lat": 44.7333648,
    "lon": -69.3197274
  },
  {
    "street": "River Road",
    "housenumber": "195",
    "city": "Detroit",
    "postcode": "04929",
    "lat": 44.7792964,
    "lon": -69.3286135
  },
  {
    "street": "Brann Place",
    "housenumber": "4",
    "city": "Detroit",
    "postcode": "04929",
    "lat": 44.7722229,
    "lon": -69.2859141
  },
  {
    "street": "Buttons Road",
    "housenumber": "2",
    "city": "Detroit",
    "postcode": "04929",
    "lat": 44.7949333,
    "lon": -69.3378746
  },
  {
    "street": "North Road",
    "housenumber": "171",
    "city": "Detroit",
    "postcode": "04929",
    "lat": 44.7945264,
    "lon": -69.3415007
  },
  {
    "street": "North Road",
    "housenumber": "237",
    "city": "Detroit",
    "postcode": "04929",
    "lat": 44.7931819,
    "lon": -69.3543818
  },
  {
    "street": "East Ferry Avenue",
    "housenumber": "500",
    "city": "Detroit",
    "postcode": "48202",
    "lat": 42.3632335,
    "lon": -83.0611557
  },
  {
    "street": "Beaubien Street",
    "housenumber": "5464",
    "city": "Detroit",
    "postcode": "48202",
    "lat": 42.3631622,
    "lon": -83.0611121
  },
  {
    "street": "Temple Street",
    "housenumber": "908",
    "city": "Detroit",
    "postcode": "48201",
    "lat": 42.3402292,
    "lon": -83.0642437
  },
  {
    "street": "Temple Street",
    "housenumber": "956",
    "city": "Detroit",
    "postcode": "48201",
    "lat": 42.3401123,
    "lon": -83.0646078
  },
  {
    "street": "Temple Street",
    "housenumber": "948",
    "city": "Detroit",
    "postcode": "48201",
    "lat": 42.3401336,
    "lon": -83.0645434
  },
  {
    "street": "Temple Street",
    "housenumber": "940",
    "city": "Detroit",
    "postcode": "48201",
    "lat": 42.3401529,
    "lon": -83.0644858
  },
  {
    "street": "Temple Street",
    "housenumber": "932",
    "city": "Detroit",
    "postcode": "48201",
    "lat": 42.3401767,
    "lon": -83.0644167
  },
  {
    "street": "Temple Street",
    "housenumber": "924",
    "city": "Detroit",
    "postcode": "48201",
    "lat": 42.3401965,
    "lon": -83.0643557
  },
  {
    "street": "Temple Street",
    "housenumber": "916",
    "city": "Detroit",
    "postcode": "48201",
    "lat": 42.3402173,
    "lon": -83.064298
  },
  {
    "street": "Cornerstone Boulevard",
    "housenumber": "3012",
    "city": "Detroit",
    "postcode": "48201",
    "lat": 42.3404291,
    "lon": -83.0648459
  },
  {
    "street": "Cornerstone Boulevard",
    "housenumber": "3016",
    "city": "Detroit",
    "postcode": "48201",
    "lat": 42.3405035,
    "lon": -83.0648587
  },
  {
    "street": "Cornerstone Boulevard",
    "housenumber": "3028",
    "city": "Detroit",
    "postcode": "48201",
    "lat": 42.3405436,
    "lon": -83.0648835
  },
  {
    "street": "Cornerstone Boulevard",
    "housenumber": "3032",
    "city": "Detroit",
    "postcode": "48201",
    "lat": 42.3405982,
    "lon": -83.0649479
  },
  {
    "street": "Cornerstone Boulevard",
    "housenumber": "3033",
    "city": "Detroit",
    "postcode": "48201",
    "lat": 42.3404761,
    "lon": -83.0652968
  },
  {
    "street": "Cornerstone Boulevard",
    "housenumber": "3025",
    "city": "Detroit",
    "postcode": "48201",
    "lat": 42.3404176,
    "lon": -83.0652713
  },
  {
    "street": "Cornerstone Boulevard",
    "housenumber": "3017",
    "city": "Detroit",
    "postcode": "48201",
    "lat": 42.340367,
    "lon": -83.0652445
  },
  {
    "street": "Cornerstone Boulevard",
    "housenumber": "3009",
    "city": "Detroit",
    "postcode": "48201",
    "lat": 42.3403135,
    "lon": -83.0652136
  },
  {
    "street": "West Alexandrine Street",
    "housenumber": "643",
    "city": "Detroit",
    "postcode": "48201",
    "lat": 42.3482745,
    "lon": -83.0659233
  },
  {
    "street": "West Alexandrine Street",
    "housenumber": "647",
    "city": "Detroit",
    "postcode": "48201",
    "lat": 42.3482508,
    "lon": -83.0660045
  },
  {
    "street": "Cass Avenue",
    "housenumber": "3627-B",
    "city": "Detroit",
    "postcode": "48201",
    "lat": 42.3464533,
    "lon": -83.0613935
  },
  {
    "street": "Cass Avenue",
    "housenumber": "3475",
    "city": "Detroit",
    "postcode": "48201",
    "lat": 42.3451378,
    "lon": -83.0609469
  },
  {
    "street": "West Willis Street",
    "housenumber": "115",
    "city": "Detroit",
    "postcode": "48201",
    "lat": 42.3506254,
    "lon": -83.06247
  },
  {
    "street": "Selden Street",
    "housenumber": "52",
    "city": "Detroit",
    "postcode": "48201",
    "lat": 42.3492055,
    "lon": -83.0606169
  },
  {
    "street": "Woodward",
    "housenumber": "3100",
    "city": "Detroit",
    "lat": 42.3450051,
    "lon": -83.0559961
  },
  {
    "street": "Greenfield Road",
    "housenumber": "6355",
    "city": "Detroit",
    "postcode": "48228",
    "lat": 42.3374324,
    "lon": -83.1964928
  },
  {
    "street": "Grand River Avenue",
    "housenumber": "12755",
    "city": "Detroit",
    "postcode": "48204",
    "lat": 42.380877,
    "lon": -83.1702325
  },
  {
    "street": "West Lafayette Boulevard",
    "housenumber": "600",
    "city": "Detroit",
    "postcode": "48226",
    "lat": 42.3289915,
    "lon": -83.0544469
  },
  {
    "street": "Washington Boulevard",
    "housenumber": "601",
    "city": "Detroit",
    "postcode": "48226",
    "lat": 42.3287917,
    "lon": -83.049534
  },
  {
    "street": "East Forest Avenue",
    "housenumber": "52",
    "city": "Detroit",
    "postcode": "48201",
    "lat": 42.3550928,
    "lon": -83.061868
  },
  {
    "street": "3rd Street",
    "housenumber": "4244",
    "city": "Detroit",
    "postcode": "48201",
    "lat": 42.3496275,
    "lon": -83.0681502
  },
  {
    "street": "John R Street",
    "housenumber": "3156",
    "city": "Detroit",
    "postcode": "48201",
    "lat": 42.3462853,
    "lon": -83.0542637
  },
  {
    "street": "John R Street",
    "housenumber": "3160",
    "city": "Detroit",
    "postcode": "48201",
    "lat": 42.3463364,
    "lon": -83.0543221
  },
  {
    "street": "Erskine Street",
    "housenumber": "200",
    "city": "Detroit",
    "postcode": "48201",
    "lat": 42.3464503,
    "lon": -83.054373
  },
  {
    "street": "Mack Avenue",
    "housenumber": "208",
    "city": "Detroit",
    "postcode": "48201",
    "lat": 42.3482558,
    "lon": -83.0554793
  },
  {
    "street": "West Forest Avenue",
    "housenumber": "641",
    "city": "Detroit",
    "postcode": "48201",
    "lat": 42.3526129,
    "lon": -83.0684185
  },
  {
    "street": "Woodward Avenue",
    "housenumber": "4809",
    "city": "Detroit",
    "postcode": "48201",
    "lat": 42.3558667,
    "lon": -83.0641219
  },
  {
    "street": "West Hancock Street",
    "housenumber": "108",
    "city": "Detroit",
    "postcode": "48201",
    "lat": 42.3551595,
    "lon": -83.0654251
  },
  {
    "street": "Burroughs Street",
    "housenumber": "440",
    "city": "Detroit",
    "postcode": "48202",
    "lat": 42.3648774,
    "lon": -83.0730371
  },
  {
    "street": "Cass Avenue",
    "housenumber": "6050",
    "city": "Detroit",
    "postcode": "48202",
    "lat": 42.3649552,
    "lon": -83.0715639
  },
  {
    "street": "Livernois Avenue",
    "housenumber": "9191",
    "city": "Detroit",
    "postcode": "48204",
    "lat": 42.3634718,
    "lon": -83.1388314
  },
  {
    "street": "3rd Street",
    "housenumber": "4219",
    "city": "Detroit",
    "postcode": "48201",
    "lat": 42.349114,
    "lon": -83.0681523
  },
  {
    "street": "Parsons Street",
    "housenumber": "150",
    "city": "Detroit",
    "postcode": "48201",
    "lat": 42.3477765,
    "lon": -83.0614403
  },
  {
    "street": "Cass Avenue",
    "housenumber": "4870",
    "city": "Detroit",
    "postcode": "48201",
    "lat": 42.3558436,
    "lon": -83.0663872
  },
  {
    "street": "West Warren Avenue",
    "housenumber": "107",
    "city": "Detroit",
    "postcode": "48201",
    "lat": 42.3560021,
    "lon": -83.0660201
  },
  {
    "street": "West Warren Avenue",
    "housenumber": "119",
    "city": "Detroit",
    "postcode": "48201",
    "lat": 42.3559051,
    "lon": -83.0662493
  },
  {
    "street": "Cass Avenue",
    "housenumber": "4646",
    "city": "Detroit",
    "postcode": "48201",
    "lat": 42.3536927,
    "lon": -83.0651525
  },
  {
    "street": "Woodward Avenue",
    "housenumber": "2951",
    "city": "Detroit",
    "postcode": "48201",
    "lat": 42.3439189,
    "lon": -83.0558017
  },
  {
    "street": "Henry Street",
    "housenumber": "210",
    "city": "Detroit",
    "postcode": "48201",
    "lat": 42.3392701,
    "lon": -83.0569653
  },
  {
    "street": "Grand River Avenue",
    "housenumber": "19560",
    "city": "Detroit",
    "postcode": "48223",
    "lat": 42.4076128,
    "lon": -83.2347795
  },
  {
    "street": "Harper Avenue",
    "housenumber": "12021",
    "city": "Detroit",
    "postcode": "48213",
    "lat": 42.3993445,
    "lon": -82.9839026
  },
  {
    "street": "Harper Avenue",
    "housenumber": "12105",
    "city": "Detroit",
    "postcode": "48213",
    "lat": 42.399503,
    "lon": -82.9829826
  },
  {
    "street": "Harper Avenue",
    "housenumber": "12245",
    "city": "Detroit",
    "postcode": "48213",
    "lat": 42.3999601,
    "lon": -82.9811083
  },
  {
    "street": "Gratiot Avenue",
    "housenumber": "10993",
    "city": "Detroit",
    "postcode": "48213",
    "lat": 42.4060817,
    "lon": -82.9971981
  },
  {
    "street": "West 7 Mile Road",
    "housenumber": "19833",
    "city": "Detroit",
    "postcode": "48219",
    "lat": 42.4294162,
    "lon": -83.257776
  },
  {
    "street": "Mount Elliott Street",
    "housenumber": "110",
    "city": "Detroit",
    "postcode": "48207",
    "lat": 42.3407802,
    "lon": -83.0079097
  },
  {
    "street": "Kercheval Street",
    "housenumber": "12625",
    "city": "Detroit",
    "postcode": "48215",
    "lat": 42.3744429,
    "lon": -82.960044
  },
  {
    "street": "Woodward Avenue",
    "housenumber": "6500",
    "city": "Detroit",
    "postcode": "48202",
    "lat": 42.3693447,
    "lon": -83.072362
  },
  {
    "street": "Livernois Avenue",
    "housenumber": "5015",
    "city": "Detroit",
    "postcode": "48210",
    "lat": 42.3366408,
    "lon": -83.1248482
  },
  {
    "street": "Livernois Avenue",
    "housenumber": "4930",
    "city": "Detroit",
    "postcode": "48210",
    "lat": 42.3367231,
    "lon": -83.1237458
  },
  {
    "street": "Michigan Avenue",
    "housenumber": "7060",
    "city": "Detroit",
    "postcode": "48210",
    "lat": 42.3313647,
    "lon": -83.1317513
  },
  {
    "street": "Fenkell Street",
    "housenumber": "17706",
    "city": "Detroit",
    "postcode": "48227",
    "lat": 42.4013267,
    "lon": -83.2165024
  },
  {
    "street": "West 7 Mile Road",
    "housenumber": "20615",
    "city": "Detroit",
    "postcode": "48219",
    "lat": 42.429212,
    "lon": -83.2462608
  },
  {
    "street": "West 7 Mile Road",
    "housenumber": "20545",
    "city": "Detroit",
    "postcode": "48219",
    "lat": 42.42912,
    "lon": -83.2450376
  },
  {
    "street": "Telegraph Road",
    "housenumber": "19025",
    "city": "Detroit",
    "postcode": "48219",
    "lat": 42.4284448,
    "lon": -83.278285
  },
  {
    "street": "Brush Street",
    "housenumber": "5552",
    "city": "Detroit",
    "postcode": "48202",
    "lat": 42.3636686,
    "lon": -83.0628641
  },
  {
    "street": "Brush Street",
    "housenumber": "5568",
    "city": "Detroit",
    "postcode": "48202",
    "lat": 42.3638699,
    "lon": -83.0629815
  },
  {
    "street": "East 7 Mile Road",
    "housenumber": "8055",
    "city": "Detroit",
    "postcode": "48234",
    "lat": 42.4341961,
    "lon": -83.022956
  },
  {
    "street": "East 7 Mile Road",
    "housenumber": "8139",
    "city": "Detroit",
    "postcode": "48234",
    "lat": 42.4342954,
    "lon": -83.0214025
  },
  {
    "street": "West McNichols Road",
    "housenumber": "24555",
    "city": "Detroit",
    "postcode": "48219",
    "lat": 42.4141323,
    "lon": -83.2832276
  },
  {
    "street": "West McNichols Road",
    "housenumber": "24861",
    "city": "Detroit",
    "postcode": "48219",
    "lat": 42.4140921,
    "lon": -83.2863336
  },
  {
    "street": "East Grand Boulevard",
    "housenumber": "2831",
    "city": "Detroit",
    "postcode": "48211",
    "lat": 42.3734266,
    "lon": -83.0640231
  },
  {
    "street": "East Palmer Street",
    "housenumber": "603",
    "city": "Detroit",
    "postcode": "48202",
    "lat": 42.3652353,
    "lon": -83.06034
  },
  {
    "street": "East Palmer Street",
    "housenumber": "607",
    "city": "Detroit",
    "postcode": "48202",
    "lat": 42.3652844,
    "lon": -83.0602021
  },
  {
    "street": "East Palmer Street",
    "housenumber": "611",
    "city": "Detroit",
    "postcode": "48202",
    "lat": 42.3652967,
    "lon": -83.0601637
  },
  {
    "street": "Saint Antoine Street",
    "housenumber": "5734",
    "city": "Detroit",
    "postcode": "48202",
    "lat": 42.3655007,
    "lon": -83.0605555
  },
  {
    "street": "Saint Antoine Street",
    "housenumber": "5730",
    "city": "Detroit",
    "postcode": "48202",
    "lat": 42.3654657,
    "lon": -83.060536
  },
  {
    "street": "Saint Antoine Street",
    "housenumber": "5726",
    "city": "Detroit",
    "postcode": "48202",
    "lat": 42.3654416,
    "lon": -83.0605213
  },
  {
    "street": "Saint Antoine Street",
    "housenumber": "5722",
    "city": "Detroit",
    "postcode": "48202",
    "lat": 42.3653801,
    "lon": -83.0604886
  },
  {
    "street": "Saint Antoine Street",
    "housenumber": "5716",
    "city": "Detroit",
    "postcode": "48202",
    "lat": 42.365356,
    "lon": -83.0604691
  },
  {
    "street": "Saint Antoine Street",
    "housenumber": "5714",
    "city": "Detroit",
    "postcode": "48202",
    "lat": 42.3653138,
    "lon": -83.060443
  },
  {
    "street": "Cass Avenue",
    "housenumber": "5470",
    "city": "Detroit",
    "postcode": "48202",
    "lat": 42.3603933,
    "lon": -83.0689701
  },
  {
    "street": "Selden Street",
    "housenumber": "665",
    "city": "Detroit",
    "postcode": "48201",
    "lat": 42.3468586,
    "lon": -83.0655783
  },
  {
    "street": "3rd Street",
    "housenumber": "4126",
    "city": "Detroit",
    "postcode": "48201",
    "lat": 42.3485425,
    "lon": -83.0674786
  },
  {
    "street": "Fenkell Street",
    "housenumber": "22700",
    "city": "Detroit",
    "postcode": "48223",
    "lat": 42.4003938,
    "lon": -83.2659629
  },
  {
    "street": "Lawndale Street",
    "housenumber": "1725",
    "city": "Detroit",
    "lat": 42.305633,
    "lon": -83.1302834
  },
  {
    "street": "Lawndale Street",
    "housenumber": "1725",
    "city": "Detroit",
    "lat": 42.3056029,
    "lon": -83.1302617
  },
  {
    "street": "East 8 Mile Road",
    "housenumber": "6640",
    "city": "Detroit",
    "postcode": "48234",
    "lat": 42.4476914,
    "lon": -83.0356055
  },
  {
    "street": "Bagley Street",
    "housenumber": "2144",
    "city": "Detroit",
    "postcode": "48216",
    "lat": 42.3269682,
    "lon": -83.0734587
  },
  {
    "street": "14th Street",
    "housenumber": "2020",
    "city": "Detroit",
    "postcode": "48216",
    "lat": 42.3286082,
    "lon": -83.0745791
  },
  {
    "street": "Bagley Street",
    "housenumber": "1990",
    "city": "Detroit",
    "postcode": "48216",
    "lat": 42.3275479,
    "lon": -83.072418
  },
  {
    "street": "Porter Street",
    "housenumber": "1366",
    "city": "Detroit",
    "postcode": "48226",
    "lat": 42.3286098,
    "lon": -83.0629165
  },
  {
    "street": "Harper Avenue",
    "housenumber": "51",
    "city": "Detroit",
    "postcode": "48202",
    "lat": 42.3657009,
    "lon": -83.0690371
  },
  {
    "street": "West 8 Mile Road",
    "housenumber": "22645",
    "city": "Detroit",
    "postcode": "48219",
    "lat": 42.4428075,
    "lon": -83.2678538
  },
  {
    "street": "Howard Street",
    "housenumber": "1726",
    "city": "Detroit",
    "postcode": "48216",
    "lat": 42.3250649,
    "lon": -83.0663027
  },
  {
    "street": "Howard Street",
    "housenumber": "1626",
    "city": "Detroit",
    "postcode": "48216",
    "lat": 42.3251857,
    "lon": -83.0659461
  },
  {
    "street": "Trumbull Street",
    "housenumber": "1415",
    "city": "Detroit",
    "postcode": "48216",
    "lat": 42.3280019,
    "lon": -83.0646315
  },
  {
    "street": "Porter Street",
    "housenumber": "1640",
    "city": "Detroit",
    "postcode": "48216",
    "lat": 42.3271809,
    "lon": -83.0663974
  },
  {
    "street": "Porter Street",
    "housenumber": "1640",
    "city": "Detroit",
    "postcode": "48216",
    "lat": 42.3272529,
    "lon": -83.0664391
  },
  {
    "street": "Dalzelle Street",
    "housenumber": "2051",
    "city": "Detroit",
    "postcode": "48216",
    "lat": 42.3299211,
    "lon": -83.0738471
  },
  {
    "street": "Rosa Parks Boulevard",
    "housenumber": "1927",
    "city": "Detroit",
    "postcode": "48216",
    "lat": 42.3289265,
    "lon": -83.0708422
  },
  {
    "street": "Rosa Parks Boulevard",
    "housenumber": "1927",
    "city": "Detroit",
    "postcode": "48216",
    "lat": 42.3287412,
    "lon": -83.0707052
  },
  {
    "street": "Michigan Avenue",
    "housenumber": "2035",
    "city": "Detroit",
    "postcode": "48216",
    "lat": 42.3311505,
    "lon": -83.074255
  },
  {
    "street": "Michigan Avenue",
    "housenumber": "2135",
    "city": "Detroit",
    "postcode": "48216",
    "lat": 42.3311789,
    "lon": -83.0758407
  },
  {
    "street": "Michigan Avenue",
    "housenumber": "2117",
    "city": "Detroit",
    "postcode": "48216",
    "lat": 42.3311895,
    "lon": -83.0754519
  },
  {
    "street": "Broadway Street",
    "housenumber": "1535",
    "city": "Detroit",
    "postcode": "48226",
    "lat": 42.3359732,
    "lon": -83.048942
  },
  {
    "street": "Russell Street",
    "housenumber": "4600",
    "city": "Detroit",
    "postcode": "48207",
    "lat": 42.3591543,
    "lon": -83.0486394
  },
  {
    "street": "Michigan Avenue",
    "housenumber": "2000",
    "city": "Detroit",
    "postcode": "48216",
    "lat": 42.3315855,
    "lon": -83.0736681
  },
  {
    "street": "Mack Avenue",
    "housenumber": "975",
    "city": "Detroit",
    "postcode": "48207",
    "lat": 42.3518173,
    "lon": -83.0472241
  },
  {
    "street": "Randolph Street",
    "housenumber": "1216",
    "city": "Detroit",
    "lat": 42.3343028,
    "lon": -83.0446953
  },
  {
    "street": "West Vernor Highway",
    "housenumber": "3923",
    "city": "Detroit",
    "postcode": "48216",
    "lat": 42.3219481,
    "lon": -83.0908907
  },
  {
    "street": "Russell Street",
    "housenumber": "3400",
    "city": "Detroit",
    "postcode": "48207",
    "lat": 42.3504984,
    "lon": -83.0430519
  },
  {
    "street": "Orleans Street",
    "housenumber": "2211",
    "city": "Detroit",
    "postcode": "48207",
    "lat": 42.3451204,
    "lon": -83.0362263
  },
  {
    "street": "Brewster Street",
    "housenumber": "2127",
    "city": "Detroit",
    "postcode": "48207",
    "lat": 42.3513143,
    "lon": -83.0349342
  },
  {
    "street": "West 7 Mile Road",
    "housenumber": "15854",
    "city": "Detroit",
    "postcode": "48235",
    "lat": 42.4305524,
    "lon": -83.203581
  },
  {
    "street": "West 7 Mile Road",
    "housenumber": "15850",
    "city": "Detroit",
    "postcode": "48235",
    "lat": 42.4305403,
    "lon": -83.203344
  },
  {
    "street": "West 7 Mile Road",
    "housenumber": "16109",
    "city": "Detroit",
    "postcode": "48235",
    "lat": 42.4301657,
    "lon": -83.2066624
  },
  {
    "street": "West 7 Mile Road",
    "housenumber": "16105",
    "city": "Detroit",
    "postcode": "48235",
    "lat": 42.4301622,
    "lon": -83.2065584
  },
  {
    "street": "West 7 Mile Road",
    "housenumber": "16103",
    "city": "Detroit",
    "lat": 42.4301625,
    "lon": -83.2064648
  },
  {
    "street": "West 7 Mile Road",
    "housenumber": "20412",
    "city": "Detroit",
    "postcode": "48235",
    "lat": 42.4301763,
    "lon": -83.2069766
  },
  {
    "street": "West 7 Mile Road",
    "housenumber": "16133",
    "city": "Detroit",
    "postcode": "48235",
    "lat": 42.4301712,
    "lon": -83.2070667
  },
  {
    "street": "West 7 Mile Road",
    "housenumber": "16209",
    "city": "Detroit",
    "postcode": "48235",
    "lat": 42.4301343,
    "lon": -83.2076231
  },
  {
    "street": "West 7 Mile Road",
    "housenumber": "16213",
    "city": "Detroit",
    "postcode": "48235",
    "lat": 42.4301418,
    "lon": -83.2077916
  },
  {
    "street": "West 7 Mile Road",
    "housenumber": "16239",
    "city": "Detroit",
    "postcode": "48235",
    "lat": 42.4301414,
    "lon": -83.2080647
  },
  {
    "street": "West 7 Mile Road",
    "housenumber": "15929",
    "city": "Detroit",
    "postcode": "48235",
    "lat": 42.430155,
    "lon": -83.2047873
  },
  {
    "street": "West 7 Mile Road",
    "housenumber": "16311",
    "city": "Detroit",
    "postcode": "48235",
    "lat": 42.4301448,
    "lon": -83.2088272
  },
  {
    "street": "West 7 Mile Road",
    "housenumber": "16335",
    "city": "Detroit",
    "lat": 42.4299867,
    "lon": -83.2092472
  },
  {
    "street": "Schoolcraft Street",
    "housenumber": "18929",
    "city": "Detroit",
    "postcode": "48223",
    "lat": 42.3863083,
    "lon": -83.2266391
  },
  {
    "street": "West 7 Mile Road",
    "housenumber": "20800",
    "city": "Detroit",
    "postcode": "48219",
    "lat": 42.4295881,
    "lon": -83.2477011
  },
  {
    "street": "Artesian Street",
    "housenumber": "9322",
    "city": "Detroit",
    "postcode": "48228",
    "lat": 42.3634702,
    "lon": -83.225982
  },
  {
    "street": "West Warren Avenue",
    "housenumber": "19212",
    "city": "Detroit",
    "postcode": "48228",
    "lat": 42.3434128,
    "lon": -83.2284448
  },
  {
    "street": "West Warren Avenue",
    "housenumber": "19206",
    "city": "Detroit",
    "postcode": "48228",
    "lat": 42.3434055,
    "lon": -83.2283215
  },
  {
    "street": "West Warren Avenue",
    "housenumber": "19203",
    "city": "Detroit",
    "postcode": "48228",
    "lat": 42.3434184,
    "lon": -83.2282258
  },
  {
    "street": "West Warren Avenue",
    "housenumber": "19201",
    "city": "Detroit",
    "postcode": "48228",
    "lat": 42.3430709,
    "lon": -83.2282736
  },
  {
    "street": "West Warren Avenue",
    "housenumber": "20046",
    "city": "Detroit",
    "postcode": "48228",
    "lat": 42.3430727,
    "lon": -83.2285843
  },
  {
    "street": "West Warren Avenue",
    "housenumber": "18256",
    "city": "Detroit",
    "postcode": "48228",
    "lat": 42.3430624,
    "lon": -83.228758
  },
  {
    "street": "West Warren Avenue",
    "housenumber": "19251",
    "city": "Detroit",
    "postcode": "48228",
    "lat": 42.343052,
    "lon": -83.2290921
  },
  {
    "street": "West Warren Avenue",
    "housenumber": "18940",
    "city": "Detroit",
    "postcode": "48228",
    "lat": 42.3434614,
    "lon": -83.2251651
  },
  {
    "street": "West Warren Avenue",
    "housenumber": "18948",
    "city": "Detroit",
    "postcode": "48228",
    "lat": 42.3436505,
    "lon": -83.2254271
  },
  {
    "street": "East Jefferson Avenue",
    "housenumber": "1480",
    "city": "Detroit",
    "postcode": "48207",
    "lat": 42.3343494,
    "lon": -83.031016
  },
  {
    "street": "East Jefferson Avenue",
    "housenumber": "1560",
    "city": "Detroit",
    "postcode": "48207",
    "lat": 42.3348039,
    "lon": -83.0295771
  },
  {
    "street": "Brush Street",
    "housenumber": "1436",
    "city": "Detroit",
    "postcode": "48226",
    "lat": 42.3365307,
    "lon": -83.0450172
  },
  {
    "street": "Brush Street",
    "housenumber": "1452",
    "city": "Detroit",
    "postcode": "48226",
    "lat": 42.3367808,
    "lon": -83.0451767
  },
  {
    "street": "West McNichols Road",
    "housenumber": "20121",
    "city": "Detroit",
    "postcode": "48219",
    "lat": 42.414852,
    "lon": -83.2396135
  },
  {
    "street": "Brush Street",
    "housenumber": "1326",
    "city": "Detroit",
    "postcode": "48226",
    "lat": 42.3356381,
    "lon": -83.0443861
  },
  {
    "street": "Abbott Street",
    "housenumber": "613",
    "city": "Detroit",
    "postcode": "48226",
    "lat": 42.3304027,
    "lon": -83.0556271
  },
  {
    "street": "Greenfield Road",
    "housenumber": "20211",
    "city": "Detroit",
    "postcode": "48235",
    "lat": 42.4415786,
    "lon": -83.200926
  },
  {
    "street": "James Couzens Freeway",
    "housenumber": "20475",
    "city": "Detroit",
    "postcode": "48235",
    "lat": 42.4426293,
    "lon": -83.2014971
  },
  {
    "street": "Greenfield Road",
    "housenumber": "20171",
    "city": "Detroit",
    "postcode": "48235",
    "lat": 42.4409368,
    "lon": -83.2007982
  },
  {
    "street": "Greenfield Road",
    "housenumber": "20171",
    "city": "Detroit",
    "postcode": "48235",
    "lat": 42.4408495,
    "lon": -83.2007909
  },
  {
    "street": "Greenfield Road",
    "housenumber": "20151",
    "city": "Detroit",
    "postcode": "48235",
    "lat": 42.4407871,
    "lon": -83.2007861
  },
  {
    "street": "Greenfield Road",
    "housenumber": "20131",
    "city": "Detroit",
    "postcode": "48235",
    "lat": 42.4406579,
    "lon": -83.2007825
  },
  {
    "street": "Greenfield Road",
    "housenumber": "20111",
    "city": "Detroit",
    "postcode": "48235",
    "lat": 42.4404244,
    "lon": -83.2007438
  },
  {
    "street": "James Couzens Freeway",
    "housenumber": "20409",
    "city": "Detroit",
    "postcode": "48235",
    "lat": 42.4419323,
    "lon": -83.2007677
  },
  {
    "street": "James Couzens Freeway",
    "housenumber": "20441",
    "city": "Detroit",
    "postcode": "48235",
    "lat": 42.4424495,
    "lon": -83.2012408
  },
  {
    "street": "West 7 Mile Road",
    "housenumber": "17625",
    "city": "Detroit",
    "postcode": "48235",
    "lat": 42.4299138,
    "lon": -83.2166901
  },
  {
    "street": "Livernois Avenue",
    "housenumber": "19300",
    "city": "Detroit",
    "postcode": "48238",
    "lat": 42.390966,
    "lon": -83.1391674
  },
  {
    "street": "Livernois Avenue",
    "housenumber": "14000",
    "city": "Detroit",
    "postcode": "48238",
    "lat": 42.391945,
    "lon": -83.1393582
  },
  {
    "street": "Livernois Avenue",
    "housenumber": "14040",
    "city": "Detroit",
    "postcode": "48238",
    "lat": 42.3922852,
    "lon": -83.1393726
  },
  {
    "street": "Livernois Avenue",
    "housenumber": "14300",
    "city": "Detroit",
    "postcode": "48238",
    "lat": 42.393121,
    "lon": -83.1394756
  },
  {
    "street": "2nd Avenue",
    "housenumber": "8220",
    "city": "Detroit",
    "postcode": "48202",
    "lat": 42.3742104,
    "lon": -83.0794863
  },
  {
    "street": "Lothrop Road",
    "housenumber": "670",
    "city": "Detroit",
    "postcode": "48202",
    "lat": 42.3701289,
    "lon": -83.0784926
  },
  {
    "street": "Woodward Avenue",
    "housenumber": "8528",
    "city": "Detroit",
    "postcode": "48202",
    "lat": 42.3785531,
    "lon": -83.0783048
  },
  {
    "street": "Woodward Avenue",
    "housenumber": "8500",
    "city": "Detroit",
    "postcode": "48202",
    "lat": 42.3783718,
    "lon": -83.078195
  },
  {
    "street": "West Lafayette Boulevard",
    "housenumber": "1601",
    "city": "Detroit",
    "postcode": "48216",
    "lat": 42.3246388,
    "lon": -83.0637917
  },
  {
    "street": "Trumbull Street",
    "housenumber": "1055",
    "city": "Detroit",
    "postcode": "48216",
    "lat": 42.3259262,
    "lon": -83.0631549
  },
  {
    "street": "Howard Street",
    "housenumber": "1525",
    "city": "Detroit",
    "postcode": "48216",
    "lat": 42.3258678,
    "lon": -83.0635965
  },
  {
    "street": "Grand River Avenue",
    "housenumber": "21500",
    "city": "Detroit",
    "postcode": "48219",
    "lat": 42.415304,
    "lon": -83.2539663
  },
  {
    "street": "Grand River Avenue",
    "housenumber": "21530",
    "city": "Detroit",
    "postcode": "48219",
    "lat": 42.4154433,
    "lon": -83.2543304
  },
  {
    "street": "Grand River Avenue",
    "housenumber": "20240",
    "city": "Detroit",
    "postcode": "48219",
    "lat": 42.4097066,
    "lon": -83.2400541
  },
  {
    "street": "Grand River Avenue",
    "housenumber": "20270",
    "city": "Detroit",
    "postcode": "48219",
    "lat": 42.4100048,
    "lon": -83.2405903
  },
  {
    "street": "Medbury Street",
    "housenumber": "205",
    "city": "Detroit",
    "postcode": "48202",
    "lat": 42.3653324,
    "lon": -83.066989
  },
  {
    "street": "Medbury Street",
    "housenumber": "201",
    "city": "Detroit",
    "postcode": "48202",
    "lat": 42.3653101,
    "lon": -83.067058
  },
  {
    "street": "Fenkell Street",
    "housenumber": "17734",
    "city": "Detroit",
    "lat": 42.4013467,
    "lon": -83.2169247
  },
  {
    "street": "Grand River Avenue",
    "housenumber": "17700",
    "city": "Detroit",
    "postcode": "48227",
    "lat": 42.4003956,
    "lon": -83.2168511
  },
  {
    "street": "Freud Street",
    "housenumber": "11100",
    "city": "Detroit",
    "postcode": "48214",
    "lat": 42.3559062,
    "lon": -82.9663511
  },
  {
    "street": "Joseph Campau Ave",
    "housenumber": "2614",
    "city": "Detroit",
    "postcode": "48207",
    "lat": 42.3522557,
    "lon": -83.0278859
  },
  {
    "street": "Division Street",
    "housenumber": "1549",
    "city": "Detroit",
    "postcode": "48207",
    "lat": 42.3482791,
    "lon": -83.0385427
  },
  {
    "street": "Woodward Avenue",
    "housenumber": "1505",
    "city": "Detroit",
    "postcode": "48226",
    "lat": 42.334966,
    "lon": -83.0496775
  },
  {
    "street": "Michigan Avenue",
    "housenumber": "6680",
    "city": "Detroit",
    "postcode": "48210",
    "lat": 42.3314621,
    "lon": -83.1261863
  },
  {
    "street": "Livernois Avenue",
    "housenumber": "10271",
    "city": "Detroit",
    "postcode": "48204",
    "lat": 42.3709799,
    "lon": -83.1392351
  },
  {
    "street": "Livernois Avenue",
    "housenumber": "11633",
    "city": "Detroit",
    "postcode": "48204",
    "lat": 42.3737583,
    "lon": -83.139366
  },
  {
    "street": "Rosa Parks Boulevard",
    "housenumber": "8667",
    "city": "Detroit",
    "postcode": "48206",
    "lat": 42.3722085,
    "lon": -83.0980542
  },
  {
    "street": "Fenkell Street",
    "housenumber": "21740",
    "city": "Detroit",
    "postcode": "48223",
    "lat": 42.4004809,
    "lon": -83.2563807
  },
  {
    "street": "Fenkell Street",
    "housenumber": "21500",
    "city": "Detroit",
    "postcode": "48223",
    "lat": 42.4005666,
    "lon": -83.2534605
  },
  {
    "street": "Gratiot Avenue",
    "housenumber": "8900",
    "city": "Detroit",
    "postcode": "48213",
    "lat": 42.3874074,
    "lon": -83.0087206
  },
  {
    "street": "Michigan Avenue",
    "housenumber": "1716",
    "city": "Detroit",
    "postcode": "48216",
    "lat": 42.3315771,
    "lon": -83.0699217
  },
  {
    "street": "Michigan Avenue",
    "housenumber": "1744",
    "city": "Detroit",
    "postcode": "48216",
    "lat": 42.3315717,
    "lon": -83.07046
  },
  {
    "street": "Shoemaker Street",
    "housenumber": "9606",
    "city": "Detroit",
    "postcode": "48213",
    "lat": 42.389342,
    "lon": -83.0041838
  },
  {
    "street": "Gratiot Avenue",
    "housenumber": "9200",
    "city": "Detroit",
    "postcode": "48213",
    "lat": 42.3893103,
    "lon": -83.0074322
  },
  {
    "street": "Gratiot Avenue",
    "housenumber": "9240",
    "city": "Detroit",
    "postcode": "48213",
    "lat": 42.3898854,
    "lon": -83.0070382
  },
  {
    "street": "Gratiot Avenue",
    "housenumber": "10254",
    "city": "Detroit",
    "postcode": "48213",
    "lat": 42.3972635,
    "lon": -83.0019913
  },
  {
    "street": "Gratiot Avenue",
    "housenumber": "10220",
    "city": "Detroit",
    "postcode": "48213",
    "lat": 42.3968617,
    "lon": -83.0015598
  },
  {
    "street": "Gratiot Avenue",
    "housenumber": "10770",
    "city": "Detroit",
    "postcode": "48213",
    "lat": 42.4034205,
    "lon": -82.9977439
  },
  {
    "street": "Gratiot Avenue",
    "housenumber": "10700",
    "city": "Detroit",
    "postcode": "48213",
    "lat": 42.4027709,
    "lon": -82.9982788
  },
  {
    "street": "Gratiot Avenue",
    "housenumber": "10652",
    "city": "Detroit",
    "postcode": "48213",
    "lat": 42.4040573,
    "lon": -82.9974294
  },
  {
    "street": "Gratiot Avenue",
    "housenumber": "10450",
    "city": "Detroit",
    "postcode": "48213",
    "lat": 42.3996883,
    "lon": -83.0005016
  },
  {
    "street": "Gratiot Avenue",
    "housenumber": "10530",
    "city": "Detroit",
    "postcode": "48213",
    "lat": 42.4004038,
    "lon": -82.9999145
  },
  {
    "street": "Gratiot Avenue",
    "housenumber": "10533",
    "city": "Detroit",
    "postcode": "48213",
    "lat": 42.4008873,
    "lon": -83.0005925
  },
  {
    "street": "Gratiot Avenue",
    "housenumber": "10490",
    "city": "Detroit",
    "postcode": "48213",
    "lat": 42.3999281,
    "lon": -83.0003435
  },
  {
    "street": "Gratiot Avenue",
    "housenumber": "10950",
    "city": "Detroit",
    "postcode": "48213",
    "lat": 42.4056509,
    "lon": -82.996543
  },
  {
    "street": "Gratiot Avenue",
    "housenumber": "11155",
    "city": "Detroit",
    "lat": 42.4084077,
    "lon": -82.9956297
  },
  {
    "street": "Michigan Avenue",
    "housenumber": "1715",
    "city": "Detroit",
    "postcode": "48216",
    "lat": 42.3311242,
    "lon": -83.0698668
  },
  {
    "street": "Porter Street",
    "housenumber": "1600",
    "city": "Detroit",
    "postcode": "48216",
    "lat": 42.3275043,
    "lon": -83.0659776
  },
  {
    "street": "Howard Street",
    "housenumber": "1401",
    "city": "Detroit",
    "postcode": "48216",
    "lat": 42.3266731,
    "lon": -83.0615507
  },
  {
    "street": "West 7 Mile Road",
    "housenumber": "18525",
    "city": "Detroit",
    "postcode": "48219",
    "lat": 42.4296369,
    "lon": -83.2250587
  },
  {
    "street": "West 7 Mile Road",
    "housenumber": "18415",
    "city": "Detroit",
    "postcode": "48219",
    "lat": 42.429637,
    "lon": -83.2236424
  },
  {
    "street": "West 7 Mile Road",
    "housenumber": "19641",
    "city": "Detroit",
    "postcode": "48219",
    "lat": 42.429451,
    "lon": -83.2364344
  },
  {
    "street": "West 7 Mile Road",
    "housenumber": "19331",
    "city": "Detroit",
    "postcode": "48219",
    "lat": 42.4295252,
    "lon": -83.2329541
  },
  {
    "street": "Woodward Avenue",
    "housenumber": "7310",
    "city": "Detroit",
    "postcode": "48202",
    "lat": 42.3707758,
    "lon": -83.0728001
  },
  {
    "street": "Franklin Street",
    "housenumber": "1438",
    "city": "Detroit",
    "postcode": "48207",
    "lat": 42.3329104,
    "lon": -83.0308194
  },
  {
    "street": "West Warren Avenue",
    "housenumber": "19533",
    "city": "Detroit",
    "postcode": "48228",
    "lat": 42.3430031,
    "lon": -83.2323619
  },
  {
    "street": "East Jefferson Avenue",
    "housenumber": "985",
    "city": "Detroit",
    "postcode": "48207",
    "lat": 42.3335844,
    "lon": -83.0350246
  },
  {
    "street": "Griswold Street",
    "housenumber": "1439",
    "city": "Detroit",
    "postcode": "48226",
    "lat": 42.334261,
    "lon": -83.0500724
  },
  {
    "street": "Dix Street",
    "housenumber": "7440",
    "city": "Detroit",
    "postcode": "48209",
    "lat": 42.3171622,
    "lon": -83.1255904
  },
  {
    "street": "Gratiot Avenue",
    "housenumber": "1544",
    "city": "Detroit",
    "postcode": "48207",
    "lat": 42.3456302,
    "lon": -83.0367464
  },
  {
    "street": "Gratiot Avenue",
    "housenumber": "1528",
    "city": "Detroit",
    "postcode": "48207",
    "lat": 42.3453932,
    "lon": -83.0370012
  },
  {
    "street": "Bagley",
    "housenumber": "2701",
    "city": "Detroit",
    "postcode": "48226",
    "lat": 42.3312666,
    "lon": -83.0439743
  },
  {
    "street": "Telegraph Road",
    "housenumber": "18915",
    "city": "Detroit",
    "postcode": "48219",
    "lat": 42.4268601,
    "lon": -83.278319
  },
  {
    "street": "Telegraph Road",
    "housenumber": "18955",
    "city": "Detroit",
    "postcode": "48219",
    "lat": 42.4274365,
    "lon": -83.2783381
  },
  {
    "street": "Telegraph Road",
    "housenumber": "18981",
    "city": "Detroit",
    "postcode": "48219",
    "lat": 42.4276862,
    "lon": -83.278329
  },
  {
    "street": "Telegraph Road",
    "housenumber": "19100",
    "city": "Detroit",
    "postcode": "48219",
    "lat": 42.4292615,
    "lon": -83.2771777
  },
  {
    "street": "East Vernor Highway",
    "housenumber": "2629",
    "city": "Detroit",
    "postcode": "48207",
    "lat": 42.35041,
    "lon": -83.0297163
  },
  {
    "street": "Washington Boulevard",
    "housenumber": "1200",
    "city": "Detroit",
    "postcode": "48226",
    "lat": 42.3326293,
    "lon": -83.0505942
  },
  {
    "street": "Clifford Street",
    "housenumber": "30",
    "city": "Detroit",
    "postcode": "48226",
    "lat": 42.3347883,
    "lon": -83.0501095
  },
  {
    "street": "Trumbull Street",
    "housenumber": "2700",
    "city": "Detroit",
    "postcode": "48216",
    "lat": 42.3368608,
    "lon": -83.0697211
  },
  {
    "street": "Woodward Avenue",
    "housenumber": "6426",
    "city": "Detroit",
    "postcode": "48202",
    "lat": 42.3689195,
    "lon": -83.0721279
  },
  {
    "street": "East Fisher Freeway",
    "housenumber": "1408",
    "city": "Detroit",
    "postcode": "48207",
    "lat": 42.3447789,
    "lon": -83.0391104
  },
  {
    "street": "Russell Street",
    "housenumber": "2362",
    "city": "Detroit",
    "postcode": "48207",
    "lat": 42.3446493,
    "lon": -83.0392064
  },
  {
    "street": "Russell Street",
    "housenumber": "2348",
    "city": "Detroit",
    "postcode": "48207",
    "lat": 42.3445145,
    "lon": -83.0391436
  },
  {
    "street": "Gratiot Avenue",
    "housenumber": "1461",
    "city": "Detroit",
    "postcode": "48207",
    "lat": 42.3449789,
    "lon": -83.0379105
  },
  {
    "street": "Grand River Avenue",
    "housenumber": "9815",
    "city": "Detroit",
    "postcode": "48204",
    "lat": 42.3684644,
    "lon": -83.1393249
  },
  {
    "street": "Grand River Avenue",
    "housenumber": "9800",
    "city": "Detroit",
    "postcode": "48204",
    "lat": 42.3693028,
    "lon": -83.1391996
  },
  {
    "street": "East Milwaukee Street",
    "housenumber": "60",
    "city": "Detroit",
    "postcode": "48202",
    "lat": 42.3694942,
    "lon": -83.0712057
  },
  {
    "street": "East Milwaukee Street",
    "housenumber": "104",
    "city": "Detroit",
    "postcode": "48202",
    "lat": 42.3697089,
    "lon": -83.0704633
  },
  {
    "street": "Lawton Street",
    "housenumber": "5300",
    "city": "Detroit",
    "postcode": "48208",
    "lat": 42.3504925,
    "lon": -83.0962261
  },
  {
    "street": "West Grand Boulevard",
    "housenumber": "2550",
    "city": "Detroit",
    "postcode": "48208",
    "lat": 42.3629643,
    "lon": -83.0920674
  },
  {
    "street": "West Fort Street",
    "housenumber": "1636",
    "city": "Detroit",
    "postcode": "48216",
    "lat": 42.3238501,
    "lon": -83.0637888
  },
  {
    "street": "8 Mile Road",
    "housenumber": "22021",
    "city": "Detroit",
    "postcode": "48219",
    "lat": 42.4428971,
    "lon": -83.2600211
  },
  {
    "street": "West 8 Mile Road",
    "housenumber": "22001",
    "city": "Detroit",
    "postcode": "48219",
    "lat": 42.4425998,
    "lon": -83.2593957
  },
  {
    "street": "Michigan Avenue",
    "housenumber": "3633",
    "city": "Detroit",
    "postcode": "48216",
    "lat": 42.3312373,
    "lon": -83.0941149
  },
  {
    "street": "Michigan Avenue",
    "housenumber": "5715",
    "city": "Detroit",
    "postcode": "48210",
    "lat": 42.3307136,
    "lon": -83.11398
  },
  {
    "street": "West Fort Street",
    "housenumber": "2707",
    "city": "Detroit",
    "postcode": "48216",
    "lat": 42.3182698,
    "lon": -83.0755269
  },
  {
    "street": "West Lafayette Boulevard",
    "housenumber": "2200",
    "city": "Detroit",
    "postcode": "48216",
    "lat": 42.3218922,
    "lon": -83.0714379
  },
  {
    "street": "East 8 Mile Road",
    "housenumber": "8076",
    "city": "Detroit",
    "postcode": "48234",
    "lat": 42.4480348,
    "lon": -83.0230299
  },
  {
    "street": "East 8 Mile Road",
    "housenumber": "8076",
    "city": "Detroit",
    "postcode": "48234",
    "lat": 42.44792,
    "lon": -83.0227952
  },
  {
    "street": "Fenkell Street",
    "housenumber": "19850",
    "city": "Detroit",
    "postcode": "48223",
    "lat": 42.4008592,
    "lon": -83.2370561
  },
  {
    "street": "Schoolcraft Street",
    "housenumber": "19444",
    "city": "Detroit",
    "postcode": "48223",
    "lat": 42.386576,
    "lon": -83.2326163
  },
  {
    "street": "Schoolcraft Street",
    "housenumber": "19836",
    "city": "Detroit",
    "postcode": "48223",
    "lat": 42.3865062,
    "lon": -83.2364398
  },
  {
    "street": "Manson Street",
    "housenumber": "2340",
    "city": "Detroit",
    "postcode": "48209",
    "lat": 42.3203171,
    "lon": -83.1074159
  },
  {
    "street": "Manson Street",
    "housenumber": "2412",
    "city": "Detroit",
    "postcode": "48209",
    "lat": 42.320622,
    "lon": -83.1077584
  },
  {
    "street": "West Vernor Highway",
    "housenumber": "6171",
    "city": "Detroit",
    "postcode": "48209",
    "lat": 42.3154294,
    "lon": -83.1079038
  },
  {
    "street": "Bivouac Street",
    "housenumber": "6161",
    "city": "Detroit",
    "postcode": "48209",
    "lat": 42.3174538,
    "lon": -83.1095434
  },
  {
    "street": "Livernois Avenue",
    "housenumber": "2200",
    "city": "Detroit",
    "postcode": "48209",
    "lat": 42.3176856,
    "lon": -83.1101871
  },
  {
    "street": "Michigan Avenue",
    "housenumber": "55555",
    "city": "Detroit",
    "postcode": "48208",
    "lat": 42.3312555,
    "lon": -83.1004432
  },
  {
    "street": "Schaefer Highway",
    "housenumber": "20516",
    "city": "Detroit",
    "postcode": "48235",
    "lat": 42.4443622,
    "lon": -83.1806717
  },
  {
    "street": "West 8 Mile Road",
    "housenumber": "13433",
    "city": "Detroit",
    "postcode": "48235",
    "lat": 42.4449621,
    "lon": -83.1795685
  },
  {
    "street": "West 8 Mile Road",
    "housenumber": "12711",
    "city": "Detroit",
    "postcode": "48235",
    "lat": 42.4451649,
    "lon": -83.1718777
  },
  {
    "street": "West 8 Mile Road",
    "housenumber": "12711",
    "city": "Detroit",
    "postcode": "48235",
    "lat": 42.4450214,
    "lon": -83.1719019
  },
  {
    "street": "West 8 Mile Road",
    "housenumber": "10715",
    "city": "Detroit",
    "postcode": "48221",
    "lat": 42.4452401,
    "lon": -83.1696139
  },
  {
    "street": "Breckenridge Avenue",
    "housenumber": "3357",
    "city": "Detroit",
    "postcode": "48208",
    "lat": 42.3425664,
    "lon": -83.0975903
  },
  {
    "street": "Greenfield Road",
    "housenumber": "20500",
    "city": "Detroit",
    "postcode": "48235",
    "lat": 42.4441159,
    "lon": -83.2001308
  },
  {
    "street": "Greenfield Road",
    "housenumber": "20500",
    "city": "Detroit",
    "postcode": "48235",
    "lat": 42.4441654,
    "lon": -83.199829
  },
  {
    "street": "West McNichols Road",
    "housenumber": "19250",
    "city": "Detroit",
    "postcode": "48219",
    "lat": 42.4155318,
    "lon": -83.231353
  },
  {
    "street": "West McNichols Road",
    "housenumber": "18120",
    "city": "Detroit",
    "postcode": "48219",
    "lat": 42.4157723,
    "lon": -83.2196211
  },
  {
    "street": "Schaefer Highway",
    "housenumber": "16588",
    "city": "Detroit",
    "postcode": "48235",
    "lat": 42.4125105,
    "lon": -83.1793456
  },
  {
    "street": "West McNichols Road",
    "housenumber": "13725",
    "city": "Detroit",
    "postcode": "48235",
    "lat": 42.4163897,
    "lon": -83.1813994
  },
  {
    "street": "West McNichols Road",
    "housenumber": "14015",
    "city": "Detroit",
    "postcode": "48235",
    "lat": 42.4163431,
    "lon": -83.1833234
  },
  {
    "street": "West McNichols Road",
    "housenumber": "14035",
    "city": "Detroit",
    "postcode": "48235",
    "lat": 42.4162916,
    "lon": -83.1838357
  },
  {
    "street": "Schaefer Highway",
    "housenumber": "16830",
    "city": "Detroit",
    "postcode": "48235",
    "lat": 42.4146618,
    "lon": -83.179016
  },
  {
    "street": "Cheyenne Street",
    "housenumber": "16800",
    "city": "Detroit",
    "postcode": "48235",
    "lat": 42.4143507,
    "lon": -83.1750815
  },
  {
    "street": "Schaefer Highway",
    "housenumber": "15870",
    "city": "Detroit",
    "postcode": "48235",
    "lat": 42.4085827,
    "lon": -83.179235
  },
  {
    "street": "East Congress Street",
    "housenumber": "400",
    "city": "Detroit",
    "postcode": "48226",
    "lat": 42.3318173,
    "lon": -83.0418239
  },
  {
    "street": "East Jefferson Avenue",
    "housenumber": "409",
    "city": "Detroit",
    "postcode": "48226",
    "lat": 42.3305817,
    "lon": -83.040911
  },
  {
    "street": "Henry Street",
    "housenumber": "28",
    "city": "Detroit",
    "postcode": "48201",
    "lat": 42.3404953,
    "lon": -83.0542126
  },
  {
    "street": "Woodward Avenue",
    "housenumber": "2515",
    "city": "Detroit",
    "postcode": "48201",
    "lat": 42.3407354,
    "lon": -83.0538162
  },
  {
    "street": "Woodward Avenue",
    "housenumber": "2645",
    "city": "Detroit",
    "postcode": "48201",
    "lat": 42.3417471,
    "lon": -83.05454
  },
  {
    "street": "Griswold Street",
    "housenumber": "719",
    "city": "Detroit",
    "postcode": "48226",
    "lat": 42.3307576,
    "lon": -83.0477046
  },
  {
    "street": "Griswold Street",
    "housenumber": "719",
    "city": "Detroit",
    "postcode": "48226",
    "lat": 42.330729,
    "lon": -83.0477726
  },
  {
    "street": "Griswold Street",
    "housenumber": "719",
    "city": "Detroit",
    "postcode": "48226",
    "lat": 42.3306779,
    "lon": -83.0478795
  },
  {
    "street": "Griswold Street",
    "housenumber": "719",
    "city": "Detroit",
    "postcode": "48226",
    "lat": 42.3306206,
    "lon": -83.0480098
  },
  {
    "street": "Woodward Avenue",
    "housenumber": "777",
    "city": "Detroit",
    "postcode": "48226",
    "lat": 42.3314741,
    "lon": -83.0476093
  },
  {
    "street": "Woodward Avenue",
    "housenumber": "1001",
    "city": "Detroit",
    "postcode": "48226",
    "lat": 42.3319208,
    "lon": -83.0477309
  },
  {
    "street": "Michigan Avenue",
    "housenumber": "127",
    "city": "Detroit",
    "postcode": "48226",
    "lat": 42.3315032,
    "lon": -83.0489618
  },
  {
    "street": "Griswold Street",
    "housenumber": "645",
    "city": "Detroit",
    "postcode": "48226",
    "lat": 42.3303778,
    "lon": -83.0477219
  },
  {
    "street": "Michigan Avenue",
    "housenumber": "1400",
    "city": "Detroit",
    "postcode": "48216",
    "lat": 42.3315989,
    "lon": -83.0657269
  },
  {
    "street": "Michigan Avenue",
    "housenumber": "1384",
    "city": "Detroit",
    "postcode": "48226",
    "lat": 42.3316021,
    "lon": -83.065405
  },
  {
    "street": "Michigan Avenue",
    "housenumber": "1254",
    "city": "Detroit",
    "postcode": "48226",
    "lat": 42.331654,
    "lon": -83.0633057
  },
  {
    "street": "Hamilton Avenue",
    "housenumber": "11567",
    "city": "Detroit",
    "postcode": "48202",
    "lat": 42.3890553,
    "lon": -83.0975188
  },
  {
    "street": "Hamilton Avenue",
    "housenumber": "11567",
    "city": "Detroit",
    "postcode": "48202",
    "lat": 42.3888993,
    "lon": -83.0975966
  },
  {
    "street": "Hamilton Avenue",
    "housenumber": "11731",
    "city": "Highland Park",
    "postcode": "48203",
    "lat": 42.3896586,
    "lon": -83.0980694
  },
  {
    "street": "Hamilton Avenue",
    "housenumber": "11731",
    "city": "Highland Park",
    "postcode": "48203",
    "lat": 42.38956,
    "lon": -83.0979916
  },
  {
    "street": "East Davison Street",
    "housenumber": "3600",
    "city": "Hamtramck",
    "postcode": "48212",
    "lat": 42.4151318,
    "lon": -83.0617885
  },
  {
    "street": "East Davison Street",
    "housenumber": "3600",
    "city": "Hamtramck",
    "postcode": "48212",
    "lat": 42.4150644,
    "lon": -83.0617469
  },
  {
    "street": "East Davison Street",
    "housenumber": "3801",
    "city": "Detroit",
    "postcode": "48212",
    "lat": 42.415859,
    "lon": -83.061301
  },
  {
    "street": "East Davison Street",
    "housenumber": "3812",
    "city": "Detroit",
    "postcode": "48212",
    "lat": 42.4152237,
    "lon": -83.0606423
  },
  {
    "street": "East Davison Street",
    "housenumber": "3801",
    "city": "Detroit",
    "postcode": "48212",
    "lat": 42.4159259,
    "lon": -83.0611496
  },
  {
    "street": "East McNichols Road",
    "housenumber": "3810",
    "city": "Hamtramck",
    "postcode": "48212",
    "lat": 42.4184352,
    "lon": -83.0630243
  },
  {
    "street": "East McNichols Road",
    "housenumber": "3640",
    "city": "Hamtramck",
    "postcode": "48212",
    "lat": 42.4184703,
    "lon": -83.0637854
  },
  {
    "street": "East McNichols Road",
    "housenumber": "3640",
    "city": "Hamtramck",
    "postcode": "48212",
    "lat": 42.4183282,
    "lon": -83.0637753
  },
  {
    "street": "Conant Street",
    "housenumber": "12000",
    "city": "Detroit",
    "postcode": "48212",
    "lat": 42.4071994,
    "lon": -83.0555447
  },
  {
    "street": "Conant Street",
    "housenumber": "11920",
    "city": "Hamtramck",
    "postcode": "48212",
    "lat": 42.4063084,
    "lon": -83.0550394
  },
  {
    "street": "Mack Avenue",
    "housenumber": "15935",
    "city": "Detroit",
    "postcode": "48224",
    "lat": 42.3899101,
    "lon": -82.9359003
  },
  {
    "street": "Mack Avenue",
    "housenumber": "15935",
    "city": "Detroit",
    "postcode": "48224",
    "lat": 42.3898884,
    "lon": -82.9361933
  },
  {
    "street": "Trumbull Street",
    "housenumber": "1500",
    "city": "Detroit",
    "postcode": "48216",
    "lat": 42.3289094,
    "lon": -83.0647595
  },
  {
    "street": "Greenfield Road",
    "housenumber": "6827",
    "city": "Detroit",
    "postcode": "48228",
    "lat": 42.3418999,
    "lon": -83.1966761
  },
  {
    "street": "Greenfield Road",
    "housenumber": "6827",
    "city": "Detroit",
    "postcode": "48228",
    "lat": 42.3418374,
    "lon": -83.196493
  },
  {
    "street": "Wyoming Street",
    "housenumber": "8001",
    "city": "Detroit",
    "postcode": "48204",
    "lat": 42.3519544,
    "lon": -83.1577398
  },
  {
    "street": "Wyoming Street",
    "housenumber": "8001",
    "city": "Detroit",
    "postcode": "48204",
    "lat": 42.3519916,
    "lon": -83.1579016
  },
  {
    "street": "Tireman Street",
    "housenumber": "8916",
    "city": "Detroit",
    "postcode": "48204",
    "lat": 42.3522295,
    "lon": -83.1571636
  },
  {
    "street": "West Warren Avenue",
    "housenumber": "15530",
    "city": "Detroit",
    "postcode": "48228",
    "lat": 42.343887,
    "lon": -83.1969249
  },
  {
    "street": "West Vernor Highway",
    "housenumber": "6755",
    "city": "Detroit",
    "postcode": "48209",
    "lat": 42.3152465,
    "lon": -83.117375
  },
  {
    "street": "East 7 Mile Road",
    "housenumber": "800",
    "city": "Detroit",
    "postcode": "48203",
    "lat": 42.4322537,
    "lon": -83.0958036
  },
  {
    "street": "West 7 Mile Road",
    "housenumber": "16901",
    "city": "Detroit",
    "postcode": "48235",
    "lat": 42.4299677,
    "lon": -83.2111118
  },
  {
    "street": "Woodward Avenue",
    "housenumber": "5564",
    "city": "Detroit",
    "postcode": "48202",
    "lat": 42.3619916,
    "lon": -83.0671557
  },
  {
    "street": "Woodward Avenue",
    "housenumber": "5564",
    "city": "Detroit",
    "postcode": "48202",
    "lat": 42.362087,
    "lon": -83.066835
  },
  {
    "street": "Woodward Avenue",
    "housenumber": "5996",
    "city": "Detroit",
    "postcode": "48202",
    "lat": 42.3649893,
    "lon": -83.0691961
  },
  {
    "street": "Woodward Avenue",
    "housenumber": "5996",
    "city": "Detroit",
    "postcode": "48202",
    "lat": 42.365049,
    "lon": -83.0692545
  },
  {
    "street": "East Warren Avenue",
    "housenumber": "714",
    "city": "Detroit",
    "postcode": "48201",
    "lat": 42.3602033,
    "lon": -83.0549672
  },
  {
    "street": "East Warren Avenue",
    "housenumber": "350",
    "city": "Detroit",
    "postcode": "48201",
    "lat": 42.3582734,
    "lon": -83.0601004
  },
  {
    "street": "West Warren Avenue",
    "housenumber": "2971",
    "city": "Detroit",
    "postcode": "48208",
    "lat": 42.3464279,
    "lon": -83.0956135
  },
  {
    "street": "West Warren Avenue",
    "housenumber": "2971",
    "city": "Detroit",
    "postcode": "48208",
    "lat": 42.3463154,
    "lon": -83.095447
  },
  {
    "street": "Trumbull Street",
    "housenumber": "5001",
    "city": "Detroit",
    "postcode": "48208",
    "lat": 42.3521564,
    "lon": -83.0791887
  },
  {
    "street": "Trumbull Street",
    "housenumber": "5001",
    "city": "Detroit",
    "postcode": "48208",
    "lat": 42.3522673,
    "lon": -83.079383
  },
  {
    "street": "Woodward Avenue",
    "housenumber": "10358",
    "city": "Detroit",
    "postcode": "48202",
    "lat": 42.3902014,
    "lon": -83.0863555
  },
  {
    "street": "Woodward Avenue",
    "housenumber": "9101",
    "city": "Detroit",
    "postcode": "48202",
    "lat": 42.3829564,
    "lon": -83.0821753
  },
  {
    "street": "Woodward Avenue",
    "housenumber": "8901",
    "city": "Detroit",
    "postcode": "48202",
    "lat": 42.3813318,
    "lon": -83.0811788
  },
  {
    "street": "Woodward Avenue",
    "housenumber": "8351",
    "city": "Detroit",
    "postcode": "48202",
    "lat": 42.3768079,
    "lon": -83.0780607
  },
  {
    "street": "West 7 Mile Road",
    "housenumber": "217",
    "city": "Detroit",
    "postcode": "48203",
    "lat": 42.4320252,
    "lon": -83.1052865
  },
  {
    "street": "Woodward Avenue",
    "housenumber": "19016",
    "city": "Detroit",
    "postcode": "48203",
    "lat": 42.431849,
    "lon": -83.1143993
  },
  {
    "street": "East 7 Mile Road",
    "housenumber": "1520",
    "city": "Detroit",
    "postcode": "48203",
    "lat": 42.4325795,
    "lon": -83.0885012
  },
  {
    "street": "East 7 Mile Road",
    "housenumber": "1200",
    "city": "Detroit",
    "postcode": "48203",
    "lat": 42.4324538,
    "lon": -83.0911097
  },
  {
    "street": "East 7 Mile Road",
    "housenumber": "1200",
    "city": "Detroit",
    "postcode": "48203",
    "lat": 42.4323211,
    "lon": -83.0910286
  },
  {
    "street": "East 7 Mile Road",
    "housenumber": "800",
    "city": "Highland Park",
    "postcode": "48203",
    "lat": 42.4321875,
    "lon": -83.0958103
  },
  {
    "street": "Woodward Avenue",
    "housenumber": "19854",
    "city": "Detroit",
    "postcode": "48203",
    "lat": 42.4390477,
    "lon": -83.1192501
  },
  {
    "street": "East Outer Drive",
    "housenumber": "1419",
    "city": "Detroit",
    "postcode": "48234",
    "lat": 42.4404125,
    "lon": -83.0828049
  },
  {
    "street": "East Outer Drive",
    "housenumber": "1419",
    "city": "Detroit",
    "postcode": "48234",
    "lat": 42.4405045,
    "lon": -83.0825883
  },
  {
    "street": "East State Fair",
    "housenumber": "1841",
    "city": "Highland Park",
    "postcode": "48203",
    "lat": 42.4402838,
    "lon": -83.0835029
  },
  {
    "street": "East State Fair Avenue",
    "housenumber": "1727",
    "city": "Detroit",
    "postcode": "48203",
    "lat": 42.4402399,
    "lon": -83.0862772
  },
  {
    "street": "East State Fair",
    "housenumber": "1841",
    "city": "Highland Park",
    "postcode": "48203",
    "lat": 42.4403921,
    "lon": -83.0835182
  },
  {
    "street": "East State Fair",
    "housenumber": "1",
    "city": "Detroit",
    "postcode": "48202",
    "lat": 42.4397118,
    "lon": -83.1021336
  },
  {
    "street": "East State Fair",
    "housenumber": "1",
    "city": "Detroit",
    "postcode": "48202",
    "lat": 42.4398137,
    "lon": -83.1021094
  },
  {
    "street": "Woodward Avenue",
    "housenumber": "19420",
    "city": "Detroit",
    "postcode": "48203",
    "lat": 42.4354954,
    "lon": -83.1167704
  },
  {
    "street": "East 8 Mile Road",
    "housenumber": "1830",
    "city": "Highland Park",
    "postcode": "48203",
    "lat": 42.4467245,
    "lon": -83.0838235
  },
  {
    "street": "East Mcnichols Road",
    "housenumber": "1640",
    "city": "Highland Park",
    "postcode": "48203",
    "lat": 42.4178674,
    "lon": -83.0863816
  },
  {
    "street": "East Mcnichols Road",
    "housenumber": "1640",
    "city": "Highland Park",
    "postcode": "48203",
    "lat": 42.4178476,
    "lon": -83.0861268
  },
  {
    "street": "West McNichols Road",
    "housenumber": "820",
    "city": "Detroit",
    "postcode": "48203",
    "lat": 42.41785,
    "lon": -83.1131628
  },
  {
    "street": "West McNichols Road",
    "housenumber": "820",
    "city": "Detroit",
    "postcode": "48203",
    "lat": 42.4180005,
    "lon": -83.1132875
  },
  {
    "street": "East Mcnichols Road",
    "housenumber": "1",
    "city": "Detroit",
    "postcode": "48203",
    "lat": 42.4180282,
    "lon": -83.1014476
  },
  {
    "street": "East Mcnichols Road",
    "housenumber": "1",
    "city": "Detroit",
    "postcode": "48203",
    "lat": 42.4181579,
    "lon": -83.1013678
  },
  {
    "street": "West 8 Mile Road",
    "housenumber": "1231",
    "city": "Detroit",
    "postcode": "48203",
    "lat": 42.4461535,
    "lon": -83.1181316
  },
  {
    "street": "West 8 Mile Road",
    "housenumber": "15",
    "city": "Detroit",
    "postcode": "48203",
    "lat": 42.4468007,
    "lon": -83.1032152
  },
  {
    "street": "West 8 Mile Road",
    "housenumber": "15",
    "city": "Detroit",
    "postcode": "48203",
    "lat": 42.4466305,
    "lon": -83.1032588
  },
  {
    "street": "West 8 Mile Road",
    "housenumber": "231",
    "city": "Detroit",
    "postcode": "48203",
    "lat": 42.4467137,
    "lon": -83.1059691
  },
  {
    "street": "West 8 Mile Road",
    "housenumber": "231",
    "city": "Detroit",
    "postcode": "48203",
    "lat": 42.4466157,
    "lon": -83.1058645
  },
  {
    "street": "Tireman Street",
    "housenumber": "5815",
    "city": "Detroit",
    "postcode": "48204",
    "lat": 42.351717,
    "lon": -83.1289282
  },
  {
    "street": "Tireman Street",
    "housenumber": "5815",
    "city": "Detroit",
    "postcode": "48204",
    "lat": 42.3515981,
    "lon": -83.1288336
  },
  {
    "street": "Wyoming Street",
    "housenumber": "8820",
    "city": "Detroit",
    "postcode": "48204",
    "lat": 42.3595136,
    "lon": -83.1576794
  },
  {
    "street": "Wyoming Street",
    "housenumber": "8820",
    "city": "Detroit",
    "postcode": "48204",
    "lat": 42.3596271,
    "lon": -83.1574997
  },
  {
    "street": "Grand River Avenue",
    "housenumber": "12050",
    "city": "Detroit",
    "postcode": "48204",
    "lat": 42.3770788,
    "lon": -83.1591305
  },
  {
    "street": "Grand River Avenue",
    "housenumber": "12050",
    "city": "Detroit",
    "postcode": "48204",
    "lat": 42.3772195,
    "lon": -83.1590635
  },
  {
    "street": "West Grand Boulevard",
    "housenumber": "2021",
    "city": "Detroit",
    "postcode": "48208",
    "lat": 42.3572254,
    "lon": -83.1094178
  },
  {
    "street": "West Grand Boulevard",
    "housenumber": "2021",
    "city": "Detroit",
    "postcode": "48208",
    "lat": 42.3572472,
    "lon": -83.1095184
  },
  {
    "street": "Grand River Avenue",
    "housenumber": "7320",
    "city": "Detroit",
    "postcode": "48204",
    "lat": 42.3573897,
    "lon": -83.1100555
  },
  {
    "street": "Grand River Avenue",
    "housenumber": "7305",
    "city": "Detroit",
    "postcode": "48204",
    "lat": 42.356881,
    "lon": -83.1103599
  },
  {
    "street": "Grand River Avenue",
    "housenumber": "7305",
    "city": "Detroit",
    "postcode": "48204",
    "lat": 42.3568265,
    "lon": -83.1105262
  },
  {
    "street": "Grand River Avenue",
    "housenumber": "8059",
    "city": "Detroit",
    "postcode": "48204",
    "lat": 42.3596676,
    "lon": -83.1171471
  },
  {
    "street": "Livernois Avenue",
    "housenumber": "12181",
    "city": "Detroit",
    "postcode": "48204",
    "lat": 42.3789824,
    "lon": -83.1395792
  },
  {
    "street": "Livernois Avenue",
    "housenumber": "12181",
    "city": "Detroit",
    "postcode": "48204",
    "lat": 42.3787145,
    "lon": -83.1395558
  },
  {
    "street": "Livernois Avenue",
    "housenumber": "9850",
    "city": "Detroit",
    "postcode": "48204",
    "lat": 42.3698353,
    "lon": -83.1384661
  },
  {
    "street": "Livernois Avenue",
    "housenumber": "9600",
    "city": "Detroit",
    "postcode": "48204",
    "lat": 42.3680786,
    "lon": -83.1383246
  },
  {
    "street": "Livernois Avenue",
    "housenumber": "9600",
    "city": "Detroit",
    "postcode": "48204",
    "lat": 42.3680271,
    "lon": -83.1380658
  },
  {
    "street": "Grand River Avenue",
    "housenumber": "9800",
    "city": "Detroit",
    "postcode": "48204",
    "lat": 42.3693142,
    "lon": -83.1394025
  },
  {
    "street": "Livernois Avenue",
    "housenumber": "9600",
    "city": "Detroit",
    "postcode": "48204",
    "lat": 42.3679518,
    "lon": -83.1381198
  },
  {
    "street": "Grand River Avenue",
    "housenumber": "9768",
    "city": "Detroit",
    "postcode": "48204",
    "lat": 42.3688316,
    "lon": -83.1383058
  },
  {
    "street": "Livernois Avenue",
    "housenumber": "9300",
    "city": "Detroit",
    "postcode": "48204",
    "lat": 42.3642806,
    "lon": -83.1382723
  },
  {
    "street": "Livernois Avenue",
    "housenumber": "9300",
    "city": "Detroit",
    "postcode": "48204",
    "lat": 42.364455,
    "lon": -83.1382696
  },
  {
    "street": "Livernois Avenue",
    "housenumber": "8890",
    "city": "Detroit",
    "postcode": "48204",
    "lat": 42.3593149,
    "lon": -83.1380108
  },
  {
    "street": "Livernois Avenue",
    "housenumber": "8890",
    "city": "Detroit",
    "postcode": "48204",
    "lat": 42.3593305,
    "lon": -83.1377979
  },
  {
    "street": "Tireman Street",
    "housenumber": "6290",
    "city": "Detroit",
    "postcode": "48204",
    "lat": 42.3523429,
    "lon": -83.135283
  },
  {
    "street": "Livernois Avenue",
    "housenumber": "7645",
    "city": "Detroit",
    "postcode": "48210",
    "lat": 42.3508335,
    "lon": -83.1352032
  },
  {
    "street": "Livernois Avenue",
    "housenumber": "7645",
    "city": "Detroit",
    "postcode": "48210",
    "lat": 42.3509811,
    "lon": -83.1353769
  },
  {
    "street": "Livernois Avenue",
    "housenumber": "7645",
    "city": "Detroit",
    "postcode": "48210",
    "lat": 42.3508166,
    "lon": -83.1352548
  },
  {
    "street": "Wyoming Street",
    "housenumber": "11511",
    "city": "Detroit",
    "postcode": "48204",
    "lat": 42.3731689,
    "lon": -83.1587805
  },
  {
    "street": "Wyoming Street",
    "housenumber": "11511",
    "city": "Detroit",
    "postcode": "48204",
    "lat": 42.3731476,
    "lon": -83.1589481
  }
]