[
  {
    "street": "San Jacinto Boulevard",
    "housenumber": "2803",
    "city": "Austin",
    "lat": 30.290732,
    "lon": -97.7342758
  },
  {
    "street": "Congress Avenue",
    "housenumber": "315",
    "city": "Austin",
    "postcode": "78701",
    "lat": 30.2656227,
    "lon": -97.7434984
  },
  {
    "street": "Congress Avenue",
    "housenumber": "617",
    "city": "Austin",
    "postcode": "78701",
    "lat": 30.2685706,
    "lon": -97.7422257
  },
  {
    "street": "South Ih35",
    "housenumber": "9300",
    "city": "Austin",
    "postcode": "78748",
    "lat": 30.1638137,
    "lon": -97.7905315
  },
  {
    "street": "Oak Crest Avenue",
    "housenumber": "2435",
    "city": "Austin",
    "postcode": "78704",
    "lat": 30.2420102,
    "lon": -97.763337
  },
  {
    "street": "West Anderson Lane",
    "housenumber": "1500",
    "city": "Austin",
    "postcode": "78757",
    "lat": 30.352446,
    "lon": -97.7209421
  },
  {
    "street": "Burnet Road",
    "housenumber": "4207",
    "city": "Austin",
    "postcode": "78756",
    "lat": 30.3118919,
    "lon": -97.7433271
  },
  {
    "street": "Ramble Lane",
    "housenumber": "301",
    "city": "Austin",
    "postcode": "78758",
    "lat": 30.2097437,
    "lon": -97.7750641
  },
  {
    "street": "Manchaca Road",
    "housenumber": "6711",
    "city": "Austin",
    "postcode": "78745",
    "lat": 30.2049579,
    "lon": -97.8061536
  },
  {
    "street": "Cooper Lane",
    "housenumber": "7612",
    "city": "Austin",
    "postcode": "78745",
    "lat": 30.1866916,
    "lon": -97.7950924
  },
  {
    "street": "North Lamar Boulevard",
    "housenumber": "13500",
    "city": "Austin",
    "postcode": "78753",
    "lat": 30.4217969,
    "lon": -97.6742792
  },
  {
    "street": "Shoalwood Avenue",
    "housenumber": "5510",
    "city": "Austin",
    "postcode": "78756",
    "lat": 30.3304457,
    "lon": -97.7431171
  },
  {
    "street": "Eberhart Lane",
    "housenumber": "405",
    "city": "Austin",
    "postcode": "78745",
    "lat": 30.1990844,
    "lon": -97.7828921
  },
  {
    "street": "Teri Road",
    "housenumber": "1844",
    "city": "Austin",
    "postcode": "78744",
    "lat": 30.2041056,
    "lon": -97.7547832
  },
  {
    "street": "Woodhue Drive",
    "housenumber": "7000",
    "city": "Austin",
    "postcode": "78745",
    "lat": 30.1992998,
    "lon": -97.80219
  },
  {
    "street": "Anderson Mill Road",
    "housenumber": "10401",
    "city": "Austin",
    "postcode": "78750",
    "lat": 30.4463725,
    "lon": -97.8057297
  },
  {
    "street": "North Lamar Boulevard",
    "housenumber": "3801",
    "city": "Austin",
    "postcode": "78756",
    "lat": 30.30591,
    "lon": -97.7410796
  },
  {
    "street": "North MoPac Expressway",
    "housenumber": "7000",
    "city": "Austin",
    "postcode": "78731",
    "lat": 30.3536628,
    "lon": -97.7494158
  },
  {
    "street": "East 6th Street",
    "housenumber": "1914",
    "city": "Austin",
    "postcode": "78702",
    "lat": 30.2616612,
    "lon": -97.7215743
  },
  {
    "street": "East 6th Street",
    "housenumber": "2200",
    "city": "Austin",
    "lat": 30.260462,
    "lon": -97.718238
  },
  {
    "street": "6th Avenue SW",
    "housenumber": "1303",
    "city": "Austin",
    "postcode": "55912",
    "lat": 43.6608155,
    "lon": -92.9899733
  },
  {
    "street": "Main Street North",
    "housenumber": "219",
    "city": "Austin",
    "postcode": "55912",
    "lat": 43.6679919,
    "lon": -92.9750678
  },
  {
    "street": "Barton Springs Road",
    "housenumber": "923",
    "city": "Austin",
    "postcode": "78704",
    "lat": 30.259603,
    "lon": -97.754585
  },
  {
    "street": "West Lynn St",
    "housenumber": "1000",
    "city": "Austin",
    "postcode": "78703",
    "lat": 30.2794133,
    "lon": -97.7600581
  },
  {
    "street": "South Lamar Boulevard",
    "housenumber": "2529",
    "city": "Austin",
    "postcode": "78704",
    "lat": 30.2457844,
    "lon": -97.7782161
  },
  {
    "street": "South Lamar Boulevard",
    "housenumber": "4477",
    "city": "Austin",
    "postcode": "78745",
    "lat": 30.230688,
    "lon": -97.7998856
  },
  {
    "street": "Escarpment Boulevard",
    "housenumber": "9600 F",
    "city": "Austin",
    "postcode": "78749",
    "lat": 30.2026426,
    "lon": -97.878822
  },
  {
    "street": "Century Oaks Terrace",
    "housenumber": "11410",
    "city": "Austin",
    "postcode": "78758",
    "lat": 30.4019908,
    "lon": -97.7263957
  },
  {
    "street": "Burnet Road",
    "housenumber": "5808",
    "city": "Austin",
    "postcode": "78756",
    "lat": 30.3344923,
    "lon": -97.7410624
  },
  {
    "street": "Airport Boulevard",
    "housenumber": "4631",
    "city": "Austin",
    "postcode": "78751",
    "lat": 30.3067572,
    "lon": -97.7154666
  },
  {
    "street": "Burnet Road",
    "housenumber": "5620",
    "city": "Austin",
    "postcode": "78756",
    "lat": 30.3321432,
    "lon": -97.7403073
  },
  {
    "street": "Burnet Road",
    "housenumber": "5624",
    "city": "Austin",
    "postcode": "78756",
    "lat": 30.332276,
    "lon": -97.7402973
  },
  {
    "street": "Burnet Road",
    "housenumber": "5800",
    "city": "Austin",
    "postcode": "78756",
    "lat": 30.333489,
    "lon": -97.7409207
  },
  {
    "street": "Burnet Road",
    "housenumber": "5901",
    "city": "Austin",
    "postcode": "78757",
    "lat": 30.3349573,
    "lon": -97.7393304
  },
  {
    "street": "Burnet Road",
    "housenumber": "6534",
    "city": "Austin",
    "postcode": "78757",
    "lat": 30.341561,
    "lon": -97.7391639
  },
  {
    "street": "Burnet Road",
    "housenumber": "6507",
    "city": "Austin",
    "postcode": "78757",
    "lat": 30.3402379,
    "lon": -97.73864
  },
  {
    "street": "Burnet Road",
    "housenumber": "7930",
    "city": "Austin",
    "postcode": "78757",
    "lat": 30.3577265,
    "lon": -97.7309533
  },
  {
    "street": "West Anderson Lane",
    "housenumber": "2438",
    "city": "Austin",
    "postcode": "78757",
    "lat": 30.3574965,
    "lon": -97.7311138
  },
  {
    "street": "West Anderson Lane",
    "housenumber": "2900",
    "city": "Austin",
    "postcode": "78757",
    "lat": 30.360294,
    "lon": -97.7373039
  },
  {
    "street": "West 38th Street",
    "housenumber": "1106",
    "city": "Austin",
    "lat": 30.3059582,
    "lon": -97.7442691
  },
  {
    "street": "Kerbey Lane",
    "housenumber": "3704",
    "city": "Austin",
    "postcode": "78731",
    "lat": 30.3080182,
    "lon": -97.7504833
  },
  {
    "street": "West Anderson Lane",
    "housenumber": "2909",
    "city": "Austin",
    "postcode": "78757",
    "lat": 30.3593074,
    "lon": -97.738159
  },
  {
    "street": "West 45th Street",
    "housenumber": "1207",
    "city": "Austin",
    "postcode": "78756",
    "lat": 30.3145527,
    "lon": -97.7404766
  },
  {
    "street": "West 29th Street",
    "housenumber": "512 W;512",
    "city": "Austin",
    "postcode": "78705",
    "lat": 30.2954158,
    "lon": -97.7423368
  },
  {
    "street": "North Lamar Boulevard",
    "housenumber": "3303",
    "city": "Austin",
    "postcode": "78705",
    "lat": 30.3018243,
    "lon": -97.7449855
  },
  {
    "street": "Guadalupe Street",
    "housenumber": "3500",
    "city": "Austin",
    "lat": 30.3013037,
    "lon": -97.7392445
  },
  {
    "street": "Capital of TX Hwy N",
    "housenumber": "10010",
    "city": "Austin",
    "postcode": "78759",
    "lat": 30.3911344,
    "lon": -97.7384912
  },
  {
    "street": "Research Boulevard",
    "housenumber": "9607",
    "city": "Austin",
    "postcode": "78759",
    "lat": 30.3891429,
    "lon": -97.7415315
  },
  {
    "street": "Research Boulevard",
    "housenumber": "10000",
    "city": "Austin",
    "postcode": "78759",
    "lat": 30.3909012,
    "lon": -97.7475971
  },
  {
    "street": "W. Slaughter Lane",
    "housenumber": "900",
    "city": "Austin",
    "lat": 30.1832042,
    "lon": -97.8476351
  },
  {
    "street": "W. Slaughter Lane",
    "housenumber": "850",
    "city": "Austin",
    "postcode": "78748",
    "lat": 30.1832487,
    "lon": -97.8477981
  },
  {
    "street": "W. Slaughter Lane",
    "housenumber": "800",
    "city": "Austin",
    "lat": 30.1833154,
    "lon": -97.8479183
  },
  {
    "street": "W. Slaughter Lane",
    "housenumber": "750",
    "city": "Austin",
    "lat": 30.1833377,
    "lon": -97.8480556
  },
  {
    "street": "W. Slaughter Lane",
    "housenumber": "650",
    "city": "Austin",
    "lat": 30.1833971,
    "lon": -97.848193
  },
  {
    "street": "W. Slaughter Lane",
    "housenumber": "600",
    "city": "Austin",
    "lat": 30.1835009,
    "lon": -97.848253
  },
  {
    "street": "W. Slaughter Lane",
    "housenumber": "400",
    "city": "Austin",
    "lat": 30.1835825,
    "lon": -97.848253
  },
  {
    "street": "Brodie Lane",
    "housenumber": "200",
    "city": "Austin",
    "lat": 30.183679,
    "lon": -97.8482015
  },
  {
    "street": "Brodie Lane",
    "housenumber": "9911",
    "city": "Austin",
    "lat": 30.1837829,
    "lon": -97.8481415
  },
  {
    "street": "Brodie Lane",
    "housenumber": "195",
    "city": "Austin",
    "lat": 30.1846658,
    "lon": -97.8476007
  },
  {
    "street": "Brodie Lane",
    "housenumber": "190",
    "city": "Austin",
    "postcode": "78748",
    "lat": 30.1847771,
    "lon": -97.8475149
  },
  {
    "street": "Brodie Lane",
    "housenumber": "160",
    "city": "Austin",
    "lat": 30.1848883,
    "lon": -97.847472
  },
  {
    "street": "Brodie Lane",
    "housenumber": "165",
    "city": "Austin",
    "lat": 30.1849403,
    "lon": -97.8474205
  },
  {
    "street": "Brodie Lane",
    "housenumber": "150",
    "city": "Austin",
    "lat": 30.1850367,
    "lon": -97.8473861
  },
  {
    "street": "Brodie Lane",
    "housenumber": "130",
    "city": "Austin",
    "lat": 30.1851035,
    "lon": -97.8473432
  },
  {
    "street": "Brodie Lane",
    "housenumber": "120",
    "city": "Austin",
    "lat": 30.1851332,
    "lon": -97.8472917
  },
  {
    "street": "Brodie Lane",
    "housenumber": "110",
    "city": "Austin",
    "lat": 30.1852296,
    "lon": -97.8471973
  },
  {
    "street": "North Interstate 35",
    "housenumber": "3909",
    "city": "Austin",
    "postcode": "78722",
    "lat": 30.2959244,
    "lon": -97.7175123
  },
  {
    "street": "W North Loop Blvd.",
    "housenumber": "221",
    "city": "Austin",
    "postcode": "78751",
    "lat": 30.3185317,
    "lon": -97.7245043
  },
  {
    "street": "Great Hills Trail",
    "housenumber": "9722",
    "city": "Austin",
    "postcode": "78759",
    "lat": 30.394918,
    "lon": -97.7525341
  },
  {
    "street": "IH 35 North",
    "housenumber": "6406",
    "city": "Austin",
    "postcode": "78752",
    "lat": 30.3243636,
    "lon": -97.7087159
  },
  {
    "street": "West William Cannon Drive",
    "housenumber": "1945",
    "city": "Austin",
    "lat": 30.2023919,
    "lon": -97.8062582
  },
  {
    "street": "West William Cannon Drive",
    "housenumber": "1900",
    "city": "Austin",
    "lat": 30.2030224,
    "lon": -97.8048581
  },
  {
    "street": "Manchaca Road",
    "housenumber": "6910",
    "city": "Austin",
    "lat": 30.2033005,
    "lon": -97.8071916
  },
  {
    "street": "Manchaca Road",
    "housenumber": "6920",
    "city": "Austin",
    "lat": 30.2026839,
    "lon": -97.8073257
  },
  {
    "street": "West William Cannon Drive",
    "housenumber": "1930",
    "city": "Austin",
    "postcode": "78745",
    "lat": 30.2029899,
    "lon": -97.8054428
  },
  {
    "street": "North Lamar Boulevard",
    "housenumber": "5607",
    "city": "Austin",
    "postcode": "78751",
    "lat": 30.3245221,
    "lon": -97.7266862
  },
  {
    "street": "Duval Street",
    "housenumber": "2900",
    "city": "Austin",
    "postcode": "78705",
    "lat": 30.291373,
    "lon": -97.7346937
  },
  {
    "street": "Airport Boulevard",
    "housenumber": "1151",
    "city": "Austin",
    "postcode": "78702",
    "lat": 30.2739039,
    "lon": -97.6976331
  },
  {
    "street": "Airport Boulevard",
    "housenumber": "1925",
    "city": "Austin",
    "postcode": "78722",
    "lat": 30.2832777,
    "lon": -97.7039145
  },
  {
    "street": "Airport Boulevard",
    "housenumber": "1823",
    "city": "Austin",
    "postcode": "78702",
    "lat": 30.2821242,
    "lon": -97.7031114
  },
  {
    "street": "North Highway 183",
    "housenumber": "13770",
    "city": "Austin",
    "postcode": "78750",
    "lat": 30.4616416,
    "lon": -97.7950751
  },
  {
    "street": "Manor Road",
    "housenumber": "2201",
    "city": "Austin",
    "postcode": "78722",
    "lat": 30.2841763,
    "lon": -97.7189427
  },
  {
    "street": "Research Boulevard",
    "housenumber": "12200",
    "city": "Austin",
    "postcode": "78759",
    "lat": 30.4254584,
    "lon": -97.7535828
  },
  {
    "street": "South Lamar Boulevard",
    "housenumber": "1120",
    "city": "Austin",
    "postcode": "78704",
    "lat": 30.2561493,
    "lon": -97.7631528
  },
  {
    "street": "South Lamar Boulevard",
    "housenumber": "1816",
    "city": "Austin",
    "postcode": "78704",
    "lat": 30.2499685,
    "lon": -97.7670565
  },
  {
    "street": "South Lamar Boulevard",
    "housenumber": "2101",
    "city": "Austin",
    "postcode": "78704",
    "lat": 30.2475017,
    "lon": -97.7700166
  },
  {
    "street": "South Lamar Boulevard",
    "housenumber": "2300",
    "city": "Austin",
    "postcode": "78704",
    "lat": 30.2477582,
    "lon": -97.7744273
  },
  {
    "street": "East Oltorf Street",
    "housenumber": "534",
    "city": "Austin",
    "postcode": "78704-5639",
    "lat": 30.2371474,
    "lon": -97.7496672
  },
  {
    "street": "South Lamar Boulevard",
    "housenumber": "1509",
    "city": "Austin",
    "postcode": "78704",
    "lat": 30.252259,
    "lon": -97.7635967
  },
  {
    "street": "South Congress Avenue",
    "housenumber": "515",
    "city": "Austin",
    "postcode": "78704",
    "lat": 30.2561056,
    "lon": -97.7462026
  },
  {
    "street": "South Congress Avenue",
    "housenumber": "1301",
    "city": "Austin",
    "postcode": "78704",
    "lat": 30.250962,
    "lon": -97.7489491
  },
  {
    "street": "South Lamar Boulevard",
    "housenumber": "2100",
    "city": "Austin",
    "postcode": "78704",
    "lat": 30.2485095,
    "lon": -97.7708178
  },
  {
    "street": "South Congress Avenue",
    "housenumber": "1722",
    "city": "Austin",
    "lat": 30.2463145,
    "lon": -97.7511347
  },
  {
    "street": "South 1st Street",
    "housenumber": "1601",
    "city": "Austin",
    "postcode": "78704",
    "lat": 30.2491584,
    "lon": -97.7548893
  },
  {
    "street": "South 1st Street",
    "housenumber": "3115",
    "city": "Austin",
    "lat": 30.2332092,
    "lon": -97.7648433
  },
  {
    "street": "North Lamar Boulevard",
    "housenumber": "600",
    "city": "Austin",
    "postcode": "78703",
    "lat": 30.2720726,
    "lon": -97.7541298
  },
  {
    "street": "West Lynn St",
    "housenumber": "1221",
    "city": "Austin",
    "postcode": "78703",
    "lat": 30.2806562,
    "lon": -97.7584194
  },
  {
    "street": "West Lynn St",
    "housenumber": "1211",
    "city": "Austin",
    "postcode": "78703",
    "lat": 30.280369,
    "lon": -97.7587466
  },
  {
    "street": "Inner Campus Drive",
    "housenumber": "306",
    "city": "Austin",
    "postcode": "78712",
    "lat": 30.285291,
    "lon": -97.740764
  },
  {
    "street": "South 1st Street",
    "housenumber": "1801 #A",
    "city": "Austin",
    "lat": 30.2472903,
    "lon": -97.7557447
  },
  {
    "street": "Ranch Road 620 North",
    "housenumber": "12129",
    "city": "Austin",
    "postcode": "78750-1090",
    "lat": 30.4612868,
    "lon": -97.8174358
  },
  {
    "street": "Duval Street",
    "housenumber": "5015",
    "city": "Austin",
    "postcode": "78751",
    "lat": 30.3140427,
    "lon": -97.7198644
  },
  {
    "street": "Chemin North",
    "housenumber": "96",
    "city": "Austin",
    "lat": 45.2224934,
    "lon": -72.2854634
  },
  {
    "street": "Rue des Vignes",
    "housenumber": "40",
    "city": "Austin",
    "lat": 45.2484776,
    "lon": -72.2780762
  },
  {
    "street": "Rue des Sapins",
    "housenumber": "73",
    "city": "Austin",
    "lat": 45.247281,
    "lon": -72.2670886
  },
  {
    "street": "Chemin Galvin",
    "housenumber": "81",
    "city": "Austin",
    "lat": 45.2381792,
    "lon": -72.2732543
  },
  {
    "street": "Chemin North",
    "housenumber": "258",
    "city": "Austin",
    "lat": 45.2370943,
    "lon": -72.2600704
  },
  {
    "street": "Chemin Galvin",
    "housenumber": "9",
    "city": "Austin",
    "lat": 45.2257957,
    "lon": -72.2857069
  },
  {
    "street": "Chemin Millington",
    "housenumber": "114",
    "city": "Austin",
    "lat": 45.2024383,
    "lon": -72.2819583
  },
  {
    "street": "Rue des Plaines",
    "housenumber": "70",
    "city": "Austin",
    "lat": 45.2478347,
    "lon": -72.2855979
  },
  {
    "street": "Rue des Plaines",
    "housenumber": "3",
    "city": "Austin",
    "lat": 45.2463537,
    "lon": -72.2755375
  },
  {
    "street": "Chemin des Mésanges",
    "housenumber": "6",
    "city": "Austin",
    "lat": 45.2176265,
    "lon": -72.2873341
  },
  {
    "street": "Chemin des Corbeaux",
    "housenumber": "21",
    "city": "Austin",
    "lat": 45.2203358,
    "lon": -72.2803979
  },
  {
    "street": "Chemin Galvin",
    "housenumber": "3",
    "city": "Austin",
    "lat": 45.2226384,
    "lon": -72.2856764
  },
  {
    "street": "Rue du Lac-des-Sittelles",
    "housenumber": "131",
    "city": "Austin",
    "lat": 45.2465761,
    "lon": -72.2754494
  },
  {
    "street": "Rue des Joncs",
    "housenumber": "27",
    "city": "Austin",
    "lat": 45.2497147,
    "lon": -72.2658452
  },
  {
    "street": "Chemin North",
    "housenumber": "164",
    "city": "Austin",
    "lat": 45.2276776,
    "lon": -72.2745734
  },
  {
    "street": "Rue des Pommiers",
    "housenumber": "17",
    "city": "Austin",
    "lat": 45.2497618,
    "lon": -72.2758938
  },
  {
    "street": "Chemin North",
    "housenumber": "231",
    "city": "Austin",
    "lat": 45.2278722,
    "lon": -72.2745724
  },
  {
    "street": "10e Rang",
    "housenumber": "8",
    "city": "Austin",
    "lat": 45.2260531,
    "lon": -72.2855492
  },
  {
    "street": "Chemin du Lac-Nick",
    "housenumber": "300",
    "city": "Austin",
    "lat": 45.2053012,
    "lon": -72.2940031
  },
  {
    "street": "Chemin North",
    "housenumber": "77",
    "city": "Austin",
    "lat": 45.217688,
    "lon": -72.2872746
  },
  {
    "street": "Rue des Vignes",
    "housenumber": "22",
    "city": "Austin",
    "lat": 45.2467379,
    "lon": -72.2830963
  },
  {
    "street": "Rue des Tilleuls",
    "housenumber": "400",
    "city": "Austin",
    "lat": 45.2435148,
    "lon": -72.2744233
  },
  {
    "street": "Chemin North",
    "housenumber": "357",
    "city": "Austin",
    "lat": 45.2490296,
    "lon": -72.2506807
  },
  {
    "street": "Chemin des Corbeaux",
    "housenumber": "22",
    "city": "Austin",
    "lat": 45.2168813,
    "lon": -72.2869431
  },
  {
    "street": "Chemin du Lac-Malaga",
    "housenumber": "201",
    "city": "Austin",
    "lat": 45.2499647,
    "lon": -72.2575687
  },
  {
    "street": "Chemin Meunier",
    "housenumber": "19",
    "city": "Austin",
    "lat": 45.2204462,
    "lon": -72.2509395
  },
  {
    "street": "Rue des Pruches",
    "housenumber": "6",
    "city": "Austin",
    "lat": 45.2500517,
    "lon": -72.2775787
  },
  {
    "street": "Rue du Lac-Gilbert",
    "housenumber": "30",
    "city": "Austin",
    "lat": 45.2138562,
    "lon": -72.2924326
  },
  {
    "street": "Chemin Galvin",
    "housenumber": "46",
    "city": "Austin",
    "lat": 45.2258341,
    "lon": -72.2854087
  },
  {
    "street": "Rue des Pruches",
    "housenumber": "17",
    "city": "Austin",
    "lat": 45.2498746,
    "lon": -72.2775503
  },
  {
    "street": "Chemin North",
    "housenumber": "351",
    "city": "Austin",
    "lat": 45.2489615,
    "lon": -72.2506005
  },
  {
    "street": "Chemin Millington",
    "housenumber": "129",
    "city": "Austin",
    "lat": 45.2022545,
    "lon": -72.2820365
  },
  {
    "street": "Rue des Tilleuls",
    "housenumber": "75",
    "city": "Austin",
    "lat": 45.2460527,
    "lon": -72.276253
  },
  {
    "street": "Rue du Lac-des-Sittelles",
    "housenumber": "165",
    "city": "Austin",
    "lat": 45.2429739,
    "lon": -72.2707226
  },
  {
    "street": "Chemin North",
    "housenumber": "74",
    "city": "Austin",
    "lat": 45.2171012,
    "lon": -72.2869953
  },
  {
    "street": "Chemin North",
    "housenumber": "245",
    "city": "Austin",
    "lat": 45.2371406,
    "lon": -72.2603691
  },
  {
    "street": "Chemin Westover",
    "housenumber": "29",
    "city": "Bolton-Est",
    "lat": 45.1992356,
    "lon": -72.3074934
  },
  {
    "street": "Chemin Westover",
    "housenumber": "64",
    "city": "Austin",
    "lat": 45.199247,
    "lon": -72.3073699
  },
  {
    "street": "Rue du Lac-des-Sittelles",
    "housenumber": "150",
    "city": "Austin",
    "lat": 45.2464875,
    "lon": -72.2757863
  },
  {
    "street": "Chemin du Lac-Nick",
    "housenumber": "254",
    "city": "Bolton-Est",
    "lat": 45.2107057,
    "lon": -72.3072376
  },
  {
    "street": "Chemin Taylor",
    "housenumber": "166",
    "city": "Austin",
    "lat": 45.2024452,
    "lon": -72.281823
  },
  {
    "street": "Chemin North",
    "housenumber": "162",
    "city": "Austin",
    "lat": 45.2276401,
    "lon": -72.2746868
  },
  {
    "street": "Rue des Plaines",
    "housenumber": "71",
    "city": "Austin",
    "lat": 45.2448475,
    "lon": -72.285985
  },
  {
    "street": "Chemin Patch",
    "housenumber": "101",
    "city": "Austin",
    "lat": 45.2050931,
    "lon": -72.2937759
  },
  {
    "street": "Rue des Plaines",
    "housenumber": "48",
    "city": "Austin",
    "lat": 45.2451932,
    "lon": -72.2851069
  },
  {
    "street": "Rue des Vignes",
    "housenumber": "37",
    "city": "Austin",
    "lat": 45.2485911,
    "lon": -72.2781717
  },
  {
    "street": "Rue des Tilleuls",
    "housenumber": "125",
    "city": "Austin",
    "lat": 45.2436934,
    "lon": -72.27442
  },
  {
    "street": "Chemin North",
    "housenumber": "5",
    "city": "Austin",
    "lat": 45.2050036,
    "lon": -72.2898063
  },
  {
    "street": "Rue des Merisiers",
    "housenumber": "3",
    "city": "Austin",
    "lat": 45.2497095,
    "lon": -72.2819408
  },
  {
    "street": "Chemin North",
    "housenumber": "108",
    "city": "Austin",
    "lat": 45.2225706,
    "lon": -72.2854022
  },
  {
    "street": "Rue des Vignes",
    "housenumber": "40",
    "city": "Austin",
    "lat": 45.2483095,
    "lon": -72.2784891
  },
  {
    "street": "Chemin North",
    "housenumber": "200",
    "city": "Austin",
    "lat": 45.2370345,
    "lon": -72.2601627
  },
  {
    "street": "Rue des Plaines",
    "housenumber": "47",
    "city": "Austin",
    "lat": 45.2465356,
    "lon": -72.2829656
  },
  {
    "street": "Chemin Clark",
    "housenumber": "27",
    "city": "Austin",
    "lat": 45.2432704,
    "lon": -72.2603444
  },
  {
    "street": "Chemin Patch",
    "housenumber": "14",
    "city": "Austin",
    "lat": 45.2002167,
    "lon": -72.2973713
  },
  {
    "street": "Chemin Westover",
    "housenumber": "81",
    "city": "Austin",
    "lat": 45.2004322,
    "lon": -72.2974393
  },
  {
    "street": "Chemin Millington",
    "housenumber": "144",
    "city": "Austin",
    "lat": 45.2040701,
    "lon": -72.2888973
  },
  {
    "street": "Chemin des Corbeaux",
    "housenumber": "28",
    "city": "Austin",
    "lat": 45.2202662,
    "lon": -72.2801676
  },
  {
    "street": "Chemin Millington",
    "housenumber": "150",
    "city": "Austin",
    "lat": 45.2043199,
    "lon": -72.2890357
  },
  {
    "street": "Rue des Vignes",
    "housenumber": "25",
    "city": "Austin",
    "lat": 45.249619,
    "lon": -72.2815532
  },
  {
    "street": "Rue du Lac-des-Sittelles",
    "housenumber": "192",
    "city": "Austin",
    "lat": 45.242848,
    "lon": -72.2709584
  },
  {
    "street": "Chemin Patch",
    "housenumber": "55",
    "city": "Austin",
    "lat": 45.2050858,
    "lon": -72.2939003
  },
  {
    "street": "Chemin North",
    "housenumber": "72",
    "city": "Austin",
    "lat": 45.2168361,
    "lon": -72.2870182
  },
  {
    "street": "Rue du Lac-des-Sittelles",
    "housenumber": "155",
    "city": "Austin",
    "lat": 45.2434163,
    "lon": -72.2707412
  },
  {
    "street": "Chemin Lakeview Est",
    "housenumber": "27",
    "city": "Austin",
    "lat": 45.216598,
    "lon": -72.2981573
  },
  {
    "street": "Rue des Saules",
    "housenumber": "2",
    "city": "Austin",
    "lat": 45.2495901,
    "lon": -72.2760957
  },
  {
    "street": "Chemin Meunier",
    "housenumber": "76",
    "city": "Austin",
    "lat": 45.2179223,
    "lon": -72.2662554
  },
  {
    "street": "Chemin Millington",
    "housenumber": "145",
    "city": "Austin",
    "lat": 45.204177,
    "lon": -72.2892313
  },
  {
    "street": "Chemin North",
    "housenumber": "167",
    "city": "Austin",
    "lat": 45.2277593,
    "lon": -72.2749132
  },
  {
    "street": "Chemin Taylor",
    "housenumber": "63",
    "city": "Austin",
    "lat": 45.2022778,
    "lon": -72.2816579
  },
  {
    "street": "Chemin des Mésanges",
    "housenumber": "9",
    "city": "Austin",
    "lat": 45.2174352,
    "lon": -72.287331
  },
  {
    "street": "Chemin des Geais-Bleus",
    "housenumber": "15",
    "city": "Austin",
    "lat": 45.2102586,
    "lon": -72.2994849
  },
  {
    "street": "Chemin Patch",
    "housenumber": "43",
    "city": "Austin",
    "lat": 45.2004206,
    "lon": -72.2971306
  },
  {
    "street": "Chemin du Lac-Malaga",
    "housenumber": "180",
    "city": "Austin",
    "lat": 45.2499611,
    "lon": -72.257317
  },
  {
    "street": "Rue des Plaines",
    "housenumber": "38",
    "city": "Austin",
    "lat": 45.2467242,
    "lon": -72.2830054
  },
  {
    "street": "Rue des Plaines",
    "housenumber": "59",
    "city": "Austin",
    "lat": 45.2449761,
    "lon": -72.2850497
  },
  {
    "street": "Rue des Vignes",
    "housenumber": "35",
    "city": "Austin",
    "lat": 45.2484868,
    "lon": -72.2786951
  },
  {
    "street": "Chemin Westover",
    "housenumber": "76",
    "city": "Bolton-Est",
    "lat": 45.1994104,
    "lon": -72.3075359
  },
  {
    "street": "Chemin North",
    "housenumber": "4",
    "city": "Austin",
    "lat": 45.2048981,
    "lon": -72.289592
  },
  {
    "street": "Chemin Millington",
    "housenumber": "47",
    "city": "Austin",
    "lat": 45.2022162,
    "lon": -72.2819575
  },
  {
    "street": "Chemin Millington",
    "housenumber": "150",
    "city": "Austin",
    "lat": 45.2048355,
    "lon": -72.2895929
  },
  {
    "street": "Chemin des Geais-Bleus",
    "housenumber": "36",
    "city": "Austin",
    "lat": 45.2195042,
    "lon": -72.2932563
  },
  {
    "street": "Rue des Vignes",
    "housenumber": "37",
    "city": "Austin",
    "lat": 45.2485397,
    "lon": -72.2786075
  },
  {
    "street": "Chemin North",
    "housenumber": "336",
    "city": "Austin",
    "lat": 45.2493448,
    "lon": -72.2507063
  },
  {
    "street": "Rue du Lac-des-Sittelles",
    "housenumber": "101",
    "city": "Austin",
    "lat": 45.2466096,
    "lon": -72.2755653
  },
  {
    "street": "Rue des Plaines",
    "housenumber": "50",
    "city": "Austin",
    "lat": 45.2451081,
    "lon": -72.2858451
  },
  {
    "street": "Chemin Meunier",
    "housenumber": "55",
    "city": "Austin",
    "lat": 45.2177471,
    "lon": -72.2662917
  },
  {
    "street": "Chemin Galvin",
    "housenumber": "25",
    "city": "Austin",
    "lat": 45.2260524,
    "lon": -72.2854845
  },
  {
    "street": "Chemin Patch",
    "housenumber": "70",
    "city": "Austin",
    "lat": 45.2004887,
    "lon": -72.2973746
  },
  {
    "street": "Chemin Millington",
    "housenumber": "143",
    "city": "Austin",
    "lat": 45.2040956,
    "lon": -72.2891826
  },
  {
    "street": "Chemin Millington",
    "housenumber": "145",
    "city": "Austin",
    "lat": 45.2047472,
    "lon": -72.2898196
  },
  {
    "street": "Chemin Galvin",
    "housenumber": "66",
    "city": "Austin",
    "lat": 45.2382822,
    "lon": -72.2730504
  },
  {
    "street": "Chemin Lakeview Est",
    "housenumber": "22",
    "city": "Austin",
    "lat": 45.2164097,
    "lon": -72.2979534
  },
  {
    "street": "Chemin Clark",
    "housenumber": "21",
    "city": "Austin",
    "lat": 45.2372149,
    "lon": -72.2603191
  },
  {
    "street": "Rue des Merisiers",
    "housenumber": "10",
    "city": "Austin",
    "lat": 45.2498845,
    "lon": -72.2817972
  },
  {
    "street": "Chemin North",
    "housenumber": "74",
    "city": "Austin",
    "lat": 45.2175402,
    "lon": -72.2870264
  },
  {
    "street": "Chemin North",
    "housenumber": "96",
    "city": "Austin",
    "lat": 45.2176287,
    "lon": -72.2870265
  },
  {
    "street": "Chemin des Corbeaux",
    "housenumber": "21",
    "city": "Austin",
    "lat": 45.2170589,
    "lon": -72.2869326
  },
  {
    "street": "Rue des Plaines",
    "housenumber": "70",
    "city": "Austin",
    "lat": 45.245056,
    "lon": -72.285939
  },
  {
    "street": "Chemin Westover",
    "housenumber": "64",
    "city": "Austin",
    "lat": 45.2002485,
    "lon": -72.2974355
  },
  {
    "street": "Chemin Westover",
    "housenumber": "81",
    "city": "Austin",
    "lat": 45.199423,
    "lon": -72.3074232
  },
  {
    "street": "Chemin North",
    "housenumber": "283",
    "city": "Austin",
    "lat": 45.2373718,
    "lon": -72.2600093
  },
  {
    "street": "Chemin Patch",
    "housenumber": "101",
    "city": "Austin",
    "lat": 45.204798,
    "lon": -72.2899193
  },
  {
    "street": "Rue des Plaines",
    "housenumber": "9",
    "city": "Austin",
    "lat": 45.2462239,
    "lon": -72.2765325
  },
  {
    "street": "Rue du Lac-des-Sittelles",
    "housenumber": "184",
    "city": "Austin",
    "lat": 45.2433217,
    "lon": -72.2710079
  },
  {
    "street": "Chemin North",
    "housenumber": "83",
    "city": "Austin",
    "lat": 45.2225555,
    "lon": -72.2857008
  },
  {
    "street": "Rue des Saules",
    "housenumber": "9",
    "city": "Austin",
    "lat": 45.2497034,
    "lon": -72.2759027
  },
  {
    "street": "Rue des Plaines",
    "housenumber": "10",
    "city": "Austin",
    "lat": 45.2463389,
    "lon": -72.2763264
  },
  {
    "street": "Chemin Patch",
    "housenumber": "70",
    "city": "Austin",
    "lat": 45.2052552,
    "lon": -72.2940556
  },
  {
    "street": "Rue des Plaines",
    "housenumber": "3",
    "city": "Austin",
    "lat": 45.2460947,
    "lon": -72.2761833
  },
  {
    "street": "Chemin Clark",
    "housenumber": "26",
    "city": "Austin",
    "lat": 45.2373863,
    "lon": -72.2600516
  },
  {
    "street": "Chemin North",
    "housenumber": "61",
    "city": "Austin",
    "lat": 45.2169173,
    "lon": -72.2872509
  },
  {
    "street": "Chemin des Mésanges",
    "housenumber": "6",
    "city": "Austin",
    "lat": 45.2171616,
    "lon": -72.2888582
  },
  {
    "street": "Chemin Patch",
    "housenumber": "100",
    "city": "Austin",
    "lat": 45.2049878,
    "lon": -72.2899005
  },
  {
    "street": "Rue du Lac-des-Sittelles",
    "housenumber": "160",
    "city": "Austin",
    "lat": 45.2463654,
    "lon": -72.2754463
  },
  {
    "street": "Rue des Vignes",
    "housenumber": "22",
    "city": "Austin",
    "lat": 45.2494646,
    "lon": -72.2817746
  },
  {
    "street": "Chemin North",
    "housenumber": "322",
    "city": "Austin",
    "lat": 45.2490512,
    "lon": -72.2503794
  },
  {
    "street": "Chemin Meunier",
    "housenumber": "68",
    "city": "Austin",
    "lat": 45.2204386,
    "lon": -72.2513024
  },
  {
    "street": "Chemin du Lac-Kirby",
    "housenumber": "90",
    "city": "Austin",
    "lat": 45.2491292,
    "lon": -72.2504197
  },
  {
    "street": "Chemin Clark",
    "housenumber": "34",
    "city": "Austin",
    "lat": 45.2432621,
    "lon": -72.2600941
  },
  {
    "street": "Chemin Patch",
    "housenumber": "29",
    "city": "Austin",
    "lat": 45.2003323,
    "lon": -72.2971311
  },
  {
    "street": "Chemin Millington",
    "housenumber": "100",
    "city": "Austin",
    "lat": 45.2022312,
    "lon": -72.2817036
  },
  {
    "street": "Chemin North",
    "housenumber": "147",
    "city": "Austin",
    "lat": 45.2228439,
    "lon": -72.2854311
  },
  {
    "street": "Rue du Lac-des-Sittelles",
    "housenumber": "188",
    "city": "Austin",
    "lat": 45.2432336,
    "lon": -72.2710202
  },
  {
    "street": "Chemin Lakeview Est",
    "housenumber": "38",
    "city": "Austin",
    "lat": 45.2180291,
    "lon": -72.2953234
  },
  {
    "street": "Rue des Plaines",
    "housenumber": "42",
    "city": "Austin",
    "lat": 45.2465813,
    "lon": -72.2833245
  },
  {
    "street": "Rue des Vignes",
    "housenumber": "3",
    "city": "Austin",
    "lat": 45.2466424,
    "lon": -72.2833074
  },
  {
    "street": "Rue du Lac-Gilbert",
    "housenumber": "6",
    "city": "Austin",
    "lat": 45.217027,
    "lon": -72.2889935
  },
  {
    "street": "Rue des Sapins",
    "housenumber": "84",
    "city": "Austin",
    "lat": 45.247233,
    "lon": -72.2673299
  },
  {
    "street": "Rue des Plaines",
    "housenumber": "50",
    "city": "Austin",
    "lat": 45.2451819,
    "lon": -72.2852265
  },
  {
    "street": "Chemin Patch",
    "housenumber": "100",
    "city": "Austin",
    "lat": 45.2052711,
    "lon": -72.2936798
  },
  {
    "street": "10e Rang",
    "housenumber": "8",
    "city": "Austin",
    "lat": 45.2286962,
    "lon": -72.2882965
  },
  {
    "street": "Chemin O'Neil",
    "housenumber": "4",
    "city": "Austin",
    "lat": 45.2045324,
    "lon": -72.2870479
  },
  {
    "street": "Rue du Lac-des-Sittelles",
    "housenumber": "165",
    "city": "Austin",
    "lat": 45.2431974,
    "lon": -72.2707134
  },
  {
    "street": "Rue des Plaines",
    "housenumber": "59",
    "city": "Austin",
    "lat": 45.2448241,
    "lon": -72.2859168
  },
  {
    "street": "Chemin Lakeview Est",
    "housenumber": "27",
    "city": "Austin",
    "lat": 45.2181187,
    "lon": -72.2955909
  },
  {
    "street": "Rue des Tilleuls",
    "housenumber": "100",
    "city": "Austin",
    "lat": 45.2461551,
    "lon": -72.2764881
  },
  {
    "street": "Rue des Vignes",
    "housenumber": "19",
    "city": "Austin",
    "lat": 45.249606,
    "lon": -72.2819285
  },
  {
    "street": "Rue des Plaines",
    "housenumber": "97",
    "city": "Austin",
    "lat": 45.2480306,
    "lon": -72.2860516
  },
  {
    "street": "Chemin O'Neil",
    "housenumber": "4",
    "city": "Austin",
    "lat": 45.2041221,
    "lon": -72.2888547
  },
  {
    "street": "Chemin des Geais-Bleus",
    "housenumber": "36",
    "city": "Austin",
    "lat": 45.220795,
    "lon": -72.2908396
  },
  {
    "street": "Chemin des Geais-Bleus",
    "housenumber": "15",
    "city": "Austin",
    "lat": 45.2184638,
    "lon": -72.2945252
  },
  {
    "street": "Chemin des Mésanges",
    "housenumber": "9",
    "city": "Austin",
    "lat": 45.217022,
    "lon": -72.2886881
  },
  {
    "street": "Chemin du Lac-Nick",
    "housenumber": "292",
    "city": "Austin",
    "lat": 45.2100468,
    "lon": -72.2995629
  },
  {
    "street": "Chemin de la Pointe-Gibraltar",
    "housenumber": "38",
    "city": "Austin",
    "lat": 45.1542364,
    "lon": -72.2689109
  },
  {
    "street": "Chemin du Grand-Bouvier",
    "housenumber": "150",
    "city": "Austin",
    "lat": 45.1607669,
    "lon": -72.3026544
  },
  {
    "street": "Chemin Millington",
    "housenumber": "31",
    "city": "Austin",
    "lat": 45.1880101,
    "lon": -72.2800168
  },
  {
    "street": "Chemin Bob",
    "housenumber": "4",
    "city": "Austin",
    "lat": 45.1852665,
    "lon": -72.2838538
  },
  {
    "street": "Chemin du Héron",
    "housenumber": "19",
    "city": "Austin",
    "lat": 45.185096,
    "lon": -72.2974784
  },
  {
    "street": "Chemin du Grand-Pic",
    "housenumber": "17",
    "city": "Austin",
    "lat": 45.1573342,
    "lon": -72.3056834
  },
  {
    "street": "Chemin Channell Hill",
    "housenumber": "72",
    "city": "Austin",
    "lat": 45.1847428,
    "lon": -72.2860254
  },
  {
    "street": "Chemin Nicholas-Austin",
    "housenumber": "2165",
    "city": "Austin",
    "lat": 45.1839014,
    "lon": -72.2760202
  },
  {
    "street": "Chemin du Glenbrook Sud",
    "housenumber": "25",
    "city": "Austin",
    "lat": 45.1609567,
    "lon": -72.3008509
  },
  {
    "street": "Chemin McClay",
    "housenumber": "9",
    "city": "Austin",
    "lat": 45.1835902,
    "lon": -72.2894995
  },
  {
    "street": "Chemin de la Pointe-Gibraltar",
    "housenumber": "4",
    "city": "Austin",
    "lat": 45.1602643,
    "lon": -72.2608971
  },
  {
    "street": "Chemin Cooledge",
    "housenumber": "168",
    "city": "Austin",
    "lat": 45.154475,
    "lon": -72.2989085
  },
  {
    "street": "Chemin Millington",
    "housenumber": "30",
    "city": "Austin",
    "lat": 45.1879199,
    "lon": -72.2797646
  },
  {
    "street": "Chemin Nicholas-Austin",
    "housenumber": "2270",
    "city": "Austin",
    "lat": 45.1847122,
    "lon": -72.2959139
  },
  {
    "street": "Chemin Cooledge",
    "housenumber": "63",
    "city": "Bolton-Est",
    "lat": 45.1662966,
    "lon": -72.3081426
  },
  {
    "street": "Chemin Lily-Butters",
    "housenumber": "7",
    "city": "Austin",
    "lat": 45.1842092,
    "lon": -72.275833
  },
  {
    "street": "Chemin Cooledge",
    "housenumber": "168",
    "city": "Austin",
    "lat": 45.1550058,
    "lon": -72.2991799
  },
  {
    "street": "Chemin Cooledge",
    "housenumber": "63",
    "city": "Bolton-Est",
    "lat": 45.1727417,
    "lon": -72.3080232
  },
  {
    "street": "Chemin du Glenbrook Nord",
    "housenumber": "36",
    "city": "Austin",
    "lat": 45.1609237,
    "lon": -72.3001766
  },
  {
    "street": "Chemin de la Pointe-Gibraltar",
    "housenumber": "45",
    "city": "Austin",
    "lat": 45.1544106,
    "lon": -72.2688666
  },
  {
    "street": "Chemin du Grand-Pic",
    "housenumber": "33",
    "city": "Austin",
    "lat": 45.154353,
    "lon": -72.3044953
  },
  {
    "street": "Chemin Channell Hill",
    "housenumber": "69",
    "city": "Austin",
    "lat": 45.1840598,
    "lon": -72.285236
  },
  {
    "street": "Chemin du Glenbrook Sud",
    "housenumber": "49",
    "city": "Austin",
    "lat": 45.1607362,
    "lon": -72.2996409
  },
  {
    "street": "Chemin Nicholas-Austin",
    "housenumber": "2265",
    "city": "Austin",
    "lat": 45.1852812,
    "lon": -72.2977585
  },
  {
    "street": "Chemin Penfield",
    "housenumber": "9",
    "city": "Austin",
    "lat": 45.163908,
    "lon": -72.307906
  },
  {
    "street": "Chemin du Héron",
    "housenumber": "44",
    "city": "Austin",
    "lat": 45.1803759,
    "lon": -72.3014693
  },
  {
    "street": "Chemin Dufresne",
    "housenumber": "21",
    "city": "Austin",
    "lat": 45.1843651,
    "lon": -72.2959577
  },
  {
    "street": "Chemin Fisher",
    "housenumber": "101",
    "city": "Austin",
    "lat": 45.162633,
    "lon": -72.2705995
  },
  {
    "street": "Chemin Cooledge",
    "housenumber": "151",
    "city": "Austin",
    "lat": 45.1573996,
    "lon": -72.3030931
  },
  {
    "street": "Chemin de la Pointe-Gibraltar",
    "housenumber": "39",
    "city": "Austin",
    "lat": 45.1602339,
    "lon": -72.2611887
  },
  {
    "street": "Chemin Channell Hill",
    "housenumber": "69",
    "city": "Austin",
    "lat": 45.1846444,
    "lon": -72.2862392
  },
  {
    "street": "Chemin du Grand-Bouvier",
    "housenumber": "165",
    "city": "Austin",
    "lat": 45.1633557,
    "lon": -72.3011202
  },
  {
    "street": "Chemin du Cap",
    "housenumber": "34",
    "city": "Austin",
    "lat": 45.1537091,
    "lon": -72.3020542
  },
  {
    "street": "Chemin Fisher",
    "housenumber": "80",
    "city": "Austin",
    "lat": 45.1734189,
    "lon": -72.27688
  },
  {
    "street": "Chemin Cooledge",
    "housenumber": "177",
    "city": "Austin",
    "lat": 45.1545544,
    "lon": -72.298542
  },
  {
    "street": "Chemin Jean-Grenon",
    "housenumber": "32",
    "city": "Austin",
    "lat": 45.158326,
    "lon": -72.2985638
  },
  {
    "street": "Chemin McClay",
    "housenumber": "27",
    "city": "Austin",
    "lat": 45.1785069,
    "lon": -72.2898987
  },
  {
    "street": "Chemin Dufresne",
    "housenumber": "21",
    "city": "Austin",
    "lat": 45.1807605,
    "lon": -72.2951331
  },
  {
    "street": "Chemin Channell Hill",
    "housenumber": "78",
    "city": "Austin",
    "lat": 45.1839394,
    "lon": -72.2896579
  },
  {
    "street": "Chemin du Glenbrook Sud",
    "housenumber": "35",
    "city": "Austin",
    "lat": 45.1608713,
    "lon": -72.2998137
  },
  {
    "street": "Chemin du Glenbrook Nord",
    "housenumber": "38",
    "city": "Austin",
    "lat": 45.1619875,
    "lon": -72.2997172
  },
  {
    "street": "Chemin du Grand-Pic",
    "housenumber": "14",
    "city": "Austin",
    "lat": 45.1571525,
    "lon": -72.3058467
  },
  {
    "street": "Chemin de la Pointe",
    "housenumber": "6",
    "city": "Austin",
    "lat": 45.153173,
    "lon": -72.2940751
  },
  {
    "street": "Chemin Channell Hill",
    "housenumber": "73",
    "city": "Austin",
    "lat": 45.1847064,
    "lon": -72.2863284
  },
  {
    "street": "Chemin Nicholas-Austin",
    "housenumber": "2260",
    "city": "Austin",
    "lat": 45.1838938,
    "lon": -72.2897238
  },
  {
    "street": "Chemin du Glenbrook Sud",
    "housenumber": "35",
    "city": "Austin",
    "lat": 45.1609081,
    "lon": -72.3001771
  },
  {
    "street": "Chemin de la Pointe",
    "housenumber": "11",
    "city": "Austin",
    "lat": 45.1531082,
    "lon": -72.2933856
  },
  {
    "street": "Chemin du Héron",
    "housenumber": "35",
    "city": "Austin",
    "lat": 45.1802117,
    "lon": -72.3015632
  },
  {
    "street": "Chemin Lyman",
    "housenumber": "47",
    "city": "Austin",
    "lat": 45.1700457,
    "lon": -72.2867942
  },
  {
    "street": "Chemin Davidson",
    "housenumber": "59",
    "city": "Austin",
    "lat": 45.1601142,
    "lon": -72.2834062
  },
  {
    "street": "Chemin Pat",
    "housenumber": "12",
    "city": "Austin",
    "lat": 45.1854864,
    "lon": -72.283923
  },
  {
    "street": "Chemin Millington",
    "housenumber": "1",
    "city": "Austin",
    "lat": 45.1842098,
    "lon": -72.280093
  },
  {
    "street": "Impasse de la Butte",
    "housenumber": "5",
    "city": "Austin",
    "lat": 45.1556311,
    "lon": -72.3010465
  },
  {
    "street": "Chemin Patch",
    "housenumber": "14",
    "city": "Austin",
    "lat": 45.1868196,
    "lon": -72.3021011
  },
  {
    "street": "Chemin Lyman",
    "housenumber": "33",
    "city": "Austin",
    "lat": 45.1737306,
    "lon": -72.2813889
  },
  {
    "street": "Chemin Cooledge",
    "housenumber": "33",
    "city": "Bolton-Est",
    "lat": 45.1819629,
    "lon": -72.3078143
  },
  {
    "street": "Chemin des Hirondelles",
    "housenumber": "14",
    "city": "Austin",
    "lat": 45.1574505,
    "lon": -72.3007098
  },
  {
    "street": "Chemin Nicholas-Austin",
    "housenumber": "2205",
    "city": "Austin",
    "lat": 45.183786,
    "lon": -72.2841519
  },
  {
    "street": "Chemin Penfield",
    "housenumber": "62",
    "city": "Austin",
    "lat": 45.168704,
    "lon": -72.3007205
  },
  {
    "street": "Chemin de la Marina",
    "housenumber": "7",
    "city": "Austin",
    "lat": 45.1545043,
    "lon": -72.2984742
  },
  {
    "street": "Chemin Cooledge",
    "housenumber": "147",
    "city": "Austin",
    "lat": 45.1583302,
    "lon": -72.3052216
  },
  {
    "street": "Chemin Nicholas-Austin",
    "housenumber": "2182",
    "city": "Austin",
    "lat": 45.1841643,
    "lon": -72.2757696
  },
  {
    "street": "Impasse de la Butte",
    "housenumber": "5",
    "city": "Austin",
    "lat": 45.1544169,
    "lon": -72.3009553
  },
  {
    "street": "Chemin Nicholas-Austin",
    "housenumber": "2205",
    "city": "Austin",
    "lat": 45.1837631,
    "lon": -72.2849582
  },
  {
    "street": "Chemin de la Descente",
    "housenumber": "26",
    "city": "Austin",
    "lat": 45.1757544,
    "lon": -72.3032101
  },
  {
    "street": "Chemin Patch",
    "housenumber": "29",
    "city": "Austin",
    "lat": 45.1868106,
    "lon": -72.3018483
  },
  {
    "street": "Chemin du Glenbrook Sud",
    "housenumber": "25",
    "city": "Austin",
    "lat": 45.1607427,
    "lon": -72.3025704
  },
  {
    "street": "Chemin Lily-Butters",
    "housenumber": "7",
    "city": "Austin",
    "lat": 45.185107,
    "lon": -72.2758505
  },
  {
    "street": "Chemin Channell Hill",
    "housenumber": "78",
    "city": "Austin",
    "lat": 45.1849716,
    "lon": -72.2863612
  },
  {
    "street": "Chemin Fisher",
    "housenumber": "3",
    "city": "Austin",
    "lat": 45.1838643,
    "lon": -72.2797644
  },
  {
    "street": "Chemin Cooledge",
    "housenumber": "111",
    "city": "Bolton-Est",
    "lat": 45.1601005,
    "lon": -72.3081165
  },
  {
    "street": "Chemin du Grand-Bouvier",
    "housenumber": "150",
    "city": "Austin",
    "lat": 45.1632047,
    "lon": -72.3009896
  },
  {
    "street": "Chemin Nicholas-Austin",
    "housenumber": "2171",
    "city": "Austin",
    "lat": 45.1839101,
    "lon": -72.2797065
  },
  {
    "street": "Chemin de la Marina",
    "housenumber": "13",
    "city": "Austin",
    "lat": 45.1542444,
    "lon": -72.2961474
  },
  {
    "street": "Chemin Channell Hill",
    "housenumber": "68",
    "city": "Austin",
    "lat": 45.1840721,
    "lon": -72.284963
  },
  {
    "street": "Chemin des Hirondelles",
    "housenumber": "2",
    "city": "Austin",
    "lat": 45.1559483,
    "lon": -72.3008331
  },
  {
    "street": "Chemin Millington",
    "housenumber": "22",
    "city": "Austin",
    "lat": 45.1878314,
    "lon": -72.2797641
  },
  {
    "street": "Chemin Pat",
    "housenumber": "18",
    "city": "Austin",
    "lat": 45.1867401,
    "lon": -72.285955
  },
  {
    "street": "Chemin de la Marina",
    "housenumber": "14",
    "city": "Austin",
    "lat": 45.1540705,
    "lon": -72.2961939
  },
  {
    "street": "Chemin du Cap",
    "housenumber": "31",
    "city": "Austin",
    "lat": 45.1539179,
    "lon": -72.3019723
  },
  {
    "street": "Chemin Jean-Grenon",
    "housenumber": "2",
    "city": "Austin",
    "lat": 45.1552254,
    "lon": -72.2988615
  },
  {
    "street": "Chemin du Héron",
    "housenumber": "20",
    "city": "Austin",
    "lat": 45.1852122,
    "lon": -72.2976999
  },
  {
    "street": "Chemin Millington",
    "housenumber": "29",
    "city": "Austin",
    "lat": 45.1877445,
    "lon": -72.2800152
  },
  {
    "street": "Chemin Cooledge",
    "housenumber": "155",
    "city": "Austin",
    "lat": 45.1560411,
    "lon": -72.301124
  },
  {
    "street": "Chemin Penfield",
    "housenumber": "20",
    "city": "Austin",
    "lat": 45.1637319,
    "lon": -72.3078787
  },
  {
    "street": "Chemin Nicholas-Austin",
    "housenumber": "2188",
    "city": "Austin",
    "lat": 45.1841683,
    "lon": -72.2761452
  },
  {
    "street": "Chemin Bob",
    "housenumber": "7",
    "city": "Austin",
    "lat": 45.1854435,
    "lon": -72.2838595
  },
  {
    "street": "Chemin Patterson",
    "housenumber": "155",
    "city": "Saint-Benoît-du-Lac",
    "lat": 45.1675223,
    "lon": -72.2524681
  },
  {
    "street": "Chemin du Grand-Pic",
    "housenumber": "14",
    "city": "Austin",
    "lat": 45.1542566,
    "lon": -72.3046869
  },
  {
    "street": "Chemin Cooledge",
    "housenumber": "174",
    "city": "Austin",
    "lat": 45.1532498,
    "lon": -72.2986442
  },
  {
    "street": "Chemin Nicholas-Austin",
    "housenumber": "2153",
    "city": "Austin",
    "lat": 45.1839001,
    "lon": -72.275895
  },
  {
    "street": "Route Nicholas-Austin",
    "housenumber": "2510",
    "city": "Bolton-Est",
    "lat": 45.187024,
    "lon": -72.307855
  },
  {
    "street": "Impasse de la Butte",
    "housenumber": "8",
    "city": "Austin",
    "lat": 45.1557347,
    "lon": -72.3012637
  },
  {
    "street": "Chemin Pat",
    "housenumber": "5",
    "city": "Austin",
    "lat": 45.1841012,
    "lon": -72.2839673
  },
  {
    "street": "Impasse de la Butte",
    "housenumber": "8",
    "city": "Austin",
    "lat": 45.1544334,
    "lon": -72.3012044
  },
  {
    "street": "Chemin Nicholas-Austin",
    "housenumber": "2221",
    "city": "Austin",
    "lat": 45.1837596,
    "lon": -72.2850832
  },
  {
    "street": "Chemin Fisher",
    "housenumber": "15",
    "city": "Austin",
    "lat": 45.1736344,
    "lon": -72.2765916
  },
  {
    "street": "Chemin Nicholas-Austin",
    "housenumber": "2204",
    "city": "Austin",
    "lat": 45.1840587,
    "lon": -72.2839059
  },
  {
    "street": "Chemin Fisher",
    "housenumber": "8",
    "city": "Austin",
    "lat": 45.1736796,
    "lon": -72.2770018
  },
  {
    "street": "Chemin de la Marina",
    "housenumber": "2",
    "city": "Austin",
    "lat": 45.1543235,
    "lon": -72.2984523
  },
  {
    "street": "Chemin Cooledge",
    "housenumber": "158",
    "city": "Austin",
    "lat": 45.1558019,
    "lon": -72.3012976
  },
  {
    "street": "Chemin du Cap",
    "housenumber": "8",
    "city": "Austin",
    "lat": 45.1571702,
    "lon": -72.3034195
  },
  {
    "street": "Chemin Cooledge",
    "housenumber": "132",
    "city": "Austin",
    "lat": 45.1582171,
    "lon": -72.3056438
  },
  {
    "street": "Chemin de la Buse",
    "housenumber": "4",
    "city": "Austin",
    "lat": 45.1573389,
    "lon": -72.3060168
  },
  {
    "street": "Chemin du Cap",
    "housenumber": "38",
    "city": "Austin",
    "lat": 45.1538319,
    "lon": -72.3010195
  },
  {
    "street": "Chemin Pat",
    "housenumber": "5",
    "city": "Austin",
    "lat": 45.1852209,
    "lon": -72.2839145
  },
  {
    "street": "Chemin Fisher",
    "housenumber": "8",
    "city": "Austin",
    "lat": 45.1838543,
    "lon": -72.28014
  },
  {
    "street": "Chemin du Cap",
    "housenumber": "24",
    "city": "Austin",
    "lat": 45.1539564,
    "lon": -72.3022791
  },
  {
    "street": "Chemin Lyman",
    "housenumber": "81",
    "city": "Austin",
    "lat": 45.1692697,
    "lon": -72.2873347
  },
  {
    "street": "Chemin des Cerfs",
    "housenumber": "1",
    "city": "Austin",
    "lat": 45.187915,
    "lon": -72.2822788
  },
  {
    "street": "Chemin Cooledge",
    "housenumber": "132",
    "city": "Austin",
    "lat": 45.1592958,
    "lon": -72.3076711
  },
  {
    "street": "Chemin Cooledge",
    "housenumber": "37",
    "city": "Bolton-Est",
    "lat": 45.1769826,
    "lon": -72.3079745
  },
  {
    "street": "Chemin du Cap",
    "housenumber": "1",
    "city": "Austin",
    "lat": 45.1570839,
    "lon": -72.3032003
  },
  {
    "street": "Chemin Cooledge",
    "housenumber": "183",
    "city": "Austin",
    "lat": 45.1532766,
    "lon": -72.2982696
  },
  {
    "street": "Chemin du Grand-Bouvier",
    "housenumber": "105",
    "city": "Austin",
    "lat": 45.1607041,
    "lon": -72.3028889
  },
  {
    "street": "Chemin Bob",
    "housenumber": "8",
    "city": "Austin",
    "lat": 45.1877234,
    "lon": -72.2821492
  },
  {
    "street": "Chemin Nicholas-Austin",
    "housenumber": "2204",
    "city": "Austin",
    "lat": 45.1841639,
    "lon": -72.2801561
  },
  {
    "street": "Chemin Bob",
    "housenumber": "17",
    "city": "Austin",
    "lat": 45.1877934,
    "lon": -72.2823886
  },
  {
    "street": "Chemin Nicholas-Austin",
    "housenumber": "2281",
    "city": "Austin",
    "lat": 45.1865066,
    "lon": -72.3019856
  },
  {
    "street": "Chemin Nicholas-Austin",
    "housenumber": "2202",
    "city": "Austin",
    "lat": 45.1841739,
    "lon": -72.2797806
  },
  {
    "street": "Chemin Fisher",
    "housenumber": "80",
    "city": "Austin",
    "lat": 45.1681222,
    "lon": -72.2725519
  },
  {
    "street": "Chemin Cooledge",
    "housenumber": "181",
    "city": "Austin",
    "lat": 45.1542855,
    "lon": -72.298509
  },
  {
    "street": "Chemin Cooledge",
    "housenumber": "173",
    "city": "Austin",
    "lat": 45.1551602,
    "lon": -72.2988565
  },
  {
    "street": "Chemin Cooledge",
    "housenumber": "147",
    "city": "Austin",
    "lat": 45.1574399,
    "lon": -72.3032045
  },
  {
    "street": "Chemin du Glenbrook Sud",
    "housenumber": "53",
    "city": "Austin",
    "lat": 45.1591869,
    "lon": -72.2985379
  },
  {
    "street": "Chemin Cooledge",
    "housenumber": "146",
    "city": "Austin",
    "lat": 45.1571017,
    "lon": -72.3031225
  },
  {
    "street": "Chemin Cooledge",
    "housenumber": "111",
    "city": "Bolton-Est",
    "lat": 45.163685,
    "lon": -72.3079344
  },
  {
    "street": "Chemin Millington",
    "housenumber": "4",
    "city": "Austin",
    "lat": 45.1842165,
    "lon": -72.2798425
  },
  {
    "street": "Chemin Davidson",
    "housenumber": "57",
    "city": "Austin",
    "lat": 45.1700386,
    "lon": -72.286745
  },
  {
    "street": "Chemin Fisher",
    "housenumber": "131",
    "city": "Austin",
    "lat": 45.1547096,
    "lon": -72.2716395
  },
  {
    "street": "Chemin Penfield",
    "housenumber": "59",
    "city": "Austin",
    "lat": 45.1688436,
    "lon": -72.3008744
  },
  {
    "street": "Chemin de la Pointe",
    "housenumber": "12",
    "city": "Austin",
    "lat": 45.1532851,
    "lon": -72.2933956
  },
  {
    "street": "Chemin Cooledge",
    "housenumber": "172",
    "city": "Austin",
    "lat": 45.1543868,
    "lon": -72.2988978
  },
  {
    "street": "Chemin Dufresne",
    "housenumber": "14",
    "city": "Austin",
    "lat": 45.1844789,
    "lon": -72.296194
  },
  {
    "street": "Chemin de la Buse",
    "housenumber": "4",
    "city": "Austin",
    "lat": 45.1572473,
    "lon": -72.3073222
  },
  {
    "street": "Chemin Dufresne",
    "housenumber": "48",
    "city": "Austin",
    "lat": 45.1806998,
    "lon": -72.2953682
  },
  {
    "street": "Chemin Channell Hill",
    "housenumber": "81",
    "city": "Austin",
    "lat": 45.183947,
    "lon": -72.2894067
  },
  {
    "street": "Chemin Lyman",
    "housenumber": "33",
    "city": "Austin",
    "lat": 45.1736373,
    "lon": -72.2770467
  },
  {
    "street": "Chemin des Cerfs",
    "housenumber": "1",
    "city": "Austin",
    "lat": 45.1879663,
    "lon": -72.2800785
  },
  {
    "street": "Chemin Nicholas-Austin",
    "housenumber": "2221",
    "city": "Austin",
    "lat": 45.1836362,
    "lon": -72.2894357
  },
  {
    "street": "Chemin Millington",
    "housenumber": "21",
    "city": "Austin",
    "lat": 45.1865735,
    "lon": -72.2801786
  },
  {
    "street": "Chemin Millington",
    "housenumber": "23",
    "city": "Austin",
    "lat": 45.1867303,
    "lon": -72.280218
  },
  {
    "street": "Chemin de Bryant's Landing",
    "housenumber": "12",
    "city": "Austin",
    "lat": 45.18757,
    "lon": -72.2367968
  },
  {
    "street": "Chemin Patterson",
    "housenumber": "11",
    "city": "Austin",
    "lat": 45.1875195,
    "lon": -72.2396521
  },
  {
    "street": "Chemin Nicholas-Austin",
    "housenumber": "2034",
    "city": "Austin",
    "lat": 45.1878626,
    "lon": -72.2390268
  },
  {
    "street": "Chemin Patterson",
    "housenumber": "113",
    "city": "Austin",
    "lat": 45.1729121,
    "lon": -72.2493738
  },
  {
    "street": "Chemin Glassford",
    "housenumber": "10",
    "city": "Austin",
    "lat": 45.1875677,
    "lon": -72.2371324
  },
  {
    "street": "Chemin de la Pointe-au-Phare",
    "housenumber": "16",
    "city": "Austin",
    "lat": 45.1825842,
    "lon": -72.2409868
  },
  {
    "street": "Chemin de Bryant's Landing",
    "housenumber": "18",
    "city": "Austin",
    "lat": 45.1871772,
    "lon": -72.233959
  },
  {
    "street": "Chemin de la Pointe-au-Phare",
    "housenumber": "20",
    "city": "Austin",
    "lat": 45.1847342,
    "lon": -72.2372469
  },
  {
    "street": "Chemin de Bryant's Landing",
    "housenumber": "15",
    "city": "Austin",
    "lat": 45.1873443,
    "lon": -72.2338761
  },
  {
    "street": "Chemin Patterson",
    "housenumber": "121",
    "city": "Saint-Benoît-du-Lac",
    "lat": 45.1728282,
    "lon": -72.2494137
  },
  {
    "street": "Chemin Patterson",
    "housenumber": "40",
    "city": "Austin",
    "lat": 45.1825021,
    "lon": -72.2414235
  },
  {
    "street": "Chemin Patterson",
    "housenumber": "90",
    "city": "Austin",
    "lat": 45.1729688,
    "lon": -72.2496109
  },
  {
    "street": "Chemin Patterson",
    "housenumber": "18",
    "city": "Austin",
    "lat": 45.1825772,
    "lon": -72.2413573
  },
  {
    "street": "Chemin Patterson",
    "housenumber": "11",
    "city": "Austin",
    "lat": 45.1826217,
    "lon": -72.2410157
  },
  {
    "street": "Chemin Nicholas-Austin",
    "housenumber": "2077",
    "city": "Austin",
    "lat": 45.1875507,
    "lon": -72.2399644
  },
  {
    "street": "Chemin Patterson",
    "housenumber": "18",
    "city": "Austin",
    "lat": 45.1875091,
    "lon": -72.2399027
  },
  {
    "street": "Chemin Glassford",
    "housenumber": "18",
    "city": "Austin",
    "lat": 45.1865325,
    "lon": -72.2359537
  },
  {
    "street": "Chemin Nicholas-Austin",
    "housenumber": "2110",
    "city": "Austin",
    "lat": 45.1878217,
    "lon": -72.2398482
  },
  {
    "street": "Chemin Patterson",
    "housenumber": "31",
    "city": "Austin",
    "lat": 45.1823693,
    "lon": -72.2412427
  },
  {
    "street": "Chemin de Bryant's Landing",
    "housenumber": "1",
    "city": "Austin",
    "lat": 45.1877626,
    "lon": -72.2368192
  },
  {
    "street": "Chemin Shuttleworth",
    "housenumber": "36",
    "city": "Austin",
    "lat": 45.2201975,
    "lon": -72.2378073
  },
  {
    "street": "Chemin Wilson",
    "housenumber": "43",
    "city": "Austin",
    "lat": 45.2229934,
    "lon": -72.216372
  },
  {
    "street": "Chemin Shuttleworth",
    "housenumber": "123",
    "city": "Austin",
    "lat": 45.2458431,
    "lon": -72.2458511
  },
  {
    "street": "Chemin North",
    "housenumber": "322",
    "city": "Austin",
    "lat": 45.2461642,
    "lon": -72.2459347
  },
  {
    "street": "Chemin Duval",
    "housenumber": "56",
    "city": "Austin",
    "lat": 45.2495422,
    "lon": -72.231133
  },
  {
    "street": "Chemin Montpetit",
    "housenumber": "4062",
    "city": "Austin",
    "lat": 45.2230364,
    "lon": -72.2166871
  },
  {
    "street": "Chemin Bishop Sud",
    "housenumber": "81",
    "city": "Austin",
    "lat": 45.219323,
    "lon": -72.2150341
  },
  {
    "street": "Chemin Bishop",
    "housenumber": "55",
    "city": "Austin",
    "lat": 45.2248701,
    "lon": -72.2280302
  },
  {
    "street": "Chemin Nicholas-Austin",
    "housenumber": "1914",
    "city": "Austin",
    "lat": 45.2126262,
    "lon": -72.2316865
  },
  {
    "street": "Chemin Rustic Ridge",
    "housenumber": "12",
    "city": "Austin",
    "lat": 45.1892378,
    "lon": -72.2348518
  },
  {
    "street": "Chemin Shuttleworth",
    "housenumber": "4",
    "city": "Austin",
    "lat": 45.2128468,
    "lon": -72.2317405
  },
  {
    "street": "Chemin Montpetit",
    "housenumber": "4056",
    "city": "Austin",
    "lat": 45.2231249,
    "lon": -72.2166897
  },
  {
    "street": "Chemin Rustic Ridge",
    "housenumber": "10",
    "city": "Austin",
    "lat": 45.1889796,
    "lon": -72.2362207
  },
  {
    "street": "Chemin North",
    "housenumber": "327",
    "city": "Austin",
    "lat": 45.2460372,
    "lon": -72.2461098
  },
  {
    "street": "Chemin Montpetit",
    "housenumber": "4047",
    "city": "Austin",
    "lat": 45.2232147,
    "lon": -72.2164409
  },
  {
    "street": "Chemin du Hameau",
    "housenumber": "4",
    "city": "Austin",
    "lat": 45.1917424,
    "lon": -72.2339481
  },
  {
    "street": "Chemin North",
    "housenumber": "304",
    "city": "Austin",
    "lat": 45.2458424,
    "lon": -72.2459334
  },
  {
    "street": "Chemin Nicholas-Austin",
    "housenumber": "1805",
    "city": "Austin",
    "lat": 45.2248628,
    "lon": -72.2281143
  },
  {
    "street": "Chemin Nicholas-Austin",
    "housenumber": "2003",
    "city": "Austin",
    "lat": 45.1906326,
    "lon": -72.2355376
  },
  {
    "street": "Chemin Nicholas-Austin",
    "housenumber": "2008",
    "city": "Austin",
    "lat": 45.1908335,
    "lon": -72.2358458
  },
  {
    "street": "Chemin Montpetit",
    "housenumber": "4052",
    "city": "Austin",
    "lat": 45.2251084,
    "lon": -72.2167275
  },
  {
    "street": "Chemin Nicholas-Austin",
    "housenumber": "1968",
    "city": "Austin",
    "lat": 45.2042374,
    "lon": -72.2319736
  },
  {
    "street": "Chemin Nicholas-Austin",
    "housenumber": "2034",
    "city": "Austin",
    "lat": 45.1889209,
    "lon": -72.2367434
  },
  {
    "street": "Chemin Nicholas-Austin",
    "housenumber": "1951",
    "city": "Austin",
    "lat": 45.2043212,
    "lon": -72.2315946
  },
  {
    "street": "Chemin du Hameau",
    "housenumber": "15",
    "city": "Austin",
    "lat": 45.1919134,
    "lon": -72.233883
  },
  {
    "street": "Chemin Shuttleworth",
    "housenumber": "210",
    "city": "Austin",
    "lat": 45.2459712,
    "lon": -72.2456762
  },
  {
    "street": "Chemin Nicholas-Austin",
    "housenumber": "1921",
    "city": "Austin",
    "lat": 45.2044097,
    "lon": -72.2315917
  },
  {
    "street": "Chemin Montpetit",
    "housenumber": "4067",
    "city": "Austin",
    "lat": 45.2216971,
    "lon": -72.2150061
  },
  {
    "street": "Chemin Duval",
    "housenumber": "62",
    "city": "Austin",
    "lat": 45.2461617,
    "lon": -72.245845
  },
  {
    "street": "Chemin du Hameau",
    "housenumber": "5",
    "city": "Austin",
    "lat": 45.190857,
    "lon": -72.2353828
  },
  {
    "street": "Chemin Shuttleworth",
    "housenumber": "23",
    "city": "Austin",
    "lat": 45.2200649,
    "lon": -72.2379863
  },
  {
    "street": "Chemin Montpetit",
    "housenumber": "4063",
    "city": "Austin",
    "lat": 45.2229491,
    "lon": -72.2164329
  },
  {
    "street": "Chemin Wilson",
    "housenumber": "43",
    "city": "Austin",
    "lat": 45.2229608,
    "lon": -72.2142764
  },
  {
    "street": "Chemin Duval",
    "housenumber": "53",
    "city": "Austin",
    "lat": 45.2460334,
    "lon": -72.2456722
  },
  {
    "street": "Chemin Nicholas-Austin",
    "housenumber": "2030",
    "city": "Austin",
    "lat": 45.1907486,
    "lon": -72.2358809
  },
  {
    "street": "Chemin du Hameau",
    "housenumber": "4",
    "city": "Austin",
    "lat": 45.1906784,
    "lon": -72.2354576
  },
  {
    "street": "Chemin Wilson",
    "housenumber": "44",
    "city": "Austin",
    "lat": 45.2231705,
    "lon": -72.2163774
  },
  {
    "street": "Chemin North",
    "housenumber": "311",
    "city": "Austin",
    "lat": 45.2459714,
    "lon": -72.2461072
  },
  {
    "street": "Chemin Shuttleworth",
    "housenumber": "23",
    "city": "Austin",
    "lat": 45.2126696,
    "lon": -72.2317474
  },
  {
    "street": "Chemin Bishop",
    "housenumber": "10",
    "city": "Austin",
    "lat": 45.2250145,
    "lon": -72.2278838
  },
  {
    "street": "Chemin Montpetit",
    "housenumber": "4066",
    "city": "Austin",
    "lat": 45.2215221,
    "lon": -72.215044
  },
  {
    "street": "Chemin Taylor",
    "housenumber": "15",
    "city": "Austin",
    "lat": 45.2042823,
    "lon": -72.2320344
  },
  {
    "street": "Chemin Montpetit",
    "housenumber": "4047",
    "city": "Austin",
    "lat": 45.2251095,
    "lon": -72.2164769
  },
  {
    "street": "Chemin Shuttleworth",
    "housenumber": "43",
    "city": "Austin",
    "lat": 45.2203228,
    "lon": -72.2381967
  },
  {
    "street": "Chemin Nicholas-Austin",
    "housenumber": "1914",
    "city": "Austin",
    "lat": 45.204503,
    "lon": -72.2319643
  },
  {
    "street": "Chemin Nicholas-Austin",
    "housenumber": "1991",
    "city": "Austin",
    "lat": 45.1908982,
    "lon": -72.2354278
  },
  {
    "street": "Chemin Nicholas-Austin",
    "housenumber": "1851",
    "city": "Austin",
    "lat": 45.212802,
    "lon": -72.2313038
  },
  {
    "street": "Chemin Nicholas-Austin",
    "housenumber": "1862",
    "city": "Austin",
    "lat": 45.2128918,
    "lon": -72.2316755
  },
  {
    "street": "Chemin Rustic Ridge",
    "housenumber": "13",
    "city": "Austin",
    "lat": 45.1888126,
    "lon": -72.236332
  },
  {
    "street": "Chemin Nicholas-Austin",
    "housenumber": "1883",
    "city": "Austin",
    "lat": 45.2127135,
    "lon": -72.2313072
  },
  {
    "street": "Chemin Shuttleworth",
    "housenumber": "148",
    "city": "Austin",
    "lat": 45.2202739,
    "lon": -72.2378706
  },
  {
    "street": "Chemin Bishop",
    "housenumber": "95",
    "city": "Austin",
    "lat": 45.2193063,
    "lon": -72.2153675
  },
  {
    "street": "Chemin Wilson",
    "housenumber": "44",
    "city": "Austin",
    "lat": 45.2231368,
    "lon": -72.2142497
  },
  {
    "street": "Chemin Bishop",
    "housenumber": "78",
    "city": "Austin",
    "lat": 45.2194813,
    "lon": -72.2153273
  },
  {
    "street": "Chemin Rustic Ridge",
    "housenumber": "13",
    "city": "Austin",
    "lat": 45.1891805,
    "lon": -72.2346149
  },
  {
    "street": "Chemin Bishop Sud",
    "housenumber": "89",
    "city": "Austin",
    "lat": 45.2166137,
    "lon": -72.2151296
  },
  {
    "street": "Chemin Nicholas-Austin",
    "housenumber": "1818",
    "city": "Austin",
    "lat": 45.2250988,
    "lon": -72.2283375
  },
  {
    "street": "Chemin Nicholas-Austin",
    "housenumber": "2030",
    "city": "Austin",
    "lat": 45.1889993,
    "lon": -72.2366856
  },
  {
    "street": "Chemin Taylor",
    "housenumber": "22",
    "city": "Austin",
    "lat": 45.2044593,
    "lon": -72.2320284
  },
  {
    "street": "Chemin Nicholas-Austin",
    "housenumber": "2019",
    "city": "Austin",
    "lat": 45.1890274,
    "lon": -72.2362568
  },
  {
    "street": "Chemin Duval",
    "housenumber": "39",
    "city": "Austin",
    "lat": 45.2493658,
    "lon": -72.2311116
  },
  {
    "street": "Research Boulevard",
    "housenumber": "9607",
    "city": "Austin",
    "postcode": "78759",
    "lat": 30.3883743,
    "lon": -97.7412417
  },
  {
    "street": "W 6th St",
    "housenumber": "221",
    "city": "Austin",
    "lat": 30.26831,
    "lon": -97.744873
  },
  {
    "street": "Domain Drive",
    "housenumber": "10910",
    "city": "Austin",
    "lat": 30.3950453,
    "lon": -97.7269507
  },
  {
    "street": "Research Boulevard",
    "housenumber": "10001",
    "city": "Austin",
    "postcode": "78759",
    "lat": 30.3924195,
    "lon": -97.7451017
  },
  {
    "street": "Research Boulevard",
    "housenumber": "10001",
    "city": "Austin",
    "postcode": "78759",
    "lat": 30.3917293,
    "lon": -97.7444326
  },
  {
    "street": "Research Boulevard",
    "housenumber": "9333",
    "city": "Austin",
    "postcode": "78759",
    "lat": 30.3833253,
    "lon": -97.7374699
  },
  {
    "street": "Research Boulevard",
    "housenumber": "10225",
    "city": "Austin",
    "postcode": "78759-5743",
    "lat": 30.3945527,
    "lon": -97.7439855
  },
  {
    "street": "Research Boulevard",
    "housenumber": "10225",
    "city": "Austin",
    "postcode": "78759",
    "lat": 30.3949745,
    "lon": -97.7447895
  },
  {
    "street": "Century Oaks Terrace",
    "housenumber": "11410",
    "city": "Austin",
    "postcode": "78758",
    "lat": 30.4021757,
    "lon": -97.7266136
  },
  {
    "street": "East 43rd Street",
    "housenumber": "408 C",
    "city": "Austin",
    "postcode": "78751",
    "lat": 30.3048563,
    "lon": -97.7262204
  },
  {
    "street": "E. 43rd St.",
    "housenumber": "411",
    "city": "Austin",
    "postcode": "78751",
    "lat": 30.3046677,
    "lon": -97.7265695
  },
  {
    "street": "E 43rd St",
    "housenumber": "408",
    "city": "Austin",
    "postcode": "78751",
    "lat": 30.3049974,
    "lon": -97.7264878
  },
  {
    "street": "West Braker Lane",
    "housenumber": "4501",
    "city": "Austin",
    "postcode": "78759",
    "lat": 30.3990221,
    "lon": -97.7434251
  },
  {
    "street": "West Braker Lane",
    "housenumber": "4501",
    "city": "Austin",
    "postcode": "78759-5723",
    "lat": 30.3998716,
    "lon": -97.7449971
  },
  {
    "street": "West Braker Lane",
    "housenumber": "4501",
    "city": "Austin",
    "postcode": "78759",
    "lat": 30.3994147,
    "lon": -97.7431478
  },
  {
    "street": "West Braker Lane",
    "housenumber": "4501",
    "city": "Austin",
    "postcode": "78759",
    "lat": 30.3996943,
    "lon": -97.742957
  },
  {
    "street": "Burnet Road",
    "housenumber": "11101",
    "city": "Austin",
    "lat": 30.3958149,
    "lon": -97.7196383
  },
  {
    "street": "Research Boulevard",
    "housenumber": "10401",
    "city": "Austin",
    "postcode": "78759",
    "lat": 30.3963288,
    "lon": -97.7442369
  },
  {
    "street": "Great Hills Trail",
    "housenumber": "9828",
    "city": "Austin",
    "postcode": "78759",
    "lat": 30.39551,
    "lon": -97.7479542
  },
  {
    "street": "W Braker Ln",
    "housenumber": "4815",
    "city": "Austin",
    "postcode": "78759",
    "lat": 30.3999206,
    "lon": -97.7481906
  },
  {
    "street": "Research Boulevard",
    "housenumber": "10710",
    "city": "Austin",
    "lat": 30.3986564,
    "lon": -97.7474271
  },
  {
    "street": "North Capital of Texas Highway",
    "housenumber": "9901",
    "city": "Austin",
    "postcode": "78759",
    "lat": 30.3902705,
    "lon": -97.7400731
  },
  {
    "street": "Metric Boulevard",
    "housenumber": "11900",
    "city": "Austin",
    "postcode": "78758",
    "lat": 30.4001004,
    "lon": -97.7041809
  },
  {
    "street": "Metric Boulevard",
    "housenumber": "11900",
    "city": "Austin",
    "postcode": "78758",
    "lat": 30.4003577,
    "lon": -97.7040339
  },
  {
    "street": "Metric Boulevard",
    "housenumber": "11900",
    "city": "Austin",
    "postcode": "78758",
    "lat": 30.4004847,
    "lon": -97.7039615
  },
  {
    "street": "Metric Boulevard",
    "housenumber": "11900",
    "city": "Austin",
    "postcode": "78758",
    "lat": 30.4004131,
    "lon": -97.7039956
  },
  {
    "street": "Metric Boulevard",
    "housenumber": "11900",
    "city": "Austin",
    "postcode": "78758",
    "lat": 30.399953,
    "lon": -97.7042762
  },
  {
    "street": "Metric Boulevard",
    "housenumber": "11900",
    "city": "Austin",
    "postcode": "78758",
    "lat": 30.400695,
    "lon": -97.703827
  },
  {
    "street": "Metric Boulevard",
    "housenumber": "11900",
    "city": "Austin",
    "postcode": "78758",
    "lat": 30.4003012,
    "lon": -97.7040606
  },
  {
    "street": "Metric Boulevard",
    "housenumber": "11900",
    "city": "Austin",
    "postcode": "78758",
    "lat": 30.4001619,
    "lon": -97.7041446
  },
  {
    "street": "Metric Boulevard",
    "housenumber": "11900",
    "city": "Austin",
    "postcode": "78758",
    "lat": 30.4002431,
    "lon": -97.704094
  },
  {
    "street": "Burnet Road",
    "housenumber": "11005",
    "city": "Austin",
    "lat": 30.3942236,
    "lon": -97.7202603
  },
  {
    "street": "Hancock Drive",
    "housenumber": "2308",
    "city": "Austin",
    "lat": 30.3246626,
    "lon": -97.7428695
  },
  {
    "street": "North MoPac Expressway",
    "housenumber": "10515",
    "city": "Austin",
    "postcode": "78759",
    "lat": 30.3915761,
    "lon": -97.7318868
  },
  {
    "street": "North Mopac Expressway",
    "housenumber": "10515",
    "city": "Austin",
    "postcode": "78759",
    "lat": 30.3899093,
    "lon": -97.733345
  },
  {
    "street": "North Mopac Expressway",
    "housenumber": "10515",
    "city": "Austin",
    "postcode": "78759",
    "lat": 30.3906949,
    "lon": -97.7321841
  },
  {
    "street": "North US Highway 183",
    "housenumber": "13749",
    "city": "Austin",
    "postcode": "78750",
    "lat": 30.4596708,
    "lon": -97.7923848
  },
  {
    "street": "Highway 183 North",
    "housenumber": "13945",
    "city": "Austin",
    "postcode": "78717",
    "lat": 30.4726404,
    "lon": -97.7974754
  },
  {
    "street": "Lake Creek Parkway",
    "housenumber": "10203",
    "city": "Austin",
    "postcode": "78729",
    "lat": 30.4615618,
    "lon": -97.7921861
  },
  {
    "street": "14th Street Northwest",
    "housenumber": "1402",
    "city": "Austin",
    "postcode": "55912",
    "lat": 43.6784873,
    "lon": -92.9924225
  },
  {
    "street": "4th Street Northwest",
    "housenumber": "1409",
    "city": "Austin",
    "postcode": "55912-1802",
    "lat": 43.6795465,
    "lon": -92.9801594
  },
  {
    "street": "Research Blvd",
    "housenumber": "10900",
    "city": "Austin",
    "postcode": "78759",
    "lat": 30.4020038,
    "lon": -97.7477385
  },
  {
    "street": "Duval Street",
    "housenumber": "5011",
    "city": "Austin",
    "lat": 30.3138337,
    "lon": -97.7199873
  },
  {
    "street": "East North Loop Boulevard",
    "housenumber": "110",
    "city": "Austin",
    "postcode": "78751",
    "lat": 30.3179008,
    "lon": -97.7216835
  },
  {
    "street": "Duval St",
    "housenumber": "4500",
    "city": "Austin",
    "postcode": "78751",
    "lat": 30.3071695,
    "lon": -97.7248904
  },
  {
    "street": "FM 620 North",
    "housenumber": "11521",
    "city": "Austin",
    "postcode": "78726",
    "lat": 30.4527669,
    "lon": -97.8263641
  },
  {
    "street": "North Ranch Road 620",
    "housenumber": "12809",
    "city": "Austin",
    "postcode": "78750",
    "lat": 30.4656894,
    "lon": -97.8027044
  },
  {
    "street": "East Braker Lane",
    "housenumber": "915",
    "city": "Austin",
    "postcode": "78753",
    "lat": 30.3753784,
    "lon": -97.672927
  },
  {
    "street": "East Braker Lane",
    "housenumber": "1015",
    "city": "Austin",
    "postcode": "78753",
    "lat": 30.3745401,
    "lon": -97.6717349
  },
  {
    "street": "North Interstate Hwy 35",
    "housenumber": "5610",
    "city": "Austin",
    "postcode": "78751",
    "lat": 30.3161337,
    "lon": -97.7083756
  },
  {
    "street": "North Interstate Highway 35 Service Road",
    "housenumber": "3704",
    "city": "Austin",
    "postcode": "78705",
    "lat": 30.294193,
    "lon": -97.7205415
  },
  {
    "street": "South Congress Avenue",
    "housenumber": "2336",
    "city": "Austin",
    "postcode": "78704",
    "lat": 30.2394603,
    "lon": -97.7533767
  },
  {
    "street": "South Lamar Blvd",
    "housenumber": "4211",
    "city": "Austin",
    "postcode": "78704",
    "lat": 30.23371,
    "lon": -97.7930115
  },
  {
    "street": "Airport Blvd",
    "housenumber": "6801",
    "city": "Austin",
    "postcode": "78752",
    "lat": 30.3340239,
    "lon": -97.7165374
  },
  {
    "street": "Airport Boulevard",
    "housenumber": "6419",
    "city": "Austin",
    "postcode": "78752",
    "lat": 30.3291676,
    "lon": -97.7152526
  },
  {
    "street": "Airport Boulevard",
    "housenumber": "5900",
    "city": "Austin",
    "postcode": "78752",
    "lat": 30.3236616,
    "lon": -97.7159631
  },
  {
    "street": "East Oltorf",
    "housenumber": "1605",
    "city": "Austin",
    "postcode": "78741",
    "lat": 30.2325951,
    "lon": -97.7406066
  },
  {
    "street": "East Oltorf Street",
    "housenumber": "2400",
    "city": "Austin",
    "postcode": "78741",
    "lat": 30.2294109,
    "lon": -97.7293306
  },
  {
    "street": "West Anderson Lane",
    "housenumber": "2700",
    "city": "Austin",
    "postcode": "78757",
    "lat": 30.3593073,
    "lon": -97.7339922
  },
  {
    "street": "Westgate Boulevard",
    "housenumber": "4534",
    "city": "Austin",
    "postcode": "78745",
    "lat": 30.2307782,
    "lon": -97.8026944
  },
  {
    "street": "Research Blvd",
    "housenumber": "8557",
    "city": "Austin",
    "postcode": "78758",
    "lat": 30.3618059,
    "lon": -97.7154058
  },
  {
    "street": "Research Blvd",
    "housenumber": "8557",
    "city": "Austin",
    "postcode": "78758",
    "lat": 30.3610907,
    "lon": -97.7156632
  },
  {
    "street": "South Congress Ave",
    "housenumber": "2910",
    "city": "Austin",
    "postcode": "78704",
    "lat": 30.2331421,
    "lon": -97.7586735
  },
  {
    "street": "Red River Street",
    "housenumber": "303",
    "city": "Austin",
    "lat": 30.2637792,
    "lon": -97.7380295
  },
  {
    "street": "East 6th Street",
    "housenumber": "214",
    "city": "Austin",
    "postcode": "78701",
    "lat": 30.2676222,
    "lon": -97.7407745
  },
  {
    "street": "West 6th Street",
    "housenumber": "301",
    "city": "Austin",
    "postcode": "78701",
    "lat": 30.2686438,
    "lon": -97.7454056
  },
  {
    "street": "West 6th Street",
    "housenumber": "1012",
    "city": "Austin",
    "postcode": "78703",
    "lat": 30.2719356,
    "lon": -97.7544309
  },
  {
    "street": "West 5th Street",
    "housenumber": "907",
    "city": "Austin",
    "postcode": "78703",
    "lat": 30.2699007,
    "lon": -97.7540185
  },
  {
    "street": "Congress Avenue",
    "housenumber": "422",
    "city": "Austin",
    "postcode": "78701",
    "lat": 30.2669237,
    "lon": -97.7434785
  },
  {
    "street": "East 5th Street",
    "housenumber": "121",
    "city": "Austin",
    "postcode": "78701",
    "lat": 30.2665872,
    "lon": -97.7420908
  },
  {
    "street": "West 2nd Street",
    "housenumber": "419",
    "city": "Austin",
    "lat": 30.2654151,
    "lon": -97.748667
  },
  {
    "street": "San Jacinto Boulevard",
    "housenumber": "207",
    "city": "Austin",
    "postcode": "78701",
    "lat": 30.2643747,
    "lon": -97.7413623
  },
  {
    "street": "San Jacinto Boulevard",
    "housenumber": "207",
    "city": "Austin",
    "postcode": "78701",
    "lat": 30.2641473,
    "lon": -97.7414463
  },
  {
    "street": "San Jacinto Boulevard",
    "housenumber": "200",
    "city": "Austin",
    "postcode": "78701",
    "lat": 30.2638474,
    "lon": -97.7418971
  },
  {
    "street": "Crongress Avenue",
    "housenumber": "701",
    "city": "Austin",
    "postcode": "78701",
    "lat": 30.2690633,
    "lon": -97.7421993
  },
  {
    "street": "North Interstate 35",
    "housenumber": "10214",
    "city": "Austin",
    "postcode": "78753",
    "lat": 30.3673716,
    "lon": -97.6831389
  },
  {
    "street": "North Lamar Boulevard",
    "housenumber": "4400",
    "city": "Austin",
    "postcode": "78756",
    "lat": 30.3125024,
    "lon": -97.7386706
  },
  {
    "street": "Airport Boulevard",
    "housenumber": "4909",
    "city": "Austin",
    "lat": 30.310099,
    "lon": -97.715232
  },
  {
    "street": "North Lamar Boulevard",
    "housenumber": "8630",
    "city": "Austin",
    "postcode": "78753",
    "lat": 30.3555871,
    "lon": -97.7032735
  },
  {
    "street": "North Interstate 35",
    "housenumber": "13609",
    "city": "Austin",
    "postcode": "78753",
    "lat": 30.4205474,
    "lon": -97.6699802
  },
  {
    "street": "North Interstate 35",
    "housenumber": "13609",
    "city": "Austin",
    "postcode": "78753",
    "lat": 30.419859,
    "lon": -97.6704591
  },
  {
    "street": "North Interstate 35",
    "housenumber": "12901",
    "city": "Austin",
    "postcode": "78753",
    "lat": 30.4153949,
    "lon": -97.6703579
  },
  {
    "street": "West Parmer Lane",
    "housenumber": "2121",
    "city": "Austin",
    "postcode": "78727",
    "lat": 30.4162355,
    "lon": -97.6976689
  },
  {
    "street": "West Parmer Lane",
    "housenumber": "2501",
    "city": "Austin",
    "postcode": "78727",
    "lat": 30.418322,
    "lon": -97.7020169
  },
  {
    "street": "Research Boulevard",
    "housenumber": "13764",
    "city": "Austin",
    "postcode": "78750",
    "lat": 30.4606937,
    "lon": -97.7946289
  },
  {
    "street": "Lakeline Boulevard",
    "housenumber": "11301",
    "city": "Austin",
    "postcode": "78717",
    "lat": 30.4783572,
    "lon": -97.8005475
  },
  {
    "street": "Lakeline Boulevard",
    "housenumber": "11301",
    "city": "Austin",
    "postcode": "78717",
    "lat": 30.4779527,
    "lon": -97.8003295
  },
  {
    "street": "13435 Hwy 183",
    "housenumber": "Ste 415",
    "city": "Austin",
    "postcode": "78750",
    "lat": 30.4473524,
    "lon": -97.787084
  },
  {
    "street": "Highway 183 North",
    "housenumber": "13429",
    "city": "Austin",
    "postcode": "78750",
    "lat": 30.4474424,
    "lon": -97.7890946
  },
  {
    "street": "Rio Grande",
    "housenumber": "1901",
    "city": "Austin",
    "postcode": "78705",
    "lat": 30.2829388,
    "lon": -97.7449006
  },
  {
    "street": "E Oltorf St",
    "housenumber": "1931",
    "city": "Austin",
    "postcode": "78741",
    "lat": 30.2307085,
    "lon": -97.7348261
  },
  {
    "street": "Research Blvd",
    "housenumber": "12636",
    "city": "Austin",
    "postcode": "78759",
    "lat": 30.4307304,
    "lon": -97.7638265
  },
  {
    "street": "East 7th Street",
    "housenumber": "1614",
    "city": "Austin",
    "postcode": "78702",
    "lat": 30.2637439,
    "lon": -97.7248744
  },
  {
    "street": "Calles Street",
    "housenumber": "642",
    "city": "Austin",
    "postcode": "78702",
    "lat": 30.2600696,
    "lon": -97.7121017
  },
  {
    "street": "Research Blvd",
    "housenumber": "13450",
    "city": "Austin",
    "postcode": "78750",
    "lat": 30.4471724,
    "lon": -97.791207
  },
  {
    "street": "Spicewood Springs Road",
    "housenumber": "8650",
    "city": "Austin",
    "lat": 30.4321807,
    "lon": -97.770942
  },
  {
    "street": "Spicewood Springs Road",
    "housenumber": "8650",
    "city": "Austin",
    "lat": 30.4323563,
    "lon": -97.7714174
  },
  {
    "street": "Research Boulevard",
    "housenumber": "9025",
    "city": "Austin",
    "postcode": "78758",
    "lat": 30.3729305,
    "lon": -97.7241083
  },
  {
    "street": "Research Boulevard",
    "housenumber": "9041",
    "city": "Austin",
    "postcode": "78758-7008",
    "lat": 30.3735916,
    "lon": -97.7254254
  },
  {
    "street": "Research Boulevard",
    "housenumber": "9033",
    "city": "Austin",
    "postcode": "78758-7013",
    "lat": 30.3734303,
    "lon": -97.7247091
  },
  {
    "street": "College Avenue",
    "housenumber": "2218",
    "city": "Austin",
    "postcode": "78704",
    "lat": 30.240435,
    "lon": -97.7532506
  },
  {
    "street": "S 1st St",
    "housenumber": "2008",
    "city": "Austin",
    "postcode": "78704",
    "lat": 30.2450428,
    "lon": -97.7575655
  },
  {
    "street": "South Congress Avenue",
    "housenumber": "2114",
    "city": "Austin",
    "postcode": "78704",
    "lat": 30.2425708,
    "lon": -97.7525114
  },
  {
    "street": "West 2nd Street",
    "housenumber": "301",
    "city": "Austin",
    "postcode": "78701",
    "lat": 30.2648968,
    "lon": -97.7469115
  },
  {
    "street": "Industrial Boulevard",
    "housenumber": "400",
    "city": "Austin",
    "postcode": "78745",
    "lat": 30.2185316,
    "lon": -97.7610924
  },
  {
    "street": "Research Boulevard",
    "housenumber": "12518",
    "city": "Austin",
    "postcode": "78759",
    "lat": 30.428848,
    "lon": -97.7603887
  },
  {
    "street": "Research Boulevard",
    "housenumber": "12636",
    "city": "Austin",
    "lat": 30.4306811,
    "lon": -97.7643416
  },
  {
    "street": "South Lamar Boulevard",
    "housenumber": "1100",
    "city": "Austin",
    "postcode": "78704",
    "lat": 30.2555387,
    "lon": -97.7625208
  },
  {
    "street": "West Oltorf Street",
    "housenumber": "504",
    "city": "Austin",
    "postcode": "78704",
    "lat": 30.2416821,
    "lon": -97.7581999
  },
  {
    "street": "West Anderson Lane",
    "housenumber": "2700",
    "city": "Austin",
    "postcode": "78757",
    "lat": 30.358607,
    "lon": -97.7346045
  },
  {
    "street": "West 34th Street",
    "housenumber": "612 B",
    "city": "Austin",
    "postcode": "78705",
    "lat": 30.3009582,
    "lon": -97.7400968
  },
  {
    "street": "W Anderson Ln",
    "housenumber": "2700",
    "city": "Austin",
    "postcode": "78757",
    "lat": 30.3586499,
    "lon": -97.7350186
  },
  {
    "street": "W Anderson Lane",
    "housenumber": "2700",
    "city": "Austin",
    "postcode": "78757",
    "lat": 30.3585851,
    "lon": -97.7349059
  },
  {
    "street": "West Anderson Lane",
    "housenumber": "2438",
    "city": "Austin",
    "postcode": "78757",
    "lat": 30.3577778,
    "lon": -97.7329949
  },
  {
    "street": "Executive Center Dr",
    "housenumber": "3636",
    "city": "Austin",
    "postcode": "78731",
    "lat": 30.3624108,
    "lon": -97.7485396
  },
  {
    "street": "I-35-South",
    "housenumber": "6715",
    "city": "Austin",
    "postcode": "78744-4801",
    "lat": 30.1880436,
    "lon": -97.7699211
  },
  {
    "street": "West Parmer Lane",
    "housenumber": "1700",
    "city": "Austin",
    "postcode": "78727",
    "lat": 30.4131395,
    "lon": -97.6878844
  },
  {
    "street": "West Parmer Lane",
    "housenumber": "2506",
    "city": "Austin",
    "postcode": "78727",
    "lat": 30.4206696,
    "lon": -97.7013403
  },
  {
    "street": "West Parmer Lane",
    "housenumber": "1700",
    "city": "Austin",
    "postcode": "78727",
    "lat": 30.4128571,
    "lon": -97.687312
  },
  {
    "street": "West Parmer Lane",
    "housenumber": "2500",
    "city": "Austin",
    "postcode": "78727",
    "lat": 30.4202581,
    "lon": -97.7014615
  },
  {
    "street": "West Parmer Lane",
    "housenumber": "1700",
    "city": "Austin",
    "postcode": "78727",
    "lat": 30.4131719,
    "lon": -97.6879734
  },
  {
    "street": "West Parmer Lane",
    "housenumber": "2121",
    "city": "Austin",
    "postcode": "78727",
    "lat": 30.4155867,
    "lon": -97.6970069
  },
  {
    "street": "West Parmer Lane",
    "housenumber": "2500",
    "city": "Austin",
    "postcode": "78727",
    "lat": 30.4219075,
    "lon": -97.7023852
  },
  {
    "street": "West Parmer Lane",
    "housenumber": "1700",
    "city": "Austin",
    "postcode": "78727",
    "lat": 30.4142742,
    "lon": -97.6890262
  },
  {
    "street": "West Parmer Lane",
    "housenumber": "1701",
    "city": "Austin",
    "postcode": "78727",
    "lat": 30.4121329,
    "lon": -97.6900143
  },
  {
    "street": "West Parmer Lane",
    "housenumber": "2121",
    "city": "Austin",
    "postcode": "78727",
    "lat": 30.4154361,
    "lon": -97.6966738
  },
  {
    "street": "West Parmer Lane",
    "housenumber": "1700",
    "city": "Austin",
    "postcode": "78727",
    "lat": 30.4143195,
    "lon": -97.6891517
  },
  {
    "street": "West Parmer Lane",
    "housenumber": "1700",
    "city": "Austin",
    "postcode": "78727",
    "lat": 30.4143938,
    "lon": -97.689309
  },
  {
    "street": "West Parmer Lane",
    "housenumber": "2500",
    "city": "Austin",
    "postcode": "78727",
    "lat": 30.422008,
    "lon": -97.7023818
  },
  {
    "street": "West Parmer Lane",
    "housenumber": "2121",
    "city": "Austin",
    "postcode": "78727",
    "lat": 30.4158584,
    "lon": -97.6978177
  },
  {
    "street": "West Parmer Lane",
    "housenumber": "1700",
    "city": "Austin",
    "postcode": "78727",
    "lat": 30.4126379,
    "lon": -97.6869152
  },
  {
    "street": "West Parmer Lane",
    "housenumber": "1701",
    "city": "Austin",
    "postcode": "78727",
    "lat": 30.4120497,
    "lon": -97.6897354
  },
  {
    "street": "West Parmer Lane",
    "housenumber": "2121",
    "city": "Austin",
    "postcode": "78727",
    "lat": 30.4157235,
    "lon": -97.6974287
  },
  {
    "street": "West Parmer Lane",
    "housenumber": "1700",
    "city": "Austin",
    "postcode": "78727",
    "lat": 30.4130476,
    "lon": -97.687715
  },
  {
    "street": "West Parmer Lane",
    "housenumber": "2500",
    "city": "Austin",
    "postcode": "78727",
    "lat": 30.4221877,
    "lon": -97.7020297
  },
  {
    "street": "West Parmer Lane",
    "housenumber": "1701",
    "city": "Austin",
    "postcode": "78727",
    "lat": 30.4132733,
    "lon": -97.6882267
  },
  {
    "street": "Cedar Bend Drive",
    "housenumber": "1921",
    "city": "Austin",
    "postcode": "78758",
    "lat": 30.4080684,
    "lon": -97.6976861
  },
  {
    "street": "Center Ridge Drive",
    "housenumber": "1100",
    "city": "Austin",
    "postcode": "78753",
    "lat": 30.4181515,
    "lon": -97.6703787
  },
  {
    "street": "Center Ridge Drive",
    "housenumber": "1100",
    "city": "Austin",
    "postcode": "78753",
    "lat": 30.4178593,
    "lon": -97.6704359
  },
  {
    "street": "West Slaughter Lane",
    "housenumber": "5800",
    "city": "Austin",
    "postcode": "78749",
    "lat": 30.2008476,
    "lon": -97.8758487
  },
  {
    "street": "Century Oaks Terrace",
    "housenumber": "11410",
    "city": "Austin",
    "postcode": "78758",
    "lat": 30.401616,
    "lon": -97.7266263
  },
  {
    "street": "West Slaughter Lane",
    "housenumber": "5900",
    "city": "Austin",
    "postcode": "78749",
    "lat": 30.201598,
    "lon": -97.8801213
  },
  {
    "street": "Manor Road",
    "housenumber": "2219",
    "city": "Austin",
    "postcode": "78722",
    "lat": 30.2841449,
    "lon": -97.7183747
  },
  {
    "street": "West Anderson Lane",
    "housenumber": "2900",
    "city": "Austin",
    "postcode": "78757",
    "lat": 30.3598996,
    "lon": -97.7364139
  },
  {
    "street": "West Anderson Lane",
    "housenumber": "2438",
    "city": "Austin",
    "postcode": "78757",
    "lat": 30.3576246,
    "lon": -97.733103
  },
  {
    "street": "Escarpment Blvd",
    "housenumber": "9600 G",
    "city": "Austin",
    "postcode": "78749",
    "lat": 30.2035018,
    "lon": -97.8789401
  },
  {
    "street": "9901 N Capital Of texas",
    "housenumber": "250",
    "city": "Austin",
    "postcode": "78759",
    "lat": 30.3897041,
    "lon": -97.7398979
  },
  {
    "street": "East 4th Street",
    "housenumber": "209",
    "city": "Austin",
    "postcode": "78701",
    "lat": 30.2647403,
    "lon": -97.7384266
  },
  {
    "street": "Burnet Road",
    "housenumber": "4729",
    "city": "Austin",
    "postcode": "78756",
    "lat": 30.3187523,
    "lon": -97.7390631
  },
  {
    "street": "South 1st Street",
    "housenumber": "106",
    "city": "Austin",
    "postcode": "78704",
    "lat": 30.261862,
    "lon": -97.7487046
  },
  {
    "street": "Research Boulevard",
    "housenumber": "10000",
    "city": "Austin",
    "postcode": "78759",
    "lat": 30.3910138,
    "lon": -97.7485103
  },
  {
    "street": "East Ben White Boulevard",
    "housenumber": "7715",
    "city": "Austin",
    "postcode": "78704",
    "lat": 30.2181654,
    "lon": -97.6890941
  },
  {
    "street": "Cameron Road",
    "housenumber": "6307",
    "city": "Austin",
    "postcode": "78723",
    "lat": 30.3201809,
    "lon": -97.6953772
  },
  {
    "street": "11521 N FM 620",
    "housenumber": "1300",
    "city": "Austin",
    "lat": 30.4522736,
    "lon": -97.8268734
  },
  {
    "street": "Ranch Road 620 North",
    "housenumber": "11521",
    "city": "Austin",
    "lat": 30.4529766,
    "lon": -97.8275976
  },
  {
    "street": "East North Loop Boulevard",
    "housenumber": "100",
    "city": "Austin",
    "lat": 30.3178517,
    "lon": -97.7219593
  },
  {
    "street": "South Congress Avenue",
    "housenumber": "3601",
    "city": "Austin",
    "postcode": "78704-7205",
    "lat": 30.2266663,
    "lon": -97.7604109
  },
  {
    "street": "Century Oaks Terrace",
    "housenumber": "11401",
    "city": "Austin",
    "postcode": "78758",
    "lat": 30.4005898,
    "lon": -97.7264951
  },
  {
    "street": "East 4th Street",
    "housenumber": "300",
    "city": "Austin",
    "postcode": "78701",
    "lat": 30.265449,
    "lon": -97.740414
  },
  {
    "street": "East 4th Street",
    "housenumber": "300",
    "city": "Austin",
    "postcode": "78701",
    "lat": 30.265402,
    "lon": -97.740157
  },
  {
    "street": "San Jacinto Boulevard",
    "housenumber": "207",
    "city": "Austin",
    "postcode": "78701",
    "lat": 30.264266,
    "lon": -97.741411
  },
  {
    "street": "Bee Caves Road",
    "housenumber": "3201",
    "city": "Austin",
    "postcode": "78746",
    "lat": 30.2732782,
    "lon": -97.8007484
  },
  {
    "street": "Bee Cave Road",
    "housenumber": "3201",
    "city": "Austin",
    "postcode": "78746",
    "lat": 30.2720214,
    "lon": -97.7999092
  },
  {
    "street": "Far West Boulevard",
    "housenumber": "3637",
    "city": "Austin",
    "postcode": "78731",
    "lat": 30.3546718,
    "lon": -97.7563416
  },
  {
    "street": "Far West Boulevard",
    "housenumber": "3637",
    "city": "Austin",
    "lat": 30.3546209,
    "lon": -97.7563751
  },
  {
    "street": "Mesa Drive",
    "housenumber": "8012",
    "city": "Austin",
    "postcode": "78759",
    "lat": 30.370621,
    "lon": -97.7585108
  },
  {
    "street": "Research Boulevard",
    "housenumber": "11150",
    "city": "Austin",
    "postcode": "78759",
    "lat": 30.4070468,
    "lon": -97.7470771
  },
  {
    "street": "West Slaughter Lane",
    "housenumber": "155",
    "city": "Austin",
    "postcode": "78748",
    "lat": 30.1669235,
    "lon": -97.7914099
  },
  {
    "street": "IH 35 Frontage Road",
    "housenumber": "9300",
    "city": "Austin",
    "postcode": "78748",
    "lat": 30.1653559,
    "lon": -97.7881832
  },
  {
    "street": "South I-35 Service Road South",
    "housenumber": "9300",
    "city": "Austin",
    "postcode": "78748",
    "lat": 30.1656017,
    "lon": -97.788159
  },
  {
    "street": "Highway 71 West",
    "housenumber": "7626",
    "city": "Austin",
    "postcode": "78735",
    "lat": 30.2420511,
    "lon": -97.8814318
  },
  {
    "street": "Brazos Street",
    "housenumber": "807",
    "city": "Austin",
    "postcode": "78701",
    "lat": 30.2701776,
    "lon": -97.7403089
  },
  {
    "street": "West Parmer Lane",
    "housenumber": "4101",
    "city": "Austin",
    "postcode": "78727",
    "lat": 30.425422,
    "lon": -97.7169729
  },
  {
    "street": "North Mo-Pac Expressway",
    "housenumber": "7000",
    "city": "Austin",
    "postcode": "78731",
    "lat": 30.3535389,
    "lon": -97.7495759
  },
  {
    "street": "Congress Avenue",
    "housenumber": "801",
    "city": "Austin",
    "postcode": "78701",
    "lat": 30.2700107,
    "lon": -97.7418634
  },
  {
    "street": "Congress Avenue",
    "housenumber": "704",
    "city": "Austin",
    "lat": 30.2692949,
    "lon": -97.7425595
  },
  {
    "street": "Manor Road",
    "housenumber": "2310",
    "city": "Austin",
    "postcode": "78722",
    "lat": 30.284794,
    "lon": -97.7175883
  },
  {
    "street": "Kramer Ln",
    "housenumber": "2100",
    "city": "Austin",
    "postcode": "78758",
    "lat": 30.3738798,
    "lon": -97.7359298
  },
  {
    "street": "Brazos Street",
    "housenumber": "610",
    "city": "Austin",
    "postcode": "78701",
    "lat": 30.2683874,
    "lon": -97.741408
  },
  {
    "street": "Shoal Creek Boulevard",
    "housenumber": "8705",
    "city": "Austin",
    "postcode": "78757",
    "lat": 30.3736676,
    "lon": -97.7360426
  },
  {
    "street": "Hwy 290 W. Ste. 301",
    "housenumber": "6705",
    "city": "Austin",
    "postcode": "78735",
    "lat": 30.2327604,
    "lon": -97.8651424
  },
  {
    "street": "East 41st Street",
    "housenumber": "1000",
    "city": "Austin",
    "postcode": "78751",
    "lat": 30.3005067,
    "lon": -97.7196451
  },
  {
    "street": "Bee Caves Road",
    "housenumber": "3201",
    "city": "Austin",
    "postcode": "78746",
    "lat": 30.2731462,
    "lon": -97.8005584
  },
  {
    "street": "East 38½ Street",
    "housenumber": "1402",
    "city": "Austin",
    "postcode": "78722",
    "lat": 30.2932777,
    "lon": -97.716018
  },
  {
    "street": "E 38th 1/2 St.",
    "housenumber": "1400",
    "city": "Austin",
    "postcode": "78722",
    "lat": 30.2935486,
    "lon": -97.7160528
  },
  {
    "street": "East 38½ Street",
    "housenumber": "1406",
    "city": "Austin",
    "postcode": "78722",
    "lat": 30.293075,
    "lon": -97.7158181
  },
  {
    "street": "Baylor Street",
    "housenumber": "304",
    "city": "Austin",
    "postcode": "78701",
    "lat": 30.2700049,
    "lon": -97.7565378
  },
  {
    "street": "Duncan Lane",
    "housenumber": "910",
    "city": "Austin",
    "postcode": "78705",
    "lat": 30.2922649,
    "lon": -97.7247564
  },
  {
    "street": "Shoal Creek Boulevard",
    "housenumber": "8705",
    "city": "Austin",
    "postcode": "78757",
    "lat": 30.3739061,
    "lon": -97.7360683
  },
  {
    "street": "Technology Boulevard",
    "housenumber": "12306",
    "city": "Austin",
    "postcode": "78727",
    "lat": 30.4359491,
    "lon": -97.7599346
  },
  {
    "street": "Northland Drive",
    "housenumber": "3301",
    "city": "Austin",
    "postcode": "78731",
    "lat": 30.3359169,
    "lon": -97.7570514
  },
  {
    "street": "Technology Boulevard",
    "housenumber": "12306",
    "city": "Austin",
    "postcode": "78727",
    "lat": 30.436059,
    "lon": -97.7602233
  },
  {
    "street": "Research Boulevard",
    "housenumber": "8910",
    "city": "Austin",
    "lat": 30.3694141,
    "lon": -97.7216963
  },
  {
    "street": "Research Boulevard",
    "housenumber": "8766",
    "city": "Austin",
    "postcode": "78757",
    "lat": 30.365968,
    "lon": -97.7192638
  },
  {
    "street": "Research Boulevard",
    "housenumber": "8716",
    "city": "Austin",
    "postcode": "78758",
    "lat": 30.3635213,
    "lon": -97.7194319
  },
  {
    "street": "Research Boulevard",
    "housenumber": "10900",
    "city": "Austin",
    "postcode": "78759",
    "lat": 30.4012408,
    "lon": -97.7466002
  },
  {
    "street": "Research Boulevard",
    "housenumber": "10900",
    "city": "Austin",
    "postcode": "78759",
    "lat": 30.401983,
    "lon": -97.7468743
  },
  {
    "street": "East 6th Street",
    "housenumber": "2401",
    "city": "Austin",
    "postcode": "78702",
    "lat": 30.2591024,
    "lon": -97.7153457
  },
  {
    "street": "West Anderson Lane",
    "housenumber": "2900",
    "city": "Austin",
    "postcode": "78757",
    "lat": 30.359743,
    "lon": -97.7360804
  },
  {
    "street": "West Anderson Lane",
    "housenumber": "2900",
    "city": "Austin",
    "postcode": "78757",
    "lat": 30.3595801,
    "lon": -97.7356985
  },
  {
    "street": "Anderson Mill Road",
    "housenumber": "10700",
    "city": "Austin",
    "postcode": "78750",
    "lat": 30.4475633,
    "lon": -97.8112295
  },
  {
    "street": "Esperanza Crossing",
    "housenumber": "3100",
    "city": "Austin",
    "lat": 30.3998991,
    "lon": -97.7221508
  },
  {
    "street": "Golf Course Road",
    "housenumber": "10335",
    "city": "Austin",
    "lat": 30.2020063,
    "lon": -97.6540497
  },
  {
    "street": "McNeil Drive",
    "housenumber": "6816",
    "city": "Austin",
    "postcode": "78729",
    "lat": 30.4382624,
    "lon": -97.7588431
  },
  {
    "street": "Burnet Rd Ste, A500",
    "housenumber": "9715",
    "city": "Austin",
    "postcode": "78758",
    "lat": 30.3796412,
    "lon": -97.722242
  },
  {
    "street": "Old Jollyville Road, Suite 100",
    "housenumber": "9111",
    "city": "Austin",
    "postcode": "78759",
    "lat": 30.3825348,
    "lon": -97.7435454
  },
  {
    "street": "Burnet Road",
    "housenumber": "7304",
    "city": "Austin",
    "postcode": "78757",
    "lat": 30.348937,
    "lon": -97.735742
  },
  {
    "street": "W. Anderson Lane, Suite A-15",
    "housenumber": "2525",
    "city": "Austin",
    "postcode": "78757",
    "lat": 30.3553236,
    "lon": -97.7335589
  },
  {
    "street": "Rainey Street",
    "housenumber": "75",
    "city": "Austin",
    "postcode": "78701",
    "lat": 30.2586145,
    "lon": -97.7385885
  },
  {
    "street": "Burnet Road",
    "housenumber": "7413",
    "city": "Austin",
    "lat": 30.3497381,
    "lon": -97.7343237
  },
  {
    "street": "West Anderson Lane",
    "housenumber": "911",
    "city": "Austin",
    "postcode": "78757",
    "lat": 30.3479738,
    "lon": -97.7146892
  },
  {
    "street": "West Anderson Lane",
    "housenumber": "911",
    "city": "Austin",
    "postcode": "78757",
    "lat": 30.348133,
    "lon": -97.714839
  },
  {
    "street": "Spicewood Springs Road",
    "housenumber": "8650",
    "city": "Austin",
    "postcode": "78759",
    "lat": 30.432672,
    "lon": -97.7715125
  },
  {
    "street": "Research Boulevard",
    "housenumber": "12856",
    "city": "Austin",
    "postcode": "78750",
    "lat": 30.4340029,
    "lon": -97.7722011
  },
  {
    "street": "Spicewood Springs Road",
    "housenumber": "8661",
    "city": "Austin",
    "postcode": "78750",
    "lat": 30.4340744,
    "lon": -97.7710801
  },
  {
    "street": "Spicewood Springs Road",
    "housenumber": "8666",
    "city": "Austin",
    "postcode": "78759",
    "lat": 30.4330572,
    "lon": -97.7695732
  },
  {
    "street": "N HWY 183",
    "housenumber": "13429",
    "city": "Austin",
    "postcode": "78750",
    "lat": 30.4473688,
    "lon": -97.7889237
  },
  {
    "street": "Riata Trace Pkwy",
    "housenumber": "12301",
    "city": "Austin",
    "postcode": "78727",
    "lat": 30.4277101,
    "lon": -97.7472791
  },
  {
    "street": "McNeil Drive",
    "housenumber": "7308",
    "city": "Austin",
    "postcode": "78729",
    "lat": 30.4357452,
    "lon": -97.7668426
  },
  {
    "street": "U.S. 183",
    "housenumber": "13435",
    "city": "Austin",
    "postcode": "78729",
    "lat": 30.4485009,
    "lon": -97.7875564
  },
  {
    "street": "North Highway 183",
    "housenumber": "13359",
    "city": "Austin",
    "postcode": "78750",
    "lat": 30.4482015,
    "lon": -97.7874813
  },
  {
    "street": "Brodie Lane",
    "housenumber": "9220",
    "city": "Austin",
    "postcode": "78748",
    "lat": 30.1920413,
    "lon": -97.8451031
  },
  {
    "street": "Shoal Creek Blvd, Bld 3",
    "housenumber": "8500",
    "city": "Austin",
    "postcode": "78757",
    "lat": 30.3710006,
    "lon": -97.7385739
  },
  {
    "street": "Jollyville Road",
    "housenumber": "9111",
    "city": "Austin",
    "postcode": "78759",
    "lat": 30.3826029,
    "lon": -97.7434066
  },
  {
    "street": "Jollyville Road Suite 100",
    "housenumber": "9111",
    "city": "Austin",
    "postcode": "78759",
    "lat": 30.3826603,
    "lon": -97.7432898
  },
  {
    "street": "Burnet Road",
    "housenumber": "7940",
    "city": "Austin",
    "postcode": "78757",
    "lat": 30.357773,
    "lon": -97.7309264
  },
  {
    "street": "Burnet Road",
    "housenumber": "8440",
    "city": "Austin",
    "postcode": "78757",
    "lat": 30.3659728,
    "lon": -97.7291127
  },
  {
    "street": "West Slaughter Lane",
    "housenumber": "1807",
    "city": "Austin",
    "postcode": "78748",
    "lat": 30.1732163,
    "lon": -97.8217969
  },
  {
    "street": "East 7th Street",
    "housenumber": "2701",
    "city": "Austin",
    "postcode": "78702",
    "lat": 30.2594408,
    "lon": -97.7118318
  },
  {
    "street": "I 35 Frontage Road",
    "housenumber": "6607",
    "city": "Austin",
    "postcode": "78744",
    "lat": 30.1884873,
    "lon": -97.7692368
  },
  {
    "street": "East 41st Street",
    "housenumber": "1000",
    "city": "Austin",
    "postcode": "78751",
    "lat": 30.3001369,
    "lon": -97.7194369
  },
  {
    "street": "Research Boulevard",
    "housenumber": "12860",
    "city": "Austin",
    "postcode": "78750",
    "lat": 30.4344019,
    "lon": -97.7724148
  },
  {
    "street": "West Canyon Ridge Drive",
    "housenumber": "500",
    "city": "Austin",
    "postcode": "78753",
    "lat": 30.4049827,
    "lon": -97.6720293
  },
  {
    "street": "Wells Branch Parkway",
    "housenumber": "1434",
    "city": "Pflugerville",
    "postcode": "78660",
    "lat": 30.4427111,
    "lon": -97.6646942
  },
  {
    "street": "4th Street Northwest",
    "housenumber": "1309",
    "city": "Austin",
    "postcode": "55912",
    "lat": 43.6781944,
    "lon": -92.9798861
  },
  {
    "street": "14th Street Northwest",
    "housenumber": "1401",
    "city": "Austin",
    "postcode": "55912-1402",
    "lat": 43.6791436,
    "lon": -92.9942915
  },
  {
    "street": "West Slaughter Lane",
    "housenumber": "5800",
    "city": "Austin",
    "postcode": "78749",
    "lat": 30.2026139,
    "lon": -97.8772018
  },
  {
    "street": "West Slaughter Lane",
    "housenumber": "2110",
    "city": "Austin",
    "postcode": "78748",
    "lat": 30.1753537,
    "lon": -97.8246195
  },
  {
    "street": "Ed Bluestein Boulevard",
    "housenumber": "7112",
    "city": "Austin",
    "postcode": "78723",
    "lat": 30.3122716,
    "lon": -97.66505
  },
  {
    "street": "North Lamar Boulevard",
    "housenumber": "9417",
    "city": "Austin",
    "postcode": "78753",
    "lat": 30.364409,
    "lon": -97.6981724
  },
  {
    "street": "Research Boulevard",
    "housenumber": "10710",
    "city": "Austin",
    "postcode": "78759",
    "lat": 30.3986607,
    "lon": -97.7479711
  },
  {
    "street": "West Parmer Lane",
    "housenumber": "6001",
    "city": "Austin",
    "postcode": "78727",
    "lat": 30.4418519,
    "lon": -97.7422374
  },
  {
    "street": "Brodie Lane",
    "housenumber": "6900",
    "city": "Austin",
    "postcode": "78745",
    "lat": 30.2160177,
    "lon": -97.831538
  },
  {
    "street": "Ranch Road 620",
    "housenumber": "7301",
    "city": "Austin",
    "postcode": "78726",
    "lat": 30.403899,
    "lon": -97.8519975
  },
  {
    "street": "Oakland Avenue East",
    "housenumber": "1001",
    "city": "Austin",
    "postcode": "55912",
    "lat": 43.6669812,
    "lon": -92.9630693
  },
  {
    "street": "West Ben White Boulevard",
    "housenumber": "321",
    "city": "Austin",
    "postcode": "78704",
    "lat": 30.2235953,
    "lon": -97.7671641
  },
  {
    "street": "South Pleasant Valley Road",
    "housenumber": "1819",
    "city": "Austin",
    "postcode": "78741",
    "lat": 30.2343907,
    "lon": -97.7207296
  },
  {
    "street": "Ranch Road 620",
    "housenumber": "11521",
    "city": "Austin",
    "postcode": "78726",
    "lat": 30.4533746,
    "lon": -97.8259343
  },
  {
    "street": "Oakland Avenue West",
    "housenumber": "2905",
    "city": "Austin",
    "postcode": "55912",
    "lat": 43.6658325,
    "lon": -93.0152196
  },
  {
    "street": "Oakland Avenue West",
    "housenumber": "3401",
    "city": "Austin",
    "postcode": "55912",
    "lat": 43.6662283,
    "lon": -93.024256
  },
  {
    "street": "Oakland Avenue West",
    "housenumber": "2905",
    "city": "Austin",
    "postcode": "55912",
    "lat": 43.6660536,
    "lon": -93.0151911
  },
  {
    "street": "Oakland Avenue West",
    "housenumber": "3010",
    "city": "Austin",
    "postcode": "55912",
    "lat": 43.6673537,
    "lon": -93.0171106
  },
  {
    "street": "Oakland Avenue West",
    "housenumber": "3011",
    "city": "Austin",
    "postcode": "55912",
    "lat": 43.6661817,
    "lon": -93.0168773
  },
  {
    "street": "12th Street SW",
    "housenumber": "1608",
    "city": "Austin",
    "postcode": "55912",
    "lat": 43.6523928,
    "lon": -92.9899935
  },
  {
    "street": "12th Street SW",
    "housenumber": "1800",
    "city": "Austin",
    "postcode": "55912",
    "lat": 43.6506061,
    "lon": -92.9889514
  },
  {
    "street": "12th Street SW",
    "housenumber": "1702",
    "city": "Austin",
    "postcode": "55912",
    "lat": 43.6517473,
    "lon": -92.9901128
  },
  {
    "street": "Oakland Avenue West",
    "housenumber": "2905",
    "city": "Austin",
    "postcode": "55912",
    "lat": 43.6657181,
    "lon": -93.0145984
  },
  {
    "street": "Oakland Avenue West",
    "housenumber": "3010",
    "city": "Austin",
    "postcode": "55912",
    "lat": 43.6671791,
    "lon": -93.0166744
  },
  {
    "street": "Oakland Avenue West",
    "housenumber": "3010",
    "city": "Austin",
    "postcode": "55912",
    "lat": 43.6674099,
    "lon": -93.0169078
  },
  {
    "street": "10th Place Northeast",
    "housenumber": "1509",
    "city": "Austin",
    "postcode": "55912",
    "lat": 43.6763575,
    "lon": -92.9543654
  },
  {
    "street": "21st Street Northeast",
    "housenumber": "709",
    "city": "Austin",
    "postcode": "55912",
    "lat": 43.6726036,
    "lon": -92.9398854
  },
  {
    "street": "21st Street Northeast",
    "housenumber": "805",
    "city": "Austin",
    "postcode": "55912",
    "lat": 43.6733234,
    "lon": -92.9398935
  },
  {
    "street": "21st Street NE",
    "housenumber": "709",
    "city": "Austin",
    "postcode": "55912",
    "lat": 43.6724834,
    "lon": -92.9400866
  },
  {
    "street": "6th Avenue SE",
    "housenumber": "2001",
    "city": "Austin",
    "postcode": "55912",
    "lat": 43.662014,
    "lon": -92.9441207
  },
  {
    "street": "4th Avenue SE",
    "housenumber": "1700",
    "city": "Austin",
    "postcode": "55912",
    "lat": 43.6625762,
    "lon": -92.9525721
  },
  {
    "street": "7th Avenue SE",
    "housenumber": "1811",
    "city": "Austin",
    "postcode": "55912",
    "lat": 43.6607857,
    "lon": -92.9486402
  },
  {
    "street": "4th Avenue SE",
    "housenumber": "1500",
    "city": "Austin",
    "postcode": "55912",
    "lat": 43.6626407,
    "lon": -92.9544337
  },
  {
    "street": "4th Street SE",
    "housenumber": "1601",
    "city": "Austin",
    "postcode": "55912",
    "lat": 43.6529576,
    "lon": -92.968974
  },
  {
    "street": "West Oakland",
    "housenumber": "910",
    "city": "Austin",
    "postcode": "55912",
    "lat": 43.6667521,
    "lon": -92.9857517
  },
  {
    "street": "South Main Street",
    "housenumber": "106",
    "city": "Austin",
    "postcode": "55912",
    "lat": 43.6659606,
    "lon": -92.9753237
  },
  {
    "street": "N HWY 183",
    "housenumber": "13435",
    "city": "Austin",
    "postcode": "78729",
    "lat": 30.448568,
    "lon": -97.7892868
  },
  {
    "street": "North Interstate 35",
    "housenumber": "12901",
    "city": "Austin",
    "postcode": "78753",
    "lat": 30.4137613,
    "lon": -97.6706293
  },
  {
    "street": "North Interstate 35",
    "housenumber": "12901",
    "city": "Austin",
    "postcode": "78753",
    "lat": 30.4146437,
    "lon": -97.6704721
  },
  {
    "street": "North Interstate 35",
    "housenumber": "12901",
    "city": "Austin",
    "postcode": "78753",
    "lat": 30.4133751,
    "lon": -97.6705994
  },
  {
    "street": "North Interstate 35",
    "housenumber": "12901",
    "city": "Austin",
    "postcode": "78753",
    "lat": 30.41415,
    "lon": -97.6705496
  },
  {
    "street": "8th Street SW",
    "housenumber": "2103",
    "city": "Austin",
    "postcode": "55912",
    "lat": 43.6470758,
    "lon": -92.9833938
  },
  {
    "street": "West Oakland Avenue",
    "housenumber": "1600",
    "city": "Austin",
    "postcode": "55912",
    "lat": 43.6673137,
    "lon": -92.995115
  },
  {
    "street": "13th Street Southwest",
    "housenumber": "2103",
    "city": "Austin",
    "postcode": "55912",
    "lat": 43.645855,
    "lon": -92.9901959
  },
  {
    "street": "12th Street SW",
    "housenumber": "1608",
    "city": "Austin",
    "postcode": "55912",
    "lat": 43.6525585,
    "lon": -92.9903729
  },
  {
    "street": "Kachina Drive",
    "housenumber": "4406",
    "city": "Austin",
    "postcode": "78735",
    "lat": 30.2550188,
    "lon": -97.8373078
  },
  {
    "street": "Oak Creek Drive",
    "housenumber": "3107",
    "city": "Austin",
    "postcode": "78727",
    "lat": 30.4255723,
    "lon": -97.7042925
  },
  {
    "street": "North Lamar Boulevard",
    "housenumber": "11220",
    "city": "Austin",
    "postcode": "78753",
    "lat": 30.3818245,
    "lon": -97.6871477
  },
  {
    "street": "North Lamar Boulevard",
    "housenumber": "11220",
    "city": "Austin",
    "postcode": "78753",
    "lat": 30.3817439,
    "lon": -97.6869815
  },
  {
    "street": "North Interstate 35",
    "housenumber": "12400",
    "city": "Austin",
    "postcode": "78753",
    "lat": 30.4042646,
    "lon": -97.6760185
  },
  {
    "street": "North Interstate 35",
    "housenumber": "12400",
    "city": "Austin",
    "postcode": "78753",
    "lat": 30.4043302,
    "lon": -97.6760178
  },
  {
    "street": "North Interstate 35",
    "housenumber": "12400",
    "city": "Austin",
    "postcode": "78753",
    "lat": 30.4041738,
    "lon": -97.6760209
  },
  {
    "street": "North Interstate 35",
    "housenumber": "12400",
    "city": "Austin",
    "postcode": "78753",
    "lat": 30.4044402,
    "lon": -97.676022
  },
  {
    "street": "South Lakeshore Boulevard",
    "housenumber": "2201",
    "city": "Austin",
    "postcode": "78741",
    "lat": 30.2445156,
    "lon": -97.7226469
  },
  {
    "street": "San Jacinto Boulevard",
    "housenumber": "903",
    "city": "Austin",
    "lat": 30.270329,
    "lon": -97.738857
  },
  {
    "street": "Brazos Street",
    "housenumber": "800",
    "city": "Austin",
    "lat": 30.269896,
    "lon": -97.740823
  },
  {
    "street": "Brazos Street",
    "housenumber": "714",
    "city": "Austin",
    "lat": 30.269119,
    "lon": -97.741082
  },
  {
    "street": "Brazos Street",
    "housenumber": "718",
    "city": "Austin",
    "lat": 30.26931,
    "lon": -97.741027
  },
  {
    "street": "Sage Hollow Drive",
    "housenumber": "1607 Sage Hollow Cir.",
    "city": "Austin",
    "postcode": "78758",
    "lat": 30.3866848,
    "lon": -97.7013965
  },
  {
    "street": "Vargas Road",
    "housenumber": "710",
    "city": "Austin",
    "lat": 30.234813,
    "lon": -97.693403
  },
  {
    "street": "Vargas Road",
    "housenumber": "508",
    "city": "Austin",
    "lat": 30.237545,
    "lon": -97.691433
  },
  {
    "street": "East 5th Street",
    "housenumber": "121",
    "city": "Austin",
    "postcode": "78701",
    "lat": 30.266666,
    "lon": -97.7420565
  },
  {
    "street": "Vargas Road",
    "housenumber": "901",
    "city": "Austin",
    "lat": 30.233491,
    "lon": -97.693862
  },
  {
    "street": "Vargas Road",
    "housenumber": "701",
    "city": "Austin",
    "lat": 30.235378,
    "lon": -97.692469
  },
  {
    "street": "Old Koenig Lane",
    "housenumber": "900",
    "city": "Austin",
    "postcode": "78756",
    "lat": 30.3288907,
    "lon": -97.7262644
  },
  {
    "street": "Congress Avenue",
    "housenumber": "319",
    "city": "Austin",
    "postcode": "78701",
    "lat": 30.2657336,
    "lon": -97.7434633
  },
  {
    "street": "West Ben White Boulevard, #203",
    "housenumber": "321",
    "city": "Austin",
    "postcode": "78704",
    "lat": 30.2235953,
    "lon": -97.7671829
  },
  {
    "street": "Touchstone Street",
    "housenumber": "3501",
    "city": "Austin",
    "postcode": "78723",
    "lat": 30.2894976,
    "lon": -97.6812034
  },
  {
    "street": "Valleyfield Drive",
    "housenumber": "8000",
    "city": "Austin",
    "postcode": "78724",
    "lat": 30.2989702,
    "lon": -97.6294796
  },
  {
    "street": "South Lamar Boulevard",
    "housenumber": "1224",
    "city": "Austin",
    "postcode": "78704",
    "lat": 30.25409,
    "lon": -97.7631309
  },
  {
    "street": "Northcross Drive",
    "housenumber": "7739",
    "city": "Austin",
    "postcode": "78757",
    "lat": 30.3560654,
    "lon": -97.7359899
  },
  {
    "street": "Guadalupe Street",
    "housenumber": "1703",
    "city": "Austin",
    "postcode": "78701",
    "lat": 30.2798438,
    "lon": -97.7421243
  },
  {
    "street": "Guadalupe Street",
    "housenumber": "1601",
    "city": "Austin",
    "postcode": "78701",
    "lat": 30.2790333,
    "lon": -97.7423871
  },
  {
    "street": "West 17th Street",
    "housenumber": "314",
    "city": "Austin",
    "postcode": "78701",
    "lat": 30.2797199,
    "lon": -97.7419273
  },
  {
    "street": "Lavaca Street",
    "housenumber": "700",
    "city": "Austin",
    "postcode": "78701",
    "lat": 30.2729128,
    "lon": -97.7444498
  },
  {
    "street": "Lavaca Street",
    "housenumber": "700",
    "city": "Austin",
    "postcode": "78701",
    "lat": 30.2693247,
    "lon": -97.7451646
  },
  {
    "street": "Spicewood Springs Road",
    "housenumber": "8650",
    "city": "Austin",
    "postcode": "78759",
    "lat": 30.433198,
    "lon": -97.7717338
  },
  {
    "street": "Cedar Avenue",
    "housenumber": "1401",
    "city": "Austin",
    "lat": 30.2771154,
    "lon": -97.7130932
  },
  {
    "street": "Research Boulevard",
    "housenumber": "13376",
    "city": "Austin",
    "lat": 30.4444398,
    "lon": -97.7890813
  },
  {
    "street": "West Gate Boulevard",
    "housenumber": "6818",
    "city": "Austin",
    "lat": 30.2076883,
    "lon": -97.8155813
  },
  {
    "street": "South Lamar Boulevard",
    "housenumber": "4200",
    "city": "Austin",
    "lat": 30.235927,
    "lon": -97.795414
  },
  {
    "street": "Avery Ranch Boulevard",
    "housenumber": "14900",
    "city": "Austin",
    "postcode": "78717",
    "lat": 30.4993452,
    "lon": -97.7775791
  },
  {
    "street": "North Interstate 35",
    "housenumber": "13000",
    "city": "Austin",
    "postcode": "78753",
    "lat": 30.4114118,
    "lon": -97.6756443
  },
  {
    "street": "Rio Grande Street",
    "housenumber": "2222",
    "city": "Austin",
    "postcode": "78705",
    "lat": 30.2869407,
    "lon": -97.7449912
  },
  {
    "street": "Far West Boulevard",
    "housenumber": "3616",
    "city": "Austin",
    "lat": 30.3549924,
    "lon": -97.7556362
  },
  {
    "street": "Brodie Lane",
    "housenumber": "9001",
    "city": "Austin",
    "lat": 30.193437,
    "lon": -97.8429024
  },
  {
    "street": "Research Boulevard",
    "housenumber": "13450",
    "city": "Austin",
    "postcode": "78750",
    "lat": 30.4467738,
    "lon": -97.7918378
  },
  {
    "street": "Research Boulevard",
    "housenumber": "11657",
    "city": "Austin",
    "lat": 30.417508,
    "lon": -97.7455341
  },
  {
    "street": "South I-35 Service SB",
    "housenumber": "9300",
    "city": "Austin",
    "lat": 30.1666541,
    "lon": -97.7879909
  },
  {
    "street": "Rio Grande Street",
    "housenumber": "2222",
    "city": "Austin",
    "postcode": "78705",
    "lat": 30.2866355,
    "lon": -97.7449482
  },
  {
    "street": "I 35 Frontage Road",
    "housenumber": "5510",
    "city": "Austin",
    "lat": 30.2003347,
    "lon": -97.7636875
  },
  {
    "street": "Guadalupe Street",
    "housenumber": "3706",
    "city": "Austin",
    "lat": 30.3026246,
    "lon": -97.7385591
  },
  {
    "street": "West William Cannon Drive",
    "housenumber": "111",
    "city": "Austin",
    "postcode": "78745",
    "lat": 30.1928254,
    "lon": -97.7793526
  },
  {
    "street": "West Slaughter Lane",
    "housenumber": "5701",
    "city": "Austin",
    "postcode": "78749",
    "lat": 30.2004688,
    "lon": -97.8703533
  },
  {
    "street": "West Slaughter Lane",
    "housenumber": "5701",
    "city": "Austin",
    "postcode": "78749",
    "lat": 30.2004692,
    "lon": -97.8701876
  },
  {
    "street": "West Slaughter Lane",
    "housenumber": "5701",
    "city": "Austin",
    "postcode": "78749",
    "lat": 30.2004767,
    "lon": -97.8699422
  },
  {
    "street": "West Slaughter Lane",
    "housenumber": "5701",
    "city": "Austin",
    "postcode": "78749",
    "lat": 30.20047,
    "lon": -97.8698127
  },
  {
    "street": "West Slaughter Lane",
    "housenumber": "5701",
    "city": "Austin",
    "postcode": "78749",
    "lat": 30.2006492,
    "lon": -97.8689703
  },
  {
    "street": "East Riverside Drive",
    "housenumber": "4821",
    "city": "Austin",
    "lat": 30.231571,
    "lon": -97.718502
  },
  {
    "street": "East Riverside Drive",
    "housenumber": "153",
    "city": "Austin",
    "lat": 30.255364,
    "lon": -97.745428
  },
  {
    "street": "West 26th Street",
    "housenumber": "404",
    "city": "Austin",
    "postcode": "78705",
    "lat": 30.2906805,
    "lon": -97.742035
  },
  {
    "street": "Ed Bluestein Boulevard",
    "housenumber": "5501",
    "city": "Austin",
    "postcode": "78723",
    "lat": 30.293017,
    "lon": -97.6618227
  },
  {
    "street": "South Lamar Boulevard",
    "housenumber": "4006",
    "city": "Austin",
    "postcode": "78704",
    "lat": 30.2376538,
    "lon": -97.7925576
  },
  {
    "street": "Long Champ Drive",
    "housenumber": "4408",
    "city": "Austin",
    "postcode": "78746",
    "lat": 30.3428971,
    "lon": -97.7975095
  },
  {
    "street": "TX 45",
    "housenumber": "7401",
    "city": "Austin",
    "postcode": "78739",
    "lat": 30.1818186,
    "lon": -97.9122881
  },
  {
    "street": "Lost Horizon Drive",
    "housenumber": "5914",
    "city": "Austin",
    "postcode": "78759",
    "lat": 30.402892,
    "lon": -97.7669103
  },
  {
    "street": "East 43rd Street",
    "housenumber": "1000",
    "city": "Austin",
    "postcode": "78751",
    "lat": 30.300975,
    "lon": -97.7211411
  },
  {
    "street": "East 41st Street",
    "housenumber": "1000",
    "city": "Austin",
    "postcode": "78751",
    "lat": 30.3000118,
    "lon": -97.7211043
  },
  {
    "street": "East 41st Street",
    "housenumber": "1000",
    "city": "Austin",
    "postcode": "78751",
    "lat": 30.2995914,
    "lon": -97.7213352
  },
  {
    "street": "East 41st Street",
    "housenumber": "1000",
    "city": "Austin",
    "postcode": "78751",
    "lat": 30.2998476,
    "lon": -97.7211684
  },
  {
    "street": "East 43rd Street",
    "housenumber": "1000",
    "city": "Austin",
    "postcode": "78751",
    "lat": 30.3010767,
    "lon": -97.7213595
  },
  {
    "street": "East 41st Street",
    "housenumber": "1000",
    "city": "Austin",
    "postcode": "78751",
    "lat": 30.2996718,
    "lon": -97.7212829
  },
  {
    "street": "East 43rd Street",
    "housenumber": "1000",
    "city": "Austin",
    "postcode": "78751",
    "lat": 30.3007002,
    "lon": -97.7206157
  },
  {
    "street": "East 41st Street",
    "housenumber": "1000",
    "city": "Austin",
    "postcode": "78751",
    "lat": 30.2997689,
    "lon": -97.7212159
  },
  {
    "street": "East 43rd Street",
    "housenumber": "1000",
    "city": "Austin",
    "postcode": "78751",
    "lat": 30.3005972,
    "lon": -97.7204093
  },
  {
    "street": "Red River Street",
    "housenumber": "3221",
    "city": "Austin",
    "postcode": "78705",
    "lat": 30.2915792,
    "lon": -97.7264138
  },
  {
    "street": "East 43rd Street",
    "housenumber": "1000",
    "city": "Austin",
    "postcode": "78751",
    "lat": 30.3010176,
    "lon": -97.7212379
  },
  {
    "street": "16th Street NE",
    "housenumber": "300",
    "city": "Austin",
    "postcode": "55912",
    "lat": 43.6684023,
    "lon": -92.9513966
  },
  {
    "street": "10th Drive SE",
    "housenumber": "900",
    "city": "Austin",
    "postcode": "55912",
    "lat": 43.6590714,
    "lon": -92.9606556
  },
  {
    "street": "West Anderson Lane",
    "housenumber": "2937",
    "city": "Austin",
    "postcode": "78757",
    "lat": 30.3590366,
    "lon": -97.7390572
  },
  {
    "street": "Barbara Jordan Boulevard",
    "housenumber": "1201",
    "city": "Austin",
    "postcode": "78723",
    "lat": 30.3060312,
    "lon": -97.7084795
  },
  {
    "street": "Barbara Jordan Boulevard",
    "housenumber": "1201",
    "city": "Austin",
    "postcode": "78723",
    "lat": 30.3058368,
    "lon": -97.7080837
  },
  {
    "street": "Barbara Jordan Boulevard",
    "housenumber": "1201",
    "city": "Austin",
    "postcode": "78723",
    "lat": 30.3060105,
    "lon": -97.7084312
  },
  {
    "street": "Barbara Jordan Boulevard",
    "housenumber": "1201",
    "city": "Austin",
    "postcode": "78723",
    "lat": 30.3059317,
    "lon": -97.7082733
  },
  {
    "street": "Barbara Jordan Boulevard",
    "housenumber": "1201",
    "city": "Austin",
    "postcode": "78723",
    "lat": 30.3058211,
    "lon": -97.7080023
  },
  {
    "street": "Barbara Jordan Boulevard",
    "housenumber": "1201",
    "city": "Austin",
    "postcode": "78723",
    "lat": 30.3056506,
    "lon": -97.7079877
  },
  {
    "street": "Barbara Jordan Boulevard",
    "housenumber": "1201",
    "city": "Austin",
    "postcode": "78723",
    "lat": 30.3058963,
    "lon": -97.7081858
  },
  {
    "street": "FM 620 North",
    "housenumber": "11521",
    "city": "Austin",
    "lat": 30.4526411,
    "lon": -97.8265282
  },
  {
    "street": "FM 620 North",
    "housenumber": "12233",
    "city": "Austin",
    "lat": 30.4623512,
    "lon": -97.8141067
  },
  {
    "street": "Barbara Jordan Boulevard",
    "housenumber": "1201",
    "city": "Austin",
    "postcode": "78723",
    "lat": 30.3055072,
    "lon": -97.7081023
  },
  {
    "street": "Barbara Jordan Boulevard",
    "housenumber": "1201",
    "city": "Austin",
    "postcode": "78723",
    "lat": 30.3052883,
    "lon": -97.7082369
  },
  {
    "street": "Barbara Jordan Boulevard",
    "housenumber": "1201",
    "city": "Austin",
    "postcode": "78723",
    "lat": 30.3055844,
    "lon": -97.7080592
  },
  {
    "street": "Barbara Jordan Boulevard",
    "housenumber": "1201",
    "city": "Austin",
    "postcode": "78723",
    "lat": 30.3053975,
    "lon": -97.7081725
  },
  {
    "street": "Barbara Jordan Boulevard",
    "housenumber": "1201",
    "city": "Austin",
    "postcode": "78723",
    "lat": 30.3053536,
    "lon": -97.7081994
  },
  {
    "street": "Barbara Jordan Boulevard",
    "housenumber": "1201",
    "city": "Austin",
    "postcode": "78723",
    "lat": 30.3049017,
    "lon": -97.7100035
  },
  {
    "street": "Barbara Jordan Boulevard",
    "housenumber": "1201",
    "city": "Austin",
    "postcode": "78723",
    "lat": 30.3051813,
    "lon": -97.7083176
  },
  {
    "street": "Neenah Avenue",
    "housenumber": "9500",
    "city": "austin",
    "lat": 30.4889714,
    "lon": -97.7639164
  },
  {
    "street": "West William Cannon Drive",
    "housenumber": "4301",
    "city": "Austin",
    "postcode": "78749",
    "lat": 30.2201874,
    "lon": -97.8415946
  },
  {
    "street": "West William Cannon Drive",
    "housenumber": "4301",
    "city": "Austin",
    "postcode": "78749",
    "lat": 30.2224924,
    "lon": -97.8405797
  },
  {
    "street": "South Mopac Expressway",
    "housenumber": "6600",
    "city": "Austin",
    "postcode": "78749",
    "lat": 30.2221147,
    "lon": -97.8373142
  },
  {
    "street": "West William Cannon Drive",
    "housenumber": "4404",
    "city": "Austin",
    "postcode": "78749",
    "lat": 30.2237888,
    "lon": -97.839049
  },
  {
    "street": "Greystone Drive",
    "housenumber": "3415",
    "city": "Austin",
    "postcode": "78731",
    "lat": 30.3568785,
    "lon": -97.7479101
  },
  {
    "street": "South 1st Street",
    "housenumber": "4200",
    "city": "Austin",
    "postcode": "78745",
    "lat": 30.2241928,
    "lon": -97.7711496
  },
  {
    "street": "Highway 71 West",
    "housenumber": "7720",
    "city": "Austin",
    "postcode": "78735",
    "lat": 30.2436161,
    "lon": -97.8826499
  },
  {
    "street": "S Interstate 35",
    "housenumber": "9601",
    "city": "Austin",
    "postcode": "78744",
    "lat": 30.1608934,
    "lon": -97.7877205
  },
  {
    "street": "North MoPac Expressway",
    "housenumber": "12407",
    "city": "Austin",
    "postcode": "78758",
    "lat": 30.4177189,
    "lon": -97.7027376
  },
  {
    "street": "Village Center Drive",
    "housenumber": "7015",
    "city": "Austin",
    "postcode": "78731",
    "lat": 30.352091,
    "lon": -97.7551726
  },
  {
    "street": "East Riverside Drive",
    "housenumber": "2508",
    "city": "Austin",
    "postcode": "78741",
    "lat": 30.2366613,
    "lon": -97.7227631
  },
  {
    "street": "West William Cannon",
    "housenumber": "6001",
    "city": "Austin",
    "postcode": "78749",
    "lat": 30.2284117,
    "lon": -97.8633323
  },
  {
    "street": "South Mopac Service Road",
    "housenumber": "6611",
    "city": "Austin",
    "postcode": "78749",
    "lat": 30.2198535,
    "lon": -97.8355517
  },
  {
    "street": "Great Hills Trail",
    "housenumber": "9722",
    "city": "Austin",
    "postcode": "78759",
    "lat": 30.395413,
    "lon": -97.75191
  },
  {
    "street": "Research Boulevard",
    "housenumber": "11150",
    "city": "Austin",
    "postcode": "78759",
    "lat": 30.4073935,
    "lon": -97.7470427
  },
  {
    "street": "Research Blvd, Austin",
    "housenumber": "12636",
    "city": "Austin",
    "postcode": "78759",
    "lat": 30.4304857,
    "lon": -97.7641522
  },
  {
    "street": "East 51st Street",
    "housenumber": "1801",
    "city": "Austin",
    "postcode": "78723",
    "lat": 30.3009965,
    "lon": -97.6980571
  },
  {
    "street": "Ohlen Road",
    "housenumber": "1725",
    "city": "Austin",
    "postcode": "78757",
    "lat": 30.3626624,
    "lon": -97.7185807
  },
  {
    "street": "Manor Road",
    "housenumber": "1900",
    "city": "Austin",
    "postcode": "78722",
    "lat": 30.2840559,
    "lon": -97.721778
  },
  {
    "street": "Ohlen Road",
    "housenumber": "1725",
    "city": "Austin",
    "postcode": "78757",
    "lat": 30.3626907,
    "lon": -97.7184204
  },
  {
    "street": "Manor Road",
    "housenumber": "2611",
    "city": "Austin",
    "postcode": "78722",
    "lat": 30.2847133,
    "lon": -97.7149412
  },
  {
    "street": "N Interstate 35 Frontage Rd",
    "housenumber": "3301",
    "city": "Austin",
    "postcode": "78722",
    "lat": 30.2909325,
    "lon": -97.7216786
  },
  {
    "street": "East 12th Street",
    "housenumber": "4140",
    "city": "Austin",
    "postcode": "78721",
    "lat": 30.2792485,
    "lon": -97.6871767
  },
  {
    "street": "Far West Boulevard",
    "housenumber": "3616",
    "city": "Austin",
    "postcode": "78731",
    "lat": 30.3548269,
    "lon": -97.7552539
  },
  {
    "street": "East Cesar Chavez Street",
    "housenumber": "1201",
    "city": "Austin",
    "postcode": "78702",
    "lat": 30.2597643,
    "lon": -97.7325683
  },
  {
    "street": "South Congress Avenue",
    "housenumber": "1510",
    "city": "Austin",
    "postcode": "78704",
    "lat": 30.248576,
    "lon": -97.7503293
  },
  {
    "street": "West Canyon Ridge Drive",
    "housenumber": "500",
    "city": "Austin",
    "postcode": "78753",
    "lat": 30.4044232,
    "lon": -97.672393
  },
  {
    "street": "West Canyon Ridge Drive",
    "housenumber": "500",
    "city": "Austin",
    "postcode": "78753",
    "lat": 30.4043272,
    "lon": -97.6723899
  },
  {
    "street": "North Lamar Boulevard",
    "housenumber": "12410",
    "city": "Austin",
    "postcode": "78753",
    "lat": 30.4071439,
    "lon": -97.6790975
  },
  {
    "street": "Canyon Ridge Drive",
    "housenumber": "500",
    "city": "Austin",
    "postcode": "78753",
    "lat": 30.4054433,
    "lon": -97.6740146
  },
  {
    "street": "South Congress Avenue",
    "housenumber": "1400",
    "city": "Austin",
    "postcode": "78704",
    "lat": 30.2496642,
    "lon": -97.7499575
  },
  {
    "street": "Manor Road",
    "housenumber": "1917",
    "city": "Austin",
    "postcode": "78722",
    "lat": 30.2837405,
    "lon": -97.7212605
  },
  {
    "street": "North Lamar Boulevard",
    "housenumber": "4200",
    "city": "Austin",
    "lat": 30.3104716,
    "lon": -97.7401083
  },
  {
    "street": "North Lamar Boulevard",
    "housenumber": "4200",
    "city": "Austin",
    "postcode": "78756",
    "lat": 30.3106073,
    "lon": -97.7400068
  },
  {
    "street": "North Lamar Boulevard",
    "housenumber": "4200",
    "city": "Austin",
    "lat": 30.3107699,
    "lon": -97.7398856
  },
  {
    "street": "Guadalupe Street",
    "housenumber": "2247",
    "city": "Austin",
    "postcode": "78712",
    "lat": 30.2861309,
    "lon": -97.7413275
  },
  {
    "street": "East Martin Luther King Jr Boulevard",
    "housenumber": "2001",
    "city": "Austin",
    "postcode": "78702",
    "lat": 30.2797982,
    "lon": -97.7196272
  },
  {
    "street": "South Lamar Boulevard",
    "housenumber": "3003",
    "city": "Austin",
    "postcode": "78704",
    "lat": 30.2425053,
    "lon": -97.783148
  },
  {
    "street": "East 51st Street",
    "housenumber": "1801",
    "city": "Austin",
    "postcode": "78723",
    "lat": 30.3033508,
    "lon": -97.6988695
  },
  {
    "street": "Spyglass Drive",
    "housenumber": "1500",
    "city": "Austin",
    "postcode": "78746",
    "lat": 30.2584172,
    "lon": -97.787687
  },
  {
    "street": "South Congress Avenue",
    "housenumber": "1920",
    "city": "Austin",
    "lat": 30.2444789,
    "lon": -97.7519802
  },
  {
    "street": "Medical Parkway",
    "housenumber": "4112",
    "city": "Austin",
    "postcode": "78756",
    "lat": 30.3110713,
    "lon": -97.7428611
  },
  {
    "street": "South Lamar Boulevard",
    "housenumber": "3003",
    "city": "Austin",
    "postcode": "78704",
    "lat": 30.2422172,
    "lon": -97.7835352
  },
  {
    "street": "Red River Street",
    "housenumber": "912",
    "city": "Austin",
    "lat": 30.2700576,
    "lon": -97.7360877
  },
  {
    "street": "West Anderson Lane",
    "housenumber": "1809",
    "city": "Austin",
    "lat": 30.3532415,
    "lon": -97.7256708
  },
  {
    "street": "Airport Boulevard",
    "housenumber": "5312",
    "city": "Austin",
    "postcode": "78751",
    "lat": 30.3148694,
    "lon": -97.7153301
  },
  {
    "street": "South Lamar Boulevard",
    "housenumber": "2310",
    "city": "Austin",
    "lat": 30.2475144,
    "lon": -97.7747477
  },
  {
    "street": "East 6th Street",
    "housenumber": "1618",
    "city": "Austin",
    "lat": 30.262939,
    "lon": -97.7250128
  },
  {
    "street": "Research Boulevard",
    "housenumber": "8557",
    "city": "Austin",
    "lat": 30.3612166,
    "lon": -97.7152245
  },
  {
    "street": "Congress Avenue",
    "housenumber": "823",
    "city": "Austin",
    "postcode": "78701",
    "lat": 30.2705292,
    "lon": -97.7414985
  },
  {
    "street": "Manor Road",
    "housenumber": "2113",
    "city": "Austin",
    "postcode": "78722",
    "lat": 30.2839954,
    "lon": -97.7195394
  },
  {
    "street": "East 6th Street",
    "housenumber": "517",
    "city": "Austin",
    "lat": 30.2665007,
    "lon": -97.7376596
  },
  {
    "street": "Burnet Road",
    "housenumber": "6555",
    "city": "Austin",
    "postcode": "78757",
    "lat": 30.3413397,
    "lon": -97.738314
  },
  {
    "street": "West 2nd Street",
    "housenumber": "242",
    "city": "Austin",
    "lat": 30.2650419,
    "lon": -97.7460802
  },
  {
    "street": "South Congress Avenue",
    "housenumber": "3001",
    "city": "Austin",
    "lat": 30.2326024,
    "lon": -97.7562269
  },
  {
    "street": "Congress Avenue",
    "housenumber": "401",
    "city": "Austin",
    "lat": 30.2662841,
    "lon": -97.7431138
  },
  {
    "street": "Burnet Road",
    "housenumber": "7301",
    "city": "Austin",
    "lat": 30.3487955,
    "lon": -97.7350656
  },
  {
    "street": "Rio Grande Street",
    "housenumber": "510",
    "city": "Austin",
    "lat": 30.2696325,
    "lon": -97.7498966
  },
  {
    "street": "West Anderson Lane",
    "housenumber": "2700",
    "city": "Austin",
    "postcode": "78757",
    "lat": 30.3600465,
    "lon": -97.7348892
  },
  {
    "street": "Balcones Drive",
    "housenumber": "5311",
    "city": "Austin",
    "postcode": "78731",
    "lat": 30.3354395,
    "lon": -97.7582669
  },
  {
    "street": "Brodie Lane",
    "housenumber": "9911",
    "city": "Austin",
    "postcode": "78748",
    "lat": 30.1845604,
    "lon": -97.8475973
  },
  {
    "street": "Mesa Drive",
    "housenumber": "8040",
    "city": "Austin",
    "postcode": "78731",
    "lat": 30.371798,
    "lon": -97.7581427
  },
  {
    "street": "East 7th Street",
    "housenumber": "1405",
    "city": "Austin",
    "postcode": "78702",
    "lat": 30.2642837,
    "lon": -97.7277618
  },
  {
    "street": "West Ben White Boulevard",
    "housenumber": "2025",
    "city": "Austin",
    "postcode": "78704",
    "lat": 30.2294299,
    "lon": -97.7904375
  },
  {
    "street": "Newton Street",
    "housenumber": "1711",
    "city": "Austin",
    "postcode": "78704",
    "lat": 30.246835,
    "lon": -97.7529925
  },
  {
    "street": "Airport Boulevard",
    "housenumber": "5420",
    "city": "Austin",
    "postcode": "78751",
    "lat": 30.3167177,
    "lon": -97.7142604
  },
  {
    "street": "West 5th Street",
    "housenumber": "1611",
    "city": "Austin",
    "postcode": "78703",
    "lat": 30.2744898,
    "lon": -97.7646296
  },
  {
    "street": "West 5th Street",
    "housenumber": "1611",
    "city": "Austin",
    "postcode": "78703",
    "lat": 30.2743154,
    "lon": -97.7644066
  },
  {
    "street": "East 7th Street",
    "housenumber": "1623",
    "city": "Austin",
    "postcode": "78702",
    "lat": 30.2630554,
    "lon": -97.7244128
  },
  {
    "street": "East 6th Street",
    "housenumber": "1707",
    "city": "Austin",
    "postcode": "78702",
    "lat": 30.2615741,
    "lon": -97.7243534
  },
  {
    "street": "Duval Street",
    "housenumber": "4230",
    "city": "Austin",
    "postcode": "78751",
    "lat": 30.3045094,
    "lon": -97.7264373
  },
  {
    "street": "Guadalupe Street",
    "housenumber": "4125",
    "city": "Austin",
    "postcode": "78751",
    "lat": 30.3071141,
    "lon": -97.7352277
  },
  {
    "street": "Guadalupe Street",
    "housenumber": "4119",
    "city": "Austin",
    "postcode": "78751",
    "lat": 30.3069687,
    "lon": -97.7353169
  },
  {
    "street": "West 2nd Street",
    "housenumber": "221",
    "city": "Austin",
    "lat": 30.2646782,
    "lon": -97.7460563
  },
  {
    "street": "Colorado Street",
    "housenumber": "206",
    "city": "Austin",
    "lat": 30.265297,
    "lon": -97.74553
  },
  {
    "street": "West 2nd Street",
    "housenumber": "201",
    "city": "Austin",
    "lat": 30.2646368,
    "lon": -97.7458184
  },
  {
    "street": "West 2nd Street",
    "housenumber": "233",
    "city": "Austin",
    "lat": 30.2647398,
    "lon": -97.7462694
  },
  {
    "street": "West 3rd Street",
    "housenumber": "209",
    "city": "Austin",
    "lat": 30.2656354,
    "lon": -97.7456894
  },
  {
    "street": "West 2nd Street",
    "housenumber": "213",
    "city": "Austin",
    "lat": 30.2646485,
    "lon": -97.7459275
  },
  {
    "street": "West 3rd Street",
    "housenumber": "247",
    "city": "Austin",
    "postcode": "78701",
    "lat": 30.2657187,
    "lon": -97.7460186
  },
  {
    "street": "West 2nd Street",
    "housenumber": "249",
    "city": "Austin",
    "lat": 30.2647907,
    "lon": -97.7464805
  },
  {
    "street": "West 3rd Street",
    "housenumber": "301",
    "city": "Austin",
    "postcode": "78701",
    "lat": 30.2658493,
    "lon": -97.7465097
  },
  {
    "street": "West 2nd Street",
    "housenumber": "225",
    "city": "Austin",
    "lat": 30.2646994,
    "lon": -97.7461213
  },
  {
    "street": "West 3rd Street",
    "housenumber": "237",
    "city": "Austin",
    "postcode": "78701",
    "lat": 30.2656684,
    "lon": -97.7458194
  },
  {
    "street": "West 2nd Street",
    "housenumber": "237",
    "city": "Austin",
    "lat": 30.2647576,
    "lon": -97.7463454
  },
  {
    "street": "West 2nd Street",
    "housenumber": "217",
    "city": "Austin",
    "lat": 30.2646629,
    "lon": -97.7459918
  },
  {
    "street": "West 3rd Street",
    "housenumber": "241",
    "city": "Austin",
    "postcode": "78701",
    "lat": 30.2656885,
    "lon": -97.7458792
  },
  {
    "street": "West 2nd Street",
    "housenumber": "258",
    "city": "Austin",
    "lat": 30.2651262,
    "lon": -97.7463264
  },
  {
    "street": "Colorado Street",
    "housenumber": "208",
    "city": "Austin",
    "lat": 30.2654172,
    "lon": -97.7455059
  },
  {
    "street": "West 2nd Street",
    "housenumber": "229",
    "city": "Austin",
    "lat": 30.2647205,
    "lon": -97.7461943
  },
  {
    "street": "West 3rd Street",
    "housenumber": "231",
    "city": "Austin",
    "postcode": "78701",
    "lat": 30.2656546,
    "lon": -97.7457548
  },
  {
    "street": "West 2nd Street",
    "housenumber": "209",
    "city": "Austin",
    "lat": 30.2646352,
    "lon": -97.7458776
  },
  {
    "street": "West 2nd Street",
    "housenumber": "241",
    "city": "Austin",
    "lat": 30.2647741,
    "lon": -97.7464146
  },
  {
    "street": "West 3rd Street",
    "housenumber": "205",
    "city": "Austin",
    "postcode": "78701",
    "lat": 30.2656186,
    "lon": -97.7456335
  },
  {
    "street": "Lavaca Street",
    "housenumber": "215",
    "city": "Austin",
    "postcode": "78701",
    "lat": 30.2656149,
    "lon": -97.7462012
  },
  {
    "street": "West 2nd Street",
    "housenumber": "411",
    "city": "Austin",
    "lat": 30.2652984,
    "lon": -97.7483057
  },
  {
    "street": "West 2nd Street",
    "housenumber": "452",
    "city": "Austin",
    "lat": 30.2656885,
    "lon": -97.7484551
  },
  {
    "street": "West 2nd Street",
    "housenumber": "408",
    "city": "Austin",
    "lat": 30.2656151,
    "lon": -97.7478941
  },
  {
    "street": "West 2nd Street",
    "housenumber": "417",
    "city": "Austin",
    "lat": 30.265368,
    "lon": -97.7485117
  },
  {
    "street": "West 2nd Street",
    "housenumber": "436",
    "city": "Austin",
    "lat": 30.2656622,
    "lon": -97.7481675
  },
  {
    "street": "West 2nd Street",
    "housenumber": "400",
    "city": "Austin",
    "lat": 30.265572,
    "lon": -97.7477644
  },
  {
    "street": "West 2nd Street",
    "housenumber": "430",
    "city": "Austin",
    "lat": 30.2656365,
    "lon": -97.7480052
  },
  {
    "street": "West 2nd Street",
    "housenumber": "450",
    "city": "Austin",
    "lat": 30.2656742,
    "lon": -97.7483921
  },
  {
    "street": "West 2nd Street",
    "housenumber": "403",
    "city": "Austin",
    "lat": 30.2652372,
    "lon": -97.7480632
  },
  {
    "street": "West 2nd Street",
    "housenumber": "417 1/2",
    "city": "Austin",
    "lat": 30.2653884,
    "lon": -97.7485957
  },
  {
    "street": "Nueces Street",
    "housenumber": "360",
    "city": "Austin",
    "postcode": "78701",
    "lat": 30.2670293,
    "lon": -97.7495947
  },
  {
    "street": "Nueces Street",
    "housenumber": "Suite 70",
    "city": "Austin",
    "lat": 30.2674916,
    "lon": -97.7494254
  },
  {
    "street": "Nueces Street",
    "housenumber": "360",
    "city": "Austin",
    "postcode": "78701",
    "lat": 30.2676672,
    "lon": -97.7493712
  },
  {
    "street": "Nueces Street",
    "housenumber": "360",
    "city": "Austin",
    "postcode": "78701",
    "lat": 30.2674245,
    "lon": -97.7494501
  },
  {
    "street": "Nueces Street",
    "housenumber": "360",
    "city": "Austin",
    "postcode": "78701",
    "lat": 30.2675522,
    "lon": -97.7494041
  },
  {
    "street": "Nueces Street",
    "housenumber": "Suite 40",
    "city": "Austin",
    "lat": 30.2671349,
    "lon": -97.749548
  },
  {
    "street": "South Lamar Boulevard",
    "housenumber": "1500",
    "city": "Austin",
    "postcode": "78704",
    "lat": 30.2525756,
    "lon": -97.7642578
  },
  {
    "street": "South Lamar Boulevard",
    "housenumber": "1500",
    "city": "Austin",
    "postcode": "78704",
    "lat": 30.2522862,
    "lon": -97.764434
  },
  {
    "street": "Guadalupe Street",
    "housenumber": "2224",
    "city": "Austin",
    "postcode": "78705",
    "lat": 30.2857656,
    "lon": -97.741805
  },
  {
    "street": "Spence Street",
    "housenumber": "808",
    "city": "Austin",
    "lat": 30.25923,
    "lon": -97.736196
  },
  {
    "street": "South Lamar Boulevard",
    "housenumber": "2300",
    "city": "Austin",
    "postcode": "78704",
    "lat": 30.2477449,
    "lon": -97.7745241
  },
  {
    "street": "Berkeley Avenue",
    "housenumber": "2407",
    "city": "Austin",
    "postcode": "78745",
    "lat": 30.2098936,
    "lon": -97.8083357
  },
  {
    "street": "Manchaca Road",
    "housenumber": "4600",
    "city": "Austin",
    "postcode": "78745",
    "lat": 30.2271038,
    "lon": -97.7910429
  },
  {
    "street": "west 2nd Street",
    "housenumber": "310",
    "city": "Austin",
    "lat": 30.2653725,
    "lon": -97.7469478
  },
  {
    "street": "Burnet Road",
    "housenumber": "4930",
    "city": "Austin",
    "postcode": "78756",
    "lat": 30.3209738,
    "lon": -97.7395031
  },
  {
    "street": "South Lamar Blvd.",
    "housenumber": "2055",
    "city": "Austin",
    "postcode": "78704",
    "lat": 30.248218,
    "lon": -97.7695733
  },
  {
    "street": "East Ben White Boulevard",
    "housenumber": "4501",
    "city": "Austin",
    "postcode": "78714",
    "lat": 30.2144972,
    "lon": -97.7342912
  },
  {
    "street": "Burleson Road",
    "housenumber": "5214",
    "city": "Austin",
    "postcode": "78744",
    "lat": 30.2105893,
    "lon": -97.726309
  },
  {
    "street": "East Ben White",
    "housenumber": "500",
    "city": "Austin",
    "postcode": "78704",
    "lat": 30.2212809,
    "lon": -97.7567727
  },
  {
    "street": "East Ben White Boulevard",
    "housenumber": "7709",
    "city": "Austin",
    "postcode": "78741",
    "lat": 30.217749,
    "lon": -97.689724
  },
  {
    "street": "North Lamar Boulevard suite #B100",
    "housenumber": "5555",
    "city": "Austin",
    "postcode": "78751",
    "lat": 30.3239455,
    "lon": -97.726421
  },
  {
    "street": "Burnet Road",
    "housenumber": "8515",
    "city": "Austin",
    "postcode": "78757",
    "lat": 30.3670216,
    "lon": -97.7275902
  },
  {
    "street": "9600 IH 35 C-200",
    "housenumber": "9600",
    "city": "Austin",
    "postcode": "78748",
    "lat": 30.1612853,
    "lon": -97.7919106
  },
  {
    "street": "S IH 35",
    "housenumber": "9600",
    "city": "Austin",
    "postcode": "78748",
    "lat": 30.1611386,
    "lon": -97.7915461
  },
  {
    "street": "Center Ridge Drive",
    "housenumber": "611",
    "city": "Round Rock",
    "postcode": "78753",
    "lat": 30.4139027,
    "lon": -97.6664725
  },
  {
    "street": "Wall Street",
    "housenumber": "8606",
    "city": "Austin",
    "postcode": "78754",
    "lat": 30.3395556,
    "lon": -97.672499
  },
  {
    "street": "Bluebonnet Lane",
    "housenumber": "1701",
    "city": "Austin",
    "postcode": "78704",
    "lat": 30.2545352,
    "lon": -97.771805
  },
  {
    "street": "East 7th Street",
    "housenumber": "2136",
    "city": "Austin",
    "postcode": "78702",
    "lat": 30.2618724,
    "lon": -97.7182535
  },
  {
    "street": "South Lamar Boulevard",
    "housenumber": "1509",
    "city": "Austin",
    "postcode": "78704",
    "lat": 30.2520019,
    "lon": -97.7638478
  },
  {
    "street": "Walter Seaholm Dr",
    "housenumber": "211",
    "city": "Austin",
    "postcode": "78701",
    "lat": 30.2679551,
    "lon": -97.7530453
  },
  {
    "street": "Industrial Oaks Boulevard",
    "housenumber": "5321",
    "city": "Austin",
    "postcode": "78735",
    "lat": 30.2394202,
    "lon": -97.8393064
  },
  {
    "street": "Guadalupe Street",
    "housenumber": "3202 Ste A",
    "city": "Austin",
    "postcode": "78705",
    "lat": 30.2993758,
    "lon": -97.7407578
  },
  {
    "street": "Anderson Mill Road",
    "housenumber": "8863",
    "city": "Austin",
    "postcode": "78729",
    "lat": 30.453921,
    "lon": -97.772406
  },
  {
    "street": "North Interstate Highway 35",
    "housenumber": "11441",
    "city": "Austin",
    "postcode": "78753",
    "lat": 30.3781289,
    "lon": -97.6724682
  },
  {
    "street": "San Marcos Street",
    "housenumber": "500",
    "city": "Austin",
    "postcode": "78702",
    "lat": 30.2644493,
    "lon": -97.7330414
  },
  {
    "street": "West Rundberg Lane",
    "housenumber": "1000",
    "city": "Austin",
    "postcode": "78758",
    "lat": 30.3651608,
    "lon": -97.7000587
  },
  {
    "street": "Asmara Drive",
    "housenumber": "5317",
    "city": "Austin",
    "lat": 30.390631,
    "lon": -97.80524
  },
  {
    "street": "Cardin Drive",
    "housenumber": "8103",
    "city": "Austin",
    "postcode": "78759",
    "lat": 30.3688554,
    "lon": -97.7503496
  },
  {
    "street": "Cardin Drive",
    "housenumber": "8000",
    "city": "Austin",
    "postcode": "78759",
    "lat": 30.3671847,
    "lon": -97.7518275
  },
  {
    "street": "Cardin Drive",
    "housenumber": "8002",
    "city": "Austin",
    "postcode": "78759",
    "lat": 30.367371,
    "lon": -97.7516769
  },
  {
    "street": "Cardin Drive",
    "housenumber": "8004",
    "city": "Austin",
    "postcode": "78759",
    "lat": 30.367501,
    "lon": -97.7515601
  },
  {
    "street": "Cardin Drive",
    "housenumber": "8006",
    "city": "Austin",
    "postcode": "78759",
    "lat": 30.3676702,
    "lon": -97.7514235
  },
  {
    "street": "Cardin Drive",
    "housenumber": "8001",
    "city": "Austin",
    "postcode": "78759",
    "lat": 30.366938,
    "lon": -97.7514229
  },
  {
    "street": "Cardin Drive",
    "housenumber": "8003",
    "city": "Austin",
    "postcode": "78759",
    "lat": 30.3671319,
    "lon": -97.7512867
  },
  {
    "street": "Cardin Drive",
    "housenumber": "8005",
    "city": "Austin",
    "postcode": "78759",
    "lat": 30.3672831,
    "lon": -97.7511717
  },
  {
    "street": "Cardin Drive",
    "housenumber": "8007",
    "city": "Austin",
    "postcode": "78759",
    "lat": 30.3674296,
    "lon": -97.7510212
  },
  {
    "street": "Cardin Drive",
    "housenumber": "8009",
    "city": "Austin",
    "postcode": "78759",
    "lat": 30.3676083,
    "lon": -97.750931
  },
  {
    "street": "East Cesar Chavez Street",
    "housenumber": "1010",
    "city": "Austin",
    "postcode": "78702",
    "lat": 30.260505,
    "lon": -97.733706
  },
  {
    "street": "West Gate Boulevard",
    "housenumber": "6816",
    "city": "Austin",
    "postcode": "78745",
    "lat": 30.2079458,
    "lon": -97.8154229
  },
  {
    "street": "Colorado Street",
    "housenumber": "404",
    "city": "Austin",
    "postcode": "78701",
    "lat": 30.2669654,
    "lon": -97.7448469
  },
  {
    "street": "Manor Road",
    "housenumber": "2200",
    "city": "Austin",
    "postcode": "78722",
    "lat": 30.2844226,
    "lon": -97.7194198
  },
  {
    "street": "Manor Road",
    "housenumber": "2002",
    "city": "Austin",
    "postcode": "78722",
    "lat": 30.2843995,
    "lon": -97.7203077
  },
  {
    "street": "Burnet Road #8",
    "housenumber": "5350",
    "city": "Austin",
    "postcode": "78756",
    "lat": 30.3275046,
    "lon": -97.7399214
  },
  {
    "street": "Burnet Road",
    "housenumber": "5335",
    "city": "Austin",
    "postcode": "78756",
    "lat": 30.3268687,
    "lon": -97.7394092
  },
  {
    "street": "Westbank Drive",
    "housenumber": "4301",
    "city": "Austin",
    "postcode": "78746",
    "lat": 30.2761272,
    "lon": -97.817697
  }
]