[
  {
    "street": "Washington Street",
    "housenumber": "438",
    "city": "Brighton",
    "postcode": "02135",
    "lat": 42.348328,
    "lon": -71.157438
  },
  {
    "street": "Newbury Street",
    "housenumber": "360",
    "city": "Boston",
    "postcode": "02115",
    "lat": 42.3480379,
    "lon": -71.0876524
  },
  {
    "street": "River Street",
    "housenumber": "500",
    "city": "Boston",
    "postcode": "02126",
    "lat": 42.2675657,
    "lon": -71.0924273
  },
  {
    "street": "Dartmouth Street",
    "housenumber": "145",
    "city": "Boston",
    "postcode": "02116",
    "lat": 42.3473297,
    "lon": -71.0749406
  },
  {
    "street": "East First Street",
    "housenumber": "764",
    "city": "Boston",
    "postcode": "02127",
    "lat": 42.3385164,
    "lon": -71.0312759
  },
  {
    "street": "Savin Hill Avenue",
    "housenumber": "121",
    "city": "Boston",
    "lat": 42.3108218,
    "lon": -71.0535376
  },
  {
    "street": "Morton Street",
    "housenumber": "180",
    "city": "Boston",
    "postcode": "02130",
    "lat": 42.2995927,
    "lon": -71.1017299
  },
  {
    "street": "Canterbury Street",
    "housenumber": "430",
    "city": "Boston",
    "postcode": "02131",
    "lat": 42.2924662,
    "lon": -71.1014102
  },
  {
    "street": "Nashua Street",
    "housenumber": "200",
    "city": "Boston",
    "postcode": "02114",
    "lat": 42.3672757,
    "lon": -71.0663292
  },
  {
    "street": "Townsend Street",
    "housenumber": "59",
    "city": "Boston",
    "lat": 42.3186645,
    "lon": -71.0923254
  },
  {
    "street": "Washington Street",
    "housenumber": "755",
    "city": "Boston",
    "postcode": "02111",
    "lat": 42.3498066,
    "lon": -71.0639959
  },
  {
    "street": "Ashburton Place",
    "housenumber": "1",
    "city": "Boston",
    "postcode": "02108",
    "lat": 42.3593842,
    "lon": -71.0623249
  },
  {
    "street": "Hyde Park Avenue",
    "housenumber": "1249",
    "city": "Boston",
    "postcode": "02136",
    "lat": 42.2564288,
    "lon": -71.1242782
  },
  {
    "street": "Centre Street",
    "housenumber": "1708",
    "city": "Boston",
    "postcode": "02132",
    "lat": 42.2867829,
    "lon": -71.1484246
  },
  {
    "street": "Washington Street",
    "housenumber": "301",
    "city": "Boston",
    "postcode": "02135",
    "lat": 42.3493611,
    "lon": -71.1505902
  },
  {
    "street": "Blue Hill Avenue",
    "housenumber": "1165",
    "city": "Boston",
    "postcode": "02124",
    "lat": 42.2846826,
    "lon": -71.0916905
  },
  {
    "street": "Warren Avenue",
    "housenumber": "7",
    "city": "Boston",
    "postcode": "02137",
    "lat": 42.2532789,
    "lon": -71.1180611
  },
  {
    "street": "London Street",
    "housenumber": "145",
    "city": "Boston",
    "postcode": "02128",
    "lat": 42.373846,
    "lon": -71.0382464
  },
  {
    "street": "Frontage Road",
    "housenumber": "200",
    "city": "Boston",
    "postcode": "02118",
    "lat": 42.3378694,
    "lon": -71.0635188
  },
  {
    "street": "Massport Haul Road",
    "housenumber": "100",
    "city": "South Boston",
    "postcode": "02210",
    "lat": 42.3460868,
    "lon": -71.039657
  },
  {
    "street": "Washington Street",
    "housenumber": "3345",
    "city": "Jamaica Plain",
    "postcode": "02130",
    "lat": 42.3096859,
    "lon": -71.1046118
  },
  {
    "street": "West Broadway",
    "housenumber": "101",
    "city": "Boston",
    "postcode": "02127",
    "lat": 42.3411265,
    "lon": -71.0549541
  },
  {
    "street": "Edgewood Street",
    "housenumber": "7",
    "city": "Boston",
    "postcode": "02113",
    "lat": 42.3185903,
    "lon": -71.0809867
  },
  {
    "street": "Gibson Street",
    "housenumber": "40",
    "city": "Boston",
    "postcode": "02122",
    "lat": 42.2980276,
    "lon": -71.0590886
  },
  {
    "street": "Williams Avenue",
    "housenumber": "81",
    "city": "Boston",
    "postcode": "02136",
    "lat": 42.2482006,
    "lon": -71.1172368
  },
  {
    "street": "Bradston Street",
    "housenumber": "20",
    "city": "Boston",
    "postcode": "02118",
    "lat": 42.3336821,
    "lon": -71.0683257
  },
  {
    "street": "Columbia Road",
    "housenumber": "641",
    "city": "Boston",
    "postcode": "02122",
    "lat": 42.3183276,
    "lon": -71.0632676
  },
  {
    "street": "Boylston Street",
    "housenumber": "941",
    "city": "Boston",
    "postcode": "02118",
    "lat": 42.3480675,
    "lon": -71.0855303
  },
  {
    "street": "Huntington Avenue",
    "housenumber": "560",
    "city": "Boston",
    "postcode": "02119",
    "lat": 42.3371951,
    "lon": -71.0960914
  },
  {
    "street": "Blue Hill Avenue",
    "housenumber": "975",
    "city": "Boston",
    "postcode": "02124",
    "lat": 42.2908822,
    "lon": -71.0896182
  },
  {
    "street": "Gallivan Boulevard",
    "housenumber": "9",
    "city": "Boston",
    "postcode": "02124",
    "lat": 42.2782692,
    "lon": -71.0787474
  },
  {
    "street": "Saratoga Street",
    "housenumber": "360",
    "city": "Boston",
    "postcode": "02128",
    "lat": 42.3791,
    "lon": -71.0302213
  },
  {
    "street": "Purchase Street",
    "housenumber": "125",
    "city": "Boston",
    "postcode": "02110",
    "lat": 42.3549685,
    "lon": -71.0529122
  },
  {
    "street": "East Fourth Street",
    "housenumber": "700",
    "city": "Boston",
    "postcode": "02127",
    "lat": 42.3349826,
    "lon": -71.0371376
  },
  {
    "street": "Columbus Avenue",
    "housenumber": "1870",
    "city": "Boston",
    "postcode": "02119",
    "lat": 42.3183967,
    "lon": -71.0977763
  },
  {
    "street": "Parish Street",
    "housenumber": "7",
    "city": "Boston",
    "postcode": "02122",
    "lat": 42.3077417,
    "lon": -71.0616123
  },
  {
    "street": "Neponset Avenue",
    "housenumber": "301",
    "city": "Boston",
    "postcode": "02122",
    "lat": 42.2885707,
    "lon": -71.0477989
  },
  {
    "street": "Tremont Street",
    "housenumber": "700",
    "city": "Boston",
    "postcode": "02118",
    "lat": 42.3405215,
    "lon": -71.0775392
  },
  {
    "street": "Kneeland Street",
    "housenumber": "175",
    "city": "Boston",
    "postcode": "02111",
    "lat": 42.3495737,
    "lon": -71.0578805
  },
  {
    "street": "Canterbury Street",
    "housenumber": "945",
    "city": "Boston",
    "postcode": "02131",
    "lat": 42.2789955,
    "lon": -71.1174661
  },
  {
    "street": "Centre Street",
    "housenumber": "746",
    "city": "Boston",
    "postcode": "02130",
    "lat": 42.3105415,
    "lon": -71.1144181
  },
  {
    "street": "Main Street",
    "housenumber": "525",
    "city": "Boston",
    "postcode": "02129",
    "lat": 42.383825,
    "lon": -71.071579
  },
  {
    "street": "Washington Street",
    "housenumber": "36",
    "city": "Boston",
    "postcode": "02122",
    "lat": 42.3074868,
    "lon": -71.0821723
  },
  {
    "street": "Harborside Drive",
    "housenumber": "162",
    "city": "Boston",
    "postcode": "02128",
    "lat": 42.3574557,
    "lon": -71.0177962
  },
  {
    "street": "Washington Street",
    "housenumber": "5115",
    "city": "Boston",
    "postcode": "02132",
    "lat": 42.2639868,
    "lon": -71.1548054
  },
  {
    "street": "Chestnut Hill Avenue",
    "housenumber": "138",
    "city": "Boston",
    "postcode": "02127",
    "lat": 42.3427021,
    "lon": -71.1534743
  },
  {
    "street": "Fairmount Avenue",
    "housenumber": "60",
    "city": "Boston",
    "postcode": "02136",
    "lat": 42.2551417,
    "lon": -71.1198375
  },
  {
    "street": "D Street",
    "housenumber": "272",
    "city": "Boston",
    "postcode": "02127",
    "lat": 42.3396213,
    "lon": -71.0505004
  },
  {
    "street": "Dorchester Avenue",
    "housenumber": "1216",
    "city": "Dorchester",
    "postcode": "02125",
    "lat": 42.3088801,
    "lon": -71.0561422
  },
  {
    "street": "Huntington Avenue",
    "housenumber": "621",
    "city": "Boston",
    "lat": 42.3368236,
    "lon": -71.098744
  },
  {
    "street": "Stuart Street",
    "housenumber": "154",
    "city": "Boston",
    "lat": 42.3508011,
    "lon": -71.0665318
  },
  {
    "street": "Guest Street",
    "housenumber": "1",
    "city": "Boston",
    "postcode": "02135",
    "lat": 42.3570746,
    "lon": -71.148036
  },
  {
    "street": "Fruit Street",
    "housenumber": "55",
    "city": "Boston",
    "lat": 42.3627265,
    "lon": -71.0674149
  },
  {
    "street": "Park Plaza",
    "housenumber": "10",
    "city": "Boston",
    "postcode": "02116",
    "lat": 42.3517086,
    "lon": -71.0674336
  },
  {
    "street": "Fenway",
    "housenumber": "230",
    "city": "Boston",
    "postcode": "02115",
    "lat": 42.3388012,
    "lon": -71.0967338
  },
  {
    "street": "Medford Street",
    "housenumber": "240",
    "city": "Charlestown",
    "postcode": "02129",
    "lat": 42.3812739,
    "lon": -71.0608723
  },
  {
    "street": "William T. Morrissey Boulevard",
    "housenumber": "150",
    "city": "Dorchester",
    "postcode": "02125",
    "lat": 42.3167344,
    "lon": -71.0456409
  },
  {
    "street": "Parker Hill Avenue",
    "housenumber": "125",
    "city": "Boston",
    "lat": 42.329771,
    "lon": -71.1068275
  },
  {
    "street": "Ashburton Place",
    "housenumber": "8",
    "city": "Boston",
    "postcode": "02133",
    "lat": 42.3589785,
    "lon": -71.061772
  },
  {
    "street": "Magnolia Street",
    "housenumber": "206",
    "city": "Dorchester",
    "lat": 42.3114342,
    "lon": -71.0733773
  },
  {
    "street": "Fenway",
    "housenumber": "8",
    "city": "Boston",
    "postcode": "02215",
    "lat": 42.3454876,
    "lon": -71.0903462
  },
  {
    "street": "Boylston Street",
    "housenumber": "120",
    "city": "Boston",
    "postcode": "02116",
    "lat": 42.3522439,
    "lon": -71.0655492
  },
  {
    "street": "Parish Street",
    "housenumber": "1",
    "city": "Dorchester",
    "postcode": "02122",
    "lat": 42.3083577,
    "lon": -71.0609723
  },
  {
    "street": "Newbury Street",
    "housenumber": "99-101",
    "city": "Boston",
    "postcode": "02116",
    "lat": 42.3517414,
    "lon": -71.0753026
  },
  {
    "street": "Harrison Avenue",
    "housenumber": "321",
    "city": "Boston",
    "postcode": "02118",
    "lat": 42.34609,
    "lon": -71.06345
  },
  {
    "street": "Commonwealth Avenue",
    "housenumber": "989",
    "city": "Boston",
    "postcode": "02215",
    "lat": 42.3520334,
    "lon": -71.1203123
  },
  {
    "street": "Washington Street",
    "housenumber": "622",
    "city": "Dorchester",
    "postcode": "02124",
    "lat": 42.28995,
    "lon": -71.07146
  },
  {
    "street": "Washington Street",
    "housenumber": "250",
    "city": "Boston",
    "postcode": "02108",
    "lat": 42.3578104,
    "lon": -71.0577759
  },
  {
    "street": "Tremont Street",
    "housenumber": "178",
    "city": "Boston",
    "lat": 42.3520191,
    "lon": -71.0629688
  },
  {
    "street": "Townsend Street",
    "housenumber": "205",
    "city": "Boston",
    "lat": 42.3163726,
    "lon": -71.0851334
  },
  {
    "street": "Beacon Street",
    "housenumber": "14",
    "city": "Boston",
    "lat": 42.3578627,
    "lon": -71.0624482
  },
  {
    "street": "Washington Street",
    "housenumber": "206",
    "city": "Boston",
    "lat": 42.3586922,
    "lon": -71.0575878
  },
  {
    "street": "Charles Street",
    "housenumber": "243",
    "city": "Boston",
    "postcode": "02114",
    "lat": 42.3633915,
    "lon": -71.0694278
  },
  {
    "street": "Farnsworth Street",
    "housenumber": "44",
    "city": "Boston",
    "lat": 42.3514733,
    "lon": -71.0486803
  },
  {
    "street": "Berkeley Street",
    "housenumber": "41",
    "city": "Boston",
    "postcode": "02116",
    "lat": 42.3462039,
    "lon": -71.0702198
  },
  {
    "street": "State Street",
    "housenumber": "75",
    "city": "Boston",
    "lat": 42.3589283,
    "lon": -71.0553015
  },
  {
    "street": "Centre Street",
    "housenumber": "1153",
    "city": "Boston",
    "postcode": "02130",
    "lat": 42.301215,
    "lon": -71.1282428
  },
  {
    "street": "Bradston Street",
    "housenumber": "20",
    "city": "Boston",
    "postcode": "02118",
    "lat": 42.3329215,
    "lon": -71.0709394
  },
  {
    "street": "Morton Street",
    "housenumber": "170",
    "city": "Jamaica Plain",
    "postcode": "02130",
    "lat": 42.2991367,
    "lon": -71.1015014
  },
  {
    "street": "Post Office Square",
    "housenumber": "5",
    "city": "Boston",
    "postcode": "02109",
    "lat": 42.3569831,
    "lon": -71.0568523
  },
  {
    "street": "Farnsworth Street",
    "housenumber": "44",
    "city": "Boston",
    "lat": 42.3515705,
    "lon": -71.0485784
  },
  {
    "street": "Winter Street",
    "housenumber": "1",
    "city": "Boston",
    "lat": 42.35559,
    "lon": -71.06053
  },
  {
    "street": "VFW Parkway",
    "housenumber": "1400",
    "city": "West Roxbury",
    "postcode": "02132",
    "lat": 42.275538,
    "lon": -71.1721988
  },
  {
    "street": "Francis Street",
    "housenumber": "75",
    "city": "Boston",
    "postcode": "02115",
    "lat": 42.336164,
    "lon": -71.1069506
  },
  {
    "street": "Baker Street",
    "housenumber": "235",
    "city": "West Roxbury",
    "postcode": "02132",
    "lat": 42.2776923,
    "lon": -71.1657802
  },
  {
    "street": "Pemberton Square",
    "housenumber": "1",
    "city": "Boston",
    "postcode": "02108",
    "lat": 42.358874,
    "lon": -71.0611127
  },
  {
    "street": "Gainsborough Street",
    "housenumber": "33",
    "city": "Boston",
    "postcode": "02115",
    "lat": 42.3413628,
    "lon": -71.0861271
  },
  {
    "street": "Massachusetts Avenue",
    "housenumber": "300",
    "city": "Boston",
    "lat": 42.3432777,
    "lon": -71.0851429
  },
  {
    "street": "Francis Street",
    "housenumber": "75",
    "city": "Boston",
    "postcode": "02115",
    "lat": 42.3363949,
    "lon": -71.107225
  },
  {
    "street": "Stuart Street",
    "housenumber": "250",
    "city": "Boston",
    "postcode": "02116",
    "lat": 42.3501823,
    "lon": -71.0690611
  },
  {
    "street": "Harrison Avenue",
    "housenumber": "145",
    "city": "Boston",
    "postcode": "02111",
    "lat": 42.3500662,
    "lon": -71.0622921
  },
  {
    "street": "New Rutherford Avenue",
    "housenumber": "250",
    "city": "Boston",
    "lat": 42.3759427,
    "lon": -71.0702095
  },
  {
    "street": "Veterans of Foreign Wars Parkway",
    "housenumber": "1205",
    "city": "West Roxbury",
    "postcode": "02132",
    "lat": 42.2821815,
    "lon": -71.1745376
  },
  {
    "street": "Peacevale Road",
    "housenumber": "9",
    "city": "Dorchester",
    "postcode": "02124",
    "lat": 42.2857024,
    "lon": -71.0758634
  },
  {
    "street": "Cambridge Street",
    "housenumber": "736",
    "city": "Brighton",
    "postcode": "02135",
    "lat": 42.34973,
    "lon": -71.14805
  },
  {
    "street": "Newbury Street",
    "housenumber": "150",
    "city": "Boston",
    "postcode": "02116",
    "lat": 42.3505737,
    "lon": -71.0779829
  },
  {
    "street": "Brimmer Street",
    "housenumber": "17",
    "city": "Boston",
    "postcode": "02108",
    "lat": 42.3582426,
    "lon": -71.0721306
  },
  {
    "street": "Fruit Street",
    "housenumber": "55",
    "city": "Boston",
    "lat": 42.3629815,
    "lon": -71.0685994
  },
  {
    "street": "Brookline Avenue",
    "housenumber": "330",
    "city": "Boston",
    "postcode": "02215",
    "lat": 42.34128,
    "lon": -71.10468
  },
  {
    "street": "Huntington Avenue",
    "housenumber": "550",
    "city": "Boston",
    "lat": 42.3356047,
    "lon": -71.0955638
  },
  {
    "street": "Tremont Street",
    "housenumber": "120",
    "city": "Boston",
    "postcode": "02108",
    "lat": 42.3568568,
    "lon": -71.0609706
  },
  {
    "street": "Veterans of Foreign Wars Parkway",
    "housenumber": "1205",
    "city": "West Roxbury",
    "postcode": "02132",
    "lat": 42.2819989,
    "lon": -71.1741519
  },
  {
    "street": "McLellan Street",
    "housenumber": "2",
    "city": "Dorchester",
    "postcode": "02121",
    "lat": 42.3013439,
    "lon": -71.0854516
  },
  {
    "street": "Shirley Street",
    "housenumber": "6",
    "city": "Roxbury",
    "postcode": "02119",
    "lat": 42.3234921,
    "lon": -71.072836
  },
  {
    "street": "Boston Street",
    "housenumber": "52",
    "city": "Boston",
    "postcode": "02127",
    "lat": 42.3279259,
    "lon": -71.0577382
  },
  {
    "street": "Westinghouse Plaza",
    "housenumber": "1",
    "city": "Hyde Park",
    "postcode": "02136",
    "lat": 42.2455401,
    "lon": -71.1321278
  },
  {
    "street": "Leonard Street",
    "housenumber": "23",
    "city": "Boston",
    "postcode": "02122",
    "lat": 42.3012848,
    "lon": -71.0586727
  },
  {
    "street": "Marlborough Street",
    "housenumber": "107",
    "city": "Boston",
    "postcode": "02116",
    "lat": 42.3535373,
    "lon": -71.0770897
  },
  {
    "street": "Mount Vernon Street",
    "housenumber": "20",
    "city": "West Roxbury",
    "postcode": "02132",
    "lat": 42.2926585,
    "lon": -71.1522903
  },
  {
    "street": "East Newton Street",
    "housenumber": "85",
    "city": "Boston",
    "postcode": "02118",
    "lat": 42.336038,
    "lon": -71.0707256
  },
  {
    "street": "Charter Street",
    "housenumber": "16",
    "city": "Boston",
    "postcode": "02113",
    "lat": 42.3660949,
    "lon": -71.0533691
  },
  {
    "street": "Arlington Street",
    "housenumber": "152",
    "city": "Boston",
    "postcode": "02116",
    "lat": 42.3483857,
    "lon": -71.0688702
  },
  {
    "street": "Mayhew Street",
    "housenumber": "11",
    "city": "Dorchester",
    "postcode": "02125",
    "lat": 42.3216311,
    "lon": -71.060871
  },
  {
    "street": "Washington Street",
    "housenumber": "885",
    "city": "Boston",
    "postcode": "02111",
    "lat": 42.3479909,
    "lon": -71.064924
  },
  {
    "street": "Forest Hills Street",
    "housenumber": "215",
    "city": "Jamaica Plain",
    "postcode": "02130",
    "lat": 42.3051984,
    "lon": -71.1035877
  },
  {
    "street": "Beacon Street",
    "housenumber": "650",
    "city": "Boston",
    "postcode": "02215",
    "lat": 42.3493369,
    "lon": -71.095856
  },
  {
    "street": "Northampton Street",
    "housenumber": "396",
    "city": "Boston",
    "postcode": "02118",
    "lat": 42.3405802,
    "lon": -71.0839169
  },
  {
    "street": "East Broadway",
    "housenumber": "866",
    "city": "South Boston",
    "postcode": "02127",
    "lat": 42.3360441,
    "lon": -71.0296633
  },
  {
    "street": "Lamartine Street",
    "housenumber": "39",
    "city": "Jamaica Plain",
    "postcode": "02130-0947",
    "lat": 42.3215482,
    "lon": -71.1017268
  },
  {
    "street": "Marlborough Street",
    "housenumber": "245-247",
    "city": "Boston",
    "postcode": "02116",
    "lat": 42.3521992,
    "lon": -71.0819614
  },
  {
    "street": "McBride Street",
    "housenumber": "144",
    "city": "Jamaica Plain",
    "postcode": "02130",
    "lat": 42.3063673,
    "lon": -71.1092262
  },
  {
    "street": "School Street",
    "housenumber": "80",
    "city": "Roxbury",
    "postcode": "02119",
    "lat": 42.3141479,
    "lon": -71.0992242
  },
  {
    "street": "School Street",
    "housenumber": "164",
    "city": "Roxbury",
    "postcode": "02119",
    "lat": 42.3165878,
    "lon": -71.1016242
  },
  {
    "street": "Neponset Avenue",
    "housenumber": "239",
    "city": "Dorchester",
    "postcode": "02122",
    "lat": 42.2907757,
    "lon": -71.0493123
  },
  {
    "street": "Medford Street",
    "housenumber": "240",
    "city": "Charlestown",
    "postcode": "02129",
    "lat": 42.3802573,
    "lon": -71.0609101
  },
  {
    "street": "Regina Road",
    "housenumber": "22",
    "city": "Dorchester",
    "postcode": "02124",
    "lat": 42.2955955,
    "lon": -71.0708745
  },
  {
    "street": "Hyde Park Avenue",
    "housenumber": "1286",
    "city": "Hyde Park",
    "postcode": "02136",
    "lat": 42.2547984,
    "lon": -71.1237378
  },
  {
    "street": "Centre Street",
    "housenumber": "154",
    "city": "Dorchester",
    "postcode": "02124",
    "lat": 42.2930321,
    "lon": -71.0661423
  },
  {
    "street": "Shirley Street",
    "housenumber": "76",
    "city": "Roxbury",
    "postcode": "02119",
    "lat": 42.324475,
    "lon": -71.0708348
  },
  {
    "street": "South Huntington Avenue",
    "housenumber": "161",
    "city": "Jamaica Plain",
    "postcode": "02130",
    "lat": 42.3281457,
    "lon": -71.1114501
  },
  {
    "street": "Bowdoin Street",
    "housenumber": "294",
    "city": "Dorchester",
    "postcode": "02122",
    "lat": 42.3076784,
    "lon": -71.0659688
  },
  {
    "street": "Warren Street",
    "housenumber": "20",
    "city": "Brighton",
    "postcode": "02135",
    "lat": 42.3500616,
    "lon": -71.1454645
  },
  {
    "street": "Centre Avenue",
    "housenumber": "197",
    "city": "Dorchester",
    "postcode": "02124",
    "lat": 42.2919955,
    "lon": -71.0642813
  },
  {
    "street": "Arlington Street",
    "housenumber": "25",
    "city": "Brighton",
    "postcode": "02135",
    "lat": 42.3524328,
    "lon": -71.1529868
  },
  {
    "street": "Washington Street",
    "housenumber": "5125",
    "city": "West Roxbury",
    "postcode": "02132",
    "lat": 42.263526,
    "lon": -71.1558297
  },
  {
    "street": "Union Park",
    "housenumber": "74",
    "city": "Boston",
    "postcode": "02118",
    "lat": 42.3411015,
    "lon": -71.0688472
  },
  {
    "street": "Metropolitan Avenue",
    "housenumber": "655",
    "city": "Hyde Park",
    "postcode": "02136",
    "lat": 42.2633986,
    "lon": -71.1179363
  },
  {
    "street": "Charles Street",
    "housenumber": "11",
    "city": "Dorchester",
    "postcode": "02122",
    "lat": 42.3009267,
    "lon": -71.0612323
  },
  {
    "street": "Beechcroft Street",
    "housenumber": "50",
    "city": "Brighton",
    "postcode": "02135",
    "lat": 42.3511302,
    "lon": -71.1614958
  },
  {
    "street": "Blue Hill Avenue",
    "housenumber": "515",
    "city": "Dorchester",
    "postcode": "02121",
    "lat": 42.3075239,
    "lon": -71.0842792
  },
  {
    "street": "Commonwealth Avenue",
    "housenumber": "1001",
    "city": "Boston",
    "postcode": "02215",
    "lat": 42.3521128,
    "lon": -71.1209974
  },
  {
    "street": "Rita Road",
    "housenumber": "29",
    "city": "Dorchester",
    "postcode": "02124",
    "lat": 42.2819097,
    "lon": -71.0512447
  },
  {
    "street": "Babson Street",
    "housenumber": "120",
    "city": "Mattapan",
    "postcode": "02126",
    "lat": 42.2707467,
    "lon": -71.0921613
  },
  {
    "street": "Dorchester Avenue",
    "housenumber": "2214",
    "city": "Dorchester",
    "postcode": "02124",
    "lat": 42.2743918,
    "lon": -71.0672091
  },
  {
    "street": "Parker Hill Avenue",
    "housenumber": "53",
    "city": "Boston",
    "postcode": "02120",
    "lat": 42.3309702,
    "lon": -71.1100492
  },
  {
    "street": "Veterans of Foreign Wars Parkway",
    "housenumber": "1205",
    "city": "West Roxbury",
    "postcode": "02132",
    "lat": 42.2822803,
    "lon": -71.1748744
  },
  {
    "street": "Brimmer Street",
    "housenumber": "17",
    "city": "Boston",
    "postcode": "02108",
    "lat": 42.3582148,
    "lon": -71.0719535
  },
  {
    "street": "Dorchester Avenue",
    "housenumber": "1669",
    "city": "Dorchester",
    "postcode": "02122",
    "lat": 42.2939231,
    "lon": -71.0626871
  },
  {
    "street": "Armington Street",
    "housenumber": "40",
    "city": "Allston",
    "postcode": "02134",
    "lat": 42.3521617,
    "lon": -71.1375176
  },
  {
    "street": "Brimmer Street",
    "housenumber": "67",
    "city": "Boston",
    "postcode": "02108",
    "lat": 42.3563955,
    "lon": -71.0717155
  },
  {
    "street": "Harrison Avenue",
    "housenumber": "595",
    "city": "Boston",
    "postcode": "02118",
    "lat": 42.3409688,
    "lon": -71.0685895
  },
  {
    "street": "Columbia Road",
    "housenumber": "516",
    "city": "Dorchester",
    "postcode": "02125",
    "lat": 42.3151419,
    "lon": -71.0673127
  },
  {
    "street": "Brookside Avenue",
    "housenumber": "54",
    "city": "Jamaica Plain",
    "postcode": "02130",
    "lat": 42.3129652,
    "lon": -71.1034209
  },
  {
    "street": "Croftland Avenue",
    "housenumber": "18",
    "city": "Dorchester",
    "postcode": "02124",
    "lat": 42.2812487,
    "lon": -71.0695697
  },
  {
    "street": "Morton Street",
    "housenumber": "1060",
    "city": "Mattapan",
    "postcode": "02126",
    "lat": 42.2778238,
    "lon": -71.0774497
  },
  {
    "street": "Como Road",
    "housenumber": "20",
    "city": "Readville",
    "postcode": "02136",
    "lat": 42.2401336,
    "lon": -71.1369784
  },
  {
    "street": "Moon Street",
    "housenumber": "9",
    "city": "Boston",
    "postcode": "02113",
    "lat": 42.3638786,
    "lon": -71.0528614
  },
  {
    "street": "Saint Theresa Avenue",
    "housenumber": "40",
    "city": "West Roxbury",
    "postcode": "02132",
    "lat": 42.2782717,
    "lon": -71.1579704
  },
  {
    "street": "Fairfield Street",
    "housenumber": "30",
    "city": "Boston",
    "postcode": "02116",
    "lat": 42.3503117,
    "lon": -71.0823043
  },
  {
    "street": "Bowdoin Street",
    "housenumber": "284",
    "city": "Dorchester",
    "postcode": "02122",
    "lat": 42.3075539,
    "lon": -71.0660957
  },
  {
    "street": "School Street",
    "housenumber": "61",
    "city": "Roxbury",
    "postcode": "02119",
    "lat": 42.3139093,
    "lon": -71.097888
  },
  {
    "street": "Stanton Street",
    "housenumber": "29",
    "city": "Dorchester",
    "postcode": "02124",
    "lat": 42.2848418,
    "lon": -71.0802478
  },
  {
    "street": "High Street",
    "housenumber": "6",
    "city": "Boston",
    "postcode": "PE21 8SH",
    "lat": 52.9767701,
    "lon": -0.0243409
  },
  {
    "street": "Massachusetts Avenue",
    "housenumber": "1100",
    "city": "Dorchester",
    "postcode": "02125",
    "lat": 42.3264573,
    "lon": -71.0648216
  },
  {
    "street": "Witham Bank East",
    "housenumber": "3",
    "city": "Boston",
    "postcode": "PE21 9JU",
    "lat": 52.9828119,
    "lon": -0.0307313
  },
  {
    "street": "London Road",
    "housenumber": "84",
    "city": "Boston",
    "postcode": "PE21 7EQ",
    "lat": 52.9651902,
    "lon": -0.0278414
  },
  {
    "street": "Green Street",
    "housenumber": "18",
    "city": "Boston",
    "lat": 42.3130572,
    "lon": -71.1129867
  },
  {
    "street": "Green Street",
    "housenumber": "16",
    "city": "Boston",
    "lat": 42.3130697,
    "lon": -71.1130439
  },
  {
    "street": "Cambridge Street",
    "housenumber": "250",
    "city": "Boston",
    "postcode": "02114",
    "lat": 42.3609833,
    "lon": -71.067734
  },
  {
    "street": "Columbus Avenue",
    "housenumber": "398",
    "city": "Boston",
    "postcode": "02116",
    "lat": 42.3445646,
    "lon": -71.0763875
  },
  {
    "street": "Western Avenue",
    "housenumber": "436",
    "city": "Brighton",
    "postcode": "02135",
    "lat": 42.3623367,
    "lon": -71.1408231
  },
  {
    "street": "Market Place",
    "housenumber": "33-34",
    "city": "Boston",
    "postcode": "PE21 6NH",
    "lat": 52.9769422,
    "lon": -0.0233927
  },
  {
    "street": "Church Street",
    "housenumber": "4-8",
    "city": "Boston",
    "postcode": "PE21 6NW",
    "lat": 52.97767,
    "lon": -0.0248049
  },
  {
    "street": "Wormgate",
    "housenumber": "8",
    "city": "Boston",
    "postcode": "PE21 6NP",
    "lat": 52.9790661,
    "lon": -0.0257655
  },
  {
    "street": "Wormgate",
    "housenumber": "53",
    "city": "Boston",
    "postcode": "PE21 6NS",
    "lat": 52.980148,
    "lon": -0.0267744
  },
  {
    "street": "West Street",
    "housenumber": "126-130",
    "city": "Boston",
    "postcode": "PE21 8QZ",
    "lat": 52.9760839,
    "lon": -0.0297981
  },
  {
    "street": "Wide Bargate",
    "housenumber": "20",
    "city": "Boston",
    "postcode": "PE21 6RF",
    "lat": 52.9801406,
    "lon": -0.0218699
  },
  {
    "street": "Horncastle Road",
    "housenumber": "13",
    "city": "Boston",
    "postcode": "PE21 9BU",
    "lat": 52.9834903,
    "lon": -0.0187486
  },
  {
    "street": "West Street",
    "housenumber": "79",
    "city": "Boston",
    "postcode": "PE21 8QZ",
    "lat": 52.9762471,
    "lon": -0.0295384
  },
  {
    "street": "Ashley Street",
    "housenumber": "59",
    "city": "Boston",
    "postcode": "02128",
    "lat": 42.3887159,
    "lon": -71.0073425
  },
  {
    "street": "Congress Street",
    "housenumber": "306",
    "city": "Boston",
    "postcode": "02210",
    "lat": 42.3521988,
    "lon": -71.0513039
  },
  {
    "street": "Arlington Street",
    "housenumber": "122",
    "city": "Boston",
    "lat": 42.3491921,
    "lon": -71.0693496
  },
  {
    "street": "Beacon Street",
    "housenumber": "424",
    "city": "Boston",
    "postcode": "02116",
    "lat": 42.3518544,
    "lon": -71.0868076
  },
  {
    "street": "Washington Street",
    "housenumber": "1500",
    "city": "Boston",
    "postcode": "02118",
    "lat": 42.3397583,
    "lon": -71.0718055
  },
  {
    "street": "Newbury Street",
    "housenumber": "136",
    "city": "Boston",
    "postcode": "02116",
    "lat": 42.3509061,
    "lon": -71.0768656
  },
  {
    "street": "Nashua Street",
    "housenumber": "125",
    "city": "Boston",
    "lat": 42.3678588,
    "lon": -71.0649383
  },
  {
    "street": "Boylston Street",
    "housenumber": "800",
    "city": "Boston",
    "postcode": "02199",
    "lat": 42.3466957,
    "lon": -71.082868
  },
  {
    "street": "Geneva Avenue",
    "housenumber": "60",
    "city": "Boston",
    "postcode": "02121",
    "lat": 42.3075981,
    "lon": -71.0800511
  },
  {
    "street": "Blue Hill Avenue",
    "housenumber": "1575",
    "city": "Mattapan",
    "postcode": "02126",
    "lat": 42.2698727,
    "lon": -71.0940406
  },
  {
    "street": "Peter Parley Road",
    "housenumber": "34",
    "city": "Jamaica Plain",
    "postcode": "02130",
    "lat": 42.3109,
    "lon": -71.1007
  },
  {
    "street": "Washington Street",
    "housenumber": "622",
    "city": "Dorchester",
    "postcode": "02124",
    "lat": 42.2898536,
    "lon": -71.0712916
  },
  {
    "street": "Grove Street",
    "housenumber": "135",
    "city": "East Boston",
    "postcode": "02128",
    "lat": 42.2648,
    "lon": -71.1589
  },
  {
    "street": "Centre Street",
    "housenumber": "1859",
    "city": "West Roxbury",
    "postcode": "02132",
    "lat": 42.2863266,
    "lon": -71.1553007
  },
  {
    "street": "Newbury Street",
    "housenumber": "341",
    "city": "Boston",
    "postcode": "02115",
    "lat": 42.3486508,
    "lon": -71.0868903
  },
  {
    "street": "Commonwealth Avenue",
    "housenumber": "217",
    "city": "Boston",
    "postcode": "02116",
    "lat": 42.3513761,
    "lon": -71.0818592
  },
  {
    "street": "Commonwealth Avenue",
    "housenumber": "152",
    "city": "Boston",
    "postcode": "02116",
    "lat": 42.3515625,
    "lon": -71.077805
  },
  {
    "street": "Bay State Road",
    "housenumber": "185",
    "city": "Boston",
    "postcode": "02215",
    "lat": 42.3506669,
    "lon": -71.1019241
  },
  {
    "street": "Commonwealth Avenue",
    "housenumber": "374",
    "city": "Boston",
    "postcode": "02115",
    "lat": 42.3485735,
    "lon": -71.0891003
  },
  {
    "street": "Commonwealth Avenue",
    "housenumber": "199",
    "city": "Boston",
    "postcode": "02116",
    "lat": 42.3515912,
    "lon": -71.0809601
  },
  {
    "street": "Commonwealth Avenue",
    "housenumber": "44",
    "city": "Boston",
    "postcode": "02116",
    "lat": 42.3527951,
    "lon": -71.0733675
  },
  {
    "street": "Parmenter Street",
    "housenumber": "25",
    "city": "Boston",
    "lat": 42.364013,
    "lon": -71.054998
  },
  {
    "street": "Dorchester Avenue",
    "housenumber": "2100",
    "city": "Dorchester",
    "lat": 42.2775987,
    "lon": -71.0653281
  },
  {
    "street": "Dorchester Avenue",
    "housenumber": "2214",
    "city": "Dorchester",
    "postcode": "02124",
    "lat": 42.2743234,
    "lon": -71.0667942
  },
  {
    "street": "Avenue Louis Pasteur",
    "housenumber": "78",
    "city": "Boston",
    "postcode": "02115",
    "lat": 42.3376504,
    "lon": -71.1010185
  },
  {
    "street": "Boylston Street",
    "housenumber": "106",
    "city": "Boston",
    "postcode": "02116",
    "lat": 42.3523099,
    "lon": -71.0652882
  },
  {
    "street": "Beacon Street",
    "housenumber": "84",
    "city": "Boston",
    "postcode": "02108",
    "lat": 42.3560419,
    "lon": -71.0712398
  },
  {
    "street": "Beacon Street",
    "housenumber": "137",
    "city": "Boston",
    "postcode": "02116",
    "lat": 42.3547395,
    "lon": -71.0741161
  },
  {
    "street": "Ashburton Place",
    "housenumber": "1",
    "city": "Boston",
    "postcode": "02108",
    "lat": 42.3594755,
    "lon": -71.0623329
  },
  {
    "street": "North Square",
    "housenumber": "11",
    "city": "Boston",
    "lat": 42.3638981,
    "lon": -71.0535635
  },
  {
    "street": "Congress Street",
    "housenumber": "344",
    "city": "Boston",
    "lat": 42.350814,
    "lon": -71.048725
  },
  {
    "street": "Faneuil Hall Square",
    "housenumber": "1",
    "city": "Boston",
    "postcode": "02109",
    "lat": 42.3601131,
    "lon": -71.0561189
  },
  {
    "street": "Summer Street",
    "housenumber": "425",
    "city": "Boston",
    "postcode": "02210",
    "lat": 42.346186,
    "lon": -71.0427382
  },
  {
    "street": "East Berkeley Street",
    "housenumber": "172",
    "city": "Boston",
    "postcode": "02118",
    "lat": 42.3444621,
    "lon": -71.0665199
  },
  {
    "street": "East Berkeley Street",
    "housenumber": "117",
    "city": "Boston",
    "postcode": "02118",
    "lat": 42.3436416,
    "lon": -71.0652939
  },
  {
    "street": "Washington Street",
    "housenumber": "15",
    "city": "Brighton",
    "postcode": "02135",
    "lat": 42.3428318,
    "lon": -71.1405759
  },
  {
    "street": "North Beacon Street",
    "housenumber": "5",
    "city": "Boston",
    "postcode": "02134",
    "lat": 42.3537493,
    "lon": -71.1375944
  },
  {
    "street": "Washington Street",
    "housenumber": "427",
    "city": "Brighton",
    "postcode": "02135",
    "lat": 42.3493823,
    "lon": -71.156327
  },
  {
    "street": "Chestnut Hill Avenue",
    "housenumber": "5",
    "city": "Brighton",
    "postcode": "02135",
    "lat": 42.3487677,
    "lon": -71.1537158
  },
  {
    "street": "Columbus Avenue",
    "housenumber": "563",
    "city": "Boston",
    "postcode": "02118",
    "lat": 42.3410968,
    "lon": -71.0814336
  },
  {
    "street": "Dorchester Avenue",
    "housenumber": "1520",
    "city": "Dorchester",
    "postcode": "02122",
    "lat": 42.2988842,
    "lon": -71.0603971
  },
  {
    "street": "Tattershall Road",
    "housenumber": "18",
    "city": "Boston",
    "postcode": "PE21 9JS",
    "lat": 52.9827781,
    "lon": -0.0296978
  },
  {
    "street": "Spilsby Road",
    "housenumber": "148",
    "city": "Boston",
    "postcode": "PE21 9QN",
    "lat": 52.9882576,
    "lon": -0.0080285
  },
  {
    "street": "Berkeley Street",
    "housenumber": "205",
    "city": "Boston",
    "postcode": "02116",
    "lat": 42.3506432,
    "lon": -71.0725379
  },
  {
    "street": "City Square",
    "housenumber": "100",
    "city": "Charlestown",
    "postcode": "02129",
    "lat": 42.3713805,
    "lon": -71.0611746
  },
  {
    "street": "Commonwealth Avenue",
    "housenumber": "949",
    "city": "Boston",
    "lat": 42.3517837,
    "lon": -71.1187216
  },
  {
    "street": "Commonwealth Avenue",
    "housenumber": "1222",
    "city": "Allston",
    "postcode": "02134",
    "lat": 42.3500982,
    "lon": -71.1306257
  },
  {
    "street": "Holton Street",
    "housenumber": "120",
    "city": "Boston",
    "postcode": "02135",
    "lat": 42.3606938,
    "lon": -71.1391505
  },
  {
    "street": "Brentwood Street",
    "housenumber": "53",
    "city": "Boston",
    "postcode": "02134",
    "lat": 42.3603695,
    "lon": -71.134298
  },
  {
    "street": "Western Avenue",
    "housenumber": "410",
    "city": "Boston",
    "postcode": "02135",
    "lat": 42.3624175,
    "lon": -71.13982
  },
  {
    "street": "Soldiers Field Road",
    "housenumber": "1284",
    "city": "Boston",
    "postcode": "02135",
    "lat": 42.3633214,
    "lon": -71.1396839
  },
  {
    "street": "Holton Street",
    "housenumber": "118",
    "city": "Boston",
    "postcode": "02135",
    "lat": 42.3606666,
    "lon": -71.1390353
  },
  {
    "street": "Bagnal Street",
    "housenumber": "18",
    "city": "Boston",
    "postcode": "02134",
    "lat": 42.3598335,
    "lon": -71.1359877
  },
  {
    "street": "Western Avenue",
    "housenumber": "450",
    "city": "Boston",
    "postcode": "02135",
    "lat": 42.362133,
    "lon": -71.1418461
  },
  {
    "street": "Holton Street",
    "housenumber": "100",
    "city": "Boston",
    "postcode": "02135",
    "lat": 42.35985,
    "lon": -71.1379931
  },
  {
    "street": "Holton Street",
    "housenumber": "58",
    "city": "Boston",
    "postcode": "02134",
    "lat": 42.3600482,
    "lon": -71.1364223
  },
  {
    "street": "Western Avenue",
    "housenumber": "385",
    "city": "Boston",
    "postcode": "02135",
    "lat": 42.3631094,
    "lon": -71.1388461
  },
  {
    "street": "Holton Street",
    "housenumber": "116",
    "city": "Boston",
    "postcode": "02135",
    "lat": 42.3606581,
    "lon": -71.1390057
  },
  {
    "street": "Bagnal Street",
    "housenumber": "20",
    "city": "Boston",
    "postcode": "02134",
    "lat": 42.3598577,
    "lon": -71.1359776
  },
  {
    "street": "Holton Street",
    "housenumber": "134",
    "city": "Boston",
    "postcode": "02135",
    "lat": 42.3608402,
    "lon": -71.1397105
  },
  {
    "street": "Litchfield Street",
    "housenumber": "94",
    "city": "Boston",
    "postcode": "02135",
    "lat": 42.361315,
    "lon": -71.1402181
  },
  {
    "street": "Holton Street",
    "housenumber": "56",
    "city": "Boston",
    "postcode": "02134",
    "lat": 42.3600107,
    "lon": -71.1362728
  },
  {
    "street": "Brentwood Street",
    "housenumber": "14",
    "city": "Boston",
    "postcode": "02134",
    "lat": 42.3609009,
    "lon": -71.1355988
  },
  {
    "street": "Everett Street",
    "housenumber": "237",
    "city": "Boston",
    "postcode": "02128",
    "lat": 42.361105,
    "lon": -71.1359177
  },
  {
    "street": "Holton Street",
    "housenumber": "114",
    "city": "Boston",
    "postcode": "02135",
    "lat": 42.3606329,
    "lon": -71.1388958
  },
  {
    "street": "Litchfield Street",
    "housenumber": "87",
    "city": "Boston",
    "postcode": "02135",
    "lat": 42.3611858,
    "lon": -71.1400593
  },
  {
    "street": "Holton Street",
    "housenumber": "136",
    "city": "Boston",
    "postcode": "02135",
    "lat": 42.3608821,
    "lon": -71.1398561
  },
  {
    "street": "Western Avenue",
    "housenumber": "418",
    "city": "Boston",
    "postcode": "02135",
    "lat": 42.3623506,
    "lon": -71.1401979
  },
  {
    "street": "Western Avenue",
    "housenumber": "441",
    "city": "Boston",
    "postcode": "02135",
    "lat": 42.3628875,
    "lon": -71.1411627
  },
  {
    "street": "Litchfield Street",
    "housenumber": "92",
    "city": "Boston",
    "postcode": "02135",
    "lat": 42.3612879,
    "lon": -71.1402333
  },
  {
    "street": "Litchfield Street",
    "housenumber": "84",
    "city": "Boston",
    "postcode": "02135",
    "lat": 42.3609893,
    "lon": -71.1404202
  },
  {
    "street": "Everett Street",
    "housenumber": "235",
    "city": "Boston",
    "postcode": "02128",
    "lat": 42.3610711,
    "lon": -71.1360379
  },
  {
    "street": "Holton Street",
    "housenumber": "112",
    "city": "Boston",
    "postcode": "02135",
    "lat": 42.3606245,
    "lon": -71.1388661
  },
  {
    "street": "Litchfield Street",
    "housenumber": "85",
    "city": "Boston",
    "postcode": "02135",
    "lat": 42.3611437,
    "lon": -71.1400567
  },
  {
    "street": "Litchfield Street",
    "housenumber": "108",
    "city": "Boston",
    "postcode": "02135",
    "lat": 42.361869,
    "lon": -71.1399167
  },
  {
    "street": "Western Avenue",
    "housenumber": "408",
    "city": "Boston",
    "postcode": "02135",
    "lat": 42.3624273,
    "lon": -71.1397651
  },
  {
    "street": "Western Avenue",
    "housenumber": "419",
    "city": "Boston",
    "postcode": "02135",
    "lat": 42.3626292,
    "lon": -71.1406866
  },
  {
    "street": "Western Avenue",
    "housenumber": "395",
    "city": "Boston",
    "postcode": "02135",
    "lat": 42.362719,
    "lon": -71.139628
  },
  {
    "street": "Litchfield Street",
    "housenumber": "106",
    "city": "Boston",
    "postcode": "02135",
    "lat": 42.3618345,
    "lon": -71.1399359
  },
  {
    "street": "Antwerp Street",
    "housenumber": "78",
    "city": "Boston",
    "postcode": "02135",
    "lat": 42.3606935,
    "lon": -71.1394332
  },
  {
    "street": "Everett Street",
    "housenumber": "208",
    "city": "Boston",
    "postcode": "02128",
    "lat": 42.3600937,
    "lon": -71.1367329
  },
  {
    "street": "Litchfield Street",
    "housenumber": "104",
    "city": "Boston",
    "postcode": "02135",
    "lat": 42.3617226,
    "lon": -71.1400036
  },
  {
    "street": "Holton Street",
    "housenumber": "54",
    "city": "Boston",
    "postcode": "02134",
    "lat": 42.3600007,
    "lon": -71.1362277
  },
  {
    "street": "Everett Street",
    "housenumber": "206",
    "city": "Boston",
    "postcode": "02128",
    "lat": 42.3600735,
    "lon": -71.1367434
  },
  {
    "street": "Litchfield Street",
    "housenumber": "112",
    "city": "Boston",
    "postcode": "02135",
    "lat": 42.3620223,
    "lon": -71.1398393
  },
  {
    "street": "Litchfield Street",
    "housenumber": "86",
    "city": "Boston",
    "postcode": "02135",
    "lat": 42.3610907,
    "lon": -71.1403463
  },
  {
    "street": "Holton Street",
    "housenumber": "138",
    "city": "Boston",
    "postcode": "02135",
    "lat": 42.3608923,
    "lon": -71.1398881
  },
  {
    "street": "Litchfield Street",
    "housenumber": "102",
    "city": "Boston",
    "postcode": "02135",
    "lat": 42.3616946,
    "lon": -71.1400192
  },
  {
    "street": "Western Avenue",
    "housenumber": "416",
    "city": "Boston",
    "postcode": "02135",
    "lat": 42.3623604,
    "lon": -71.1401429
  },
  {
    "street": "Litchfield Street",
    "housenumber": "82",
    "city": "Boston",
    "postcode": "02135",
    "lat": 42.3609646,
    "lon": -71.140434
  },
  {
    "street": "Everett Street",
    "housenumber": "275",
    "city": "Boston",
    "postcode": "02128",
    "lat": 42.3622725,
    "lon": -71.1355411
  },
  {
    "street": "Everett Street",
    "housenumber": "233",
    "city": "Boston",
    "postcode": "02128",
    "lat": 42.3610136,
    "lon": -71.136064
  },
  {
    "street": "Litchfield Street",
    "housenumber": "110",
    "city": "Boston",
    "postcode": "02135",
    "lat": 42.3619883,
    "lon": -71.1398582
  },
  {
    "street": "Litchfield Street",
    "housenumber": "100",
    "city": "Boston",
    "postcode": "02135",
    "lat": 42.3615688,
    "lon": -71.1400773
  },
  {
    "street": "Athol Street",
    "housenumber": "52",
    "city": "Boston",
    "postcode": "02134",
    "lat": 42.3600306,
    "lon": -71.1346078
  },
  {
    "street": "Western Avenue",
    "housenumber": "414",
    "city": "Boston",
    "postcode": "02135",
    "lat": 42.3623834,
    "lon": -71.1400123
  },
  {
    "street": "Everett Street",
    "housenumber": "273",
    "city": "Boston",
    "postcode": "02128",
    "lat": 42.3622304,
    "lon": -71.1355606
  },
  {
    "street": "Everett Street",
    "housenumber": "231",
    "city": "Boston",
    "postcode": "02128",
    "lat": 42.3609352,
    "lon": -71.1360064
  },
  {
    "street": "Antwerp Street",
    "housenumber": "80",
    "city": "Boston",
    "postcode": "02135",
    "lat": 42.3607202,
    "lon": -71.1394175
  },
  {
    "street": "Litchfield Street",
    "housenumber": "98",
    "city": "Boston",
    "postcode": "02135",
    "lat": 42.3615416,
    "lon": -71.1400924
  },
  {
    "street": "Western Avenue",
    "housenumber": "446",
    "city": "Boston",
    "postcode": "02135",
    "lat": 42.3621043,
    "lon": -71.14154
  },
  {
    "street": "Soldiers Field Road",
    "housenumber": "1330",
    "city": "Boston",
    "postcode": "02135",
    "lat": 42.3631149,
    "lon": -71.14127
  },
  {
    "street": "Holton Street",
    "housenumber": "60",
    "city": "Boston",
    "postcode": "02134",
    "lat": 42.3600585,
    "lon": -71.1364648
  },
  {
    "street": "Western Avenue",
    "housenumber": "438",
    "city": "Boston",
    "postcode": "02135",
    "lat": 42.362308,
    "lon": -71.1409736
  },
  {
    "street": "Litchfield Street",
    "housenumber": "88",
    "city": "Boston",
    "postcode": "02135",
    "lat": 42.3611339,
    "lon": -71.1403198
  },
  {
    "street": "Holton Street",
    "housenumber": "132",
    "city": "Boston",
    "postcode": "02135",
    "lat": 42.3608299,
    "lon": -71.1396787
  },
  {
    "street": "Brentwood Street",
    "housenumber": "12",
    "city": "Boston",
    "postcode": "02134",
    "lat": 42.3608697,
    "lon": -71.1357054
  },
  {
    "street": "Holton Street",
    "housenumber": "122",
    "city": "Boston",
    "postcode": "02135",
    "lat": 42.3607022,
    "lon": -71.1391802
  },
  {
    "street": "Soldiers Field Road",
    "housenumber": "1280",
    "city": "Boston",
    "postcode": "02135",
    "lat": 42.3635223,
    "lon": -71.1390182
  },
  {
    "street": "Western Avenue",
    "housenumber": "436",
    "city": "Boston",
    "postcode": "02135",
    "lat": 42.3623223,
    "lon": -71.1408984
  },
  {
    "street": "Litchfield Street",
    "housenumber": "90",
    "city": "Boston",
    "postcode": "02135",
    "lat": 42.361177,
    "lon": -71.1402934
  },
  {
    "street": "Athol Street",
    "housenumber": "50",
    "city": "Boston",
    "postcode": "02134",
    "lat": 42.3600568,
    "lon": -71.1345981
  },
  {
    "street": "Brentwood Street",
    "housenumber": "51",
    "city": "Boston",
    "postcode": "02134",
    "lat": 42.3603607,
    "lon": -71.1343836
  },
  {
    "street": "Western Avenue",
    "housenumber": "412",
    "city": "Boston",
    "postcode": "02135",
    "lat": 42.3623932,
    "lon": -71.1399573
  },
  {
    "street": "Soldiers Field Road",
    "housenumber": "1320",
    "city": "Boston",
    "postcode": "02135",
    "lat": 42.3631597,
    "lon": -71.1408364
  },
  {
    "street": "Beacon Street",
    "housenumber": "6",
    "city": "Boston",
    "postcode": "02108",
    "lat": 42.358149,
    "lon": -71.0617226
  },
  {
    "street": "Hanover Street",
    "housenumber": "264-266",
    "city": "Boston",
    "lat": 42.3636546,
    "lon": -71.0548061
  },
  {
    "street": "Kingsway",
    "housenumber": "18",
    "city": "Boston",
    "postcode": "PE21 0AN",
    "lat": 52.9701051,
    "lon": -0.0074702
  },
  {
    "street": "Eastwood Road",
    "housenumber": "18a",
    "city": "Boston",
    "postcode": "PE21 0PH",
    "lat": 52.9768615,
    "lon": -0.0021058
  },
  {
    "street": "Lothrop Street",
    "housenumber": "21",
    "city": "Boston",
    "postcode": "02135",
    "lat": 42.3602709,
    "lon": -71.1451353
  },
  {
    "street": "South Waverly Street",
    "housenumber": "62",
    "city": "Boston",
    "postcode": "02135",
    "lat": 42.3605193,
    "lon": -71.1417531
  },
  {
    "street": "Lothrop Street",
    "housenumber": "25",
    "city": "Boston",
    "postcode": "02135",
    "lat": 42.3602577,
    "lon": -71.144978
  },
  {
    "street": "Leo M Birmingham Parkway",
    "housenumber": "50",
    "city": "Boston",
    "postcode": "02135",
    "lat": 42.3600466,
    "lon": -71.1465123
  },
  {
    "street": "Antwerp Street",
    "housenumber": "83",
    "city": "Boston",
    "postcode": "02135",
    "lat": 42.3602842,
    "lon": -71.1393802
  },
  {
    "street": "Waverly Street",
    "housenumber": "77",
    "city": "Boston",
    "postcode": "02135",
    "lat": 42.3616224,
    "lon": -71.1409363
  },
  {
    "street": "Richardson Street",
    "housenumber": "10",
    "city": "Boston",
    "postcode": "02135",
    "lat": 42.3614529,
    "lon": -71.1432883
  },
  {
    "street": "Abby Road",
    "housenumber": "18",
    "city": "Boston",
    "postcode": "02135",
    "lat": 42.3613582,
    "lon": -71.1420163
  },
  {
    "street": "Lothrop Street",
    "housenumber": "11",
    "city": "Boston",
    "postcode": "02135",
    "lat": 42.3602733,
    "lon": -71.1454483
  },
  {
    "street": "Waverly Street",
    "housenumber": "53",
    "city": "Boston",
    "postcode": "02135",
    "lat": 42.3608934,
    "lon": -71.1413389
  },
  {
    "street": "Lothrop Street",
    "housenumber": "33",
    "city": "Boston",
    "postcode": "02135",
    "lat": 42.3602357,
    "lon": -71.1446994
  },
  {
    "street": "Waverly Street",
    "housenumber": "91",
    "city": "Boston",
    "postcode": "02135",
    "lat": 42.3620106,
    "lon": -71.1407125
  },
  {
    "street": "Portsmouth Street",
    "housenumber": "39",
    "city": "Boston",
    "postcode": "02135",
    "lat": 42.3595941,
    "lon": -71.1444705
  },
  {
    "street": "Litchfield Street",
    "housenumber": "79",
    "city": "Boston",
    "postcode": "02135",
    "lat": 42.3608354,
    "lon": -71.1402422
  },
  {
    "street": "Antwerp Street",
    "housenumber": "72",
    "city": "Boston",
    "postcode": "02135",
    "lat": 42.3604944,
    "lon": -71.1395422
  },
  {
    "street": "Mackin Street",
    "housenumber": "15",
    "city": "Boston",
    "postcode": "02135",
    "lat": 42.3610878,
    "lon": -71.1445616
  },
  {
    "street": "Leo M Birmingham Parkway",
    "housenumber": "56",
    "city": "Boston",
    "postcode": "02135",
    "lat": 42.3599328,
    "lon": -71.1465886
  },
  {
    "street": "Antwerp Street",
    "housenumber": "77",
    "city": "Boston",
    "postcode": "02135",
    "lat": 42.36015,
    "lon": -71.13945
  },
  {
    "street": "Waverly Street",
    "housenumber": "61",
    "city": "Boston",
    "postcode": "02135",
    "lat": 42.3611463,
    "lon": -71.141186
  },
  {
    "street": "Abby Road",
    "housenumber": "12",
    "city": "Boston",
    "postcode": "02135",
    "lat": 42.3613556,
    "lon": -71.1417796
  },
  {
    "street": "Richardson Street",
    "housenumber": "16",
    "city": "Boston",
    "postcode": "02135",
    "lat": 42.3612792,
    "lon": -71.143205
  },
  {
    "street": "Waverly Street",
    "housenumber": "34",
    "city": "Boston",
    "postcode": "02135",
    "lat": 42.3608803,
    "lon": -71.1436062
  },
  {
    "street": "Duval Street",
    "housenumber": "3",
    "city": "Boston",
    "postcode": "02135",
    "lat": 42.360411,
    "lon": -71.1399192
  },
  {
    "street": "Antwerp Street",
    "housenumber": "87",
    "city": "Boston",
    "postcode": "02135",
    "lat": 42.3603886,
    "lon": -71.1393044
  },
  {
    "street": "Portsmouth Street",
    "housenumber": "42",
    "city": "Boston",
    "postcode": "02135",
    "lat": 42.3594453,
    "lon": -71.1442378
  },
  {
    "street": "Waverly Street",
    "housenumber": "55",
    "city": "Boston",
    "postcode": "02135",
    "lat": 42.3609197,
    "lon": -71.1413258
  },
  {
    "street": "Waverly Street",
    "housenumber": "97",
    "city": "Boston",
    "postcode": "02135",
    "lat": 42.3620788,
    "lon": -71.1406744
  },
  {
    "street": "Duval Street",
    "housenumber": "7",
    "city": "Boston",
    "postcode": "02135",
    "lat": 42.3604622,
    "lon": -71.1400957
  },
  {
    "street": "Portsmouth Street",
    "housenumber": "21",
    "city": "Boston",
    "postcode": "02135",
    "lat": 42.3600515,
    "lon": -71.1443999
  },
  {
    "street": "Litchfield Street",
    "housenumber": "69",
    "city": "Boston",
    "postcode": "02135",
    "lat": 42.3605904,
    "lon": -71.1403924
  },
  {
    "street": "Abby Road",
    "housenumber": "5",
    "city": "Boston",
    "postcode": "02135",
    "lat": 42.3614127,
    "lon": -71.1415468
  },
  {
    "street": "Mackin Street",
    "housenumber": "21",
    "city": "Boston",
    "postcode": "02135",
    "lat": 42.3609026,
    "lon": -71.1446078
  },
  {
    "street": "Waverly Street",
    "housenumber": "58",
    "city": "Boston",
    "postcode": "02135",
    "lat": 42.3608973,
    "lon": -71.1415422
  },
  {
    "street": "Lothrop Street",
    "housenumber": "19",
    "city": "Boston",
    "postcode": "02135",
    "lat": 42.3602715,
    "lon": -71.1451581
  },
  {
    "street": "Portsmouth Street",
    "housenumber": "35",
    "city": "Boston",
    "postcode": "02135",
    "lat": 42.3596883,
    "lon": -71.1444644
  },
  {
    "street": "South Waverly Street",
    "housenumber": "64",
    "city": "Boston",
    "postcode": "02135",
    "lat": 42.3605451,
    "lon": -71.1417511
  },
  {
    "street": "Waverly Street",
    "housenumber": "81",
    "city": "Boston",
    "postcode": "02135",
    "lat": 42.3617421,
    "lon": -71.1408625
  },
  {
    "street": "Mackin Street",
    "housenumber": "11",
    "city": "Boston",
    "postcode": "02135",
    "lat": 42.3612169,
    "lon": -71.1445801
  },
  {
    "street": "Leo M Birmingham Parkway",
    "housenumber": "52",
    "city": "Boston",
    "postcode": "02135",
    "lat": 42.3600087,
    "lon": -71.1465377
  },
  {
    "street": "Antwerp Street",
    "housenumber": "81",
    "city": "Boston",
    "postcode": "02135",
    "lat": 42.36026,
    "lon": -71.1393928
  },
  {
    "street": "Waverly Street",
    "housenumber": "57",
    "city": "Boston",
    "postcode": "02135",
    "lat": 42.3610292,
    "lon": -71.1412296
  },
  {
    "street": "Lothrop Street",
    "housenumber": "27",
    "city": "Boston",
    "postcode": "02135",
    "lat": 42.3602562,
    "lon": -71.1449298
  },
  {
    "street": "Waverly Street",
    "housenumber": "79",
    "city": "Boston",
    "postcode": "02135",
    "lat": 42.3616439,
    "lon": -71.1409244
  },
  {
    "street": "Richardson Street",
    "housenumber": "12",
    "city": "Boston",
    "postcode": "02135",
    "lat": 42.3613655,
    "lon": -71.1432581
  },
  {
    "street": "Abby Road",
    "housenumber": "16",
    "city": "Boston",
    "postcode": "02135",
    "lat": 42.3613657,
    "lon": -71.1419664
  },
  {
    "street": "Lothrop Street",
    "housenumber": "9",
    "city": "Boston",
    "postcode": "02135",
    "lat": 42.3602746,
    "lon": -71.1454917
  },
  {
    "street": "Lothrop Street",
    "housenumber": "31",
    "city": "Boston",
    "postcode": "02135",
    "lat": 42.3602374,
    "lon": -71.144753
  },
  {
    "street": "Richardson Street",
    "housenumber": "30",
    "city": "Boston",
    "postcode": "02135",
    "lat": 42.3612282,
    "lon": -71.1436815
  },
  {
    "street": "Waverly Street",
    "housenumber": "93",
    "city": "Boston",
    "postcode": "02135",
    "lat": 42.3620333,
    "lon": -71.1406998
  },
  {
    "street": "Litchfield Street",
    "housenumber": "73",
    "city": "Boston",
    "postcode": "02135",
    "lat": 42.3606955,
    "lon": -71.1403242
  },
  {
    "street": "Kelley Court",
    "housenumber": "24",
    "city": "Boston",
    "postcode": "02135",
    "lat": 42.3611662,
    "lon": -71.1426091
  },
  {
    "street": "Antwerp Street",
    "housenumber": "74",
    "city": "Boston",
    "postcode": "02135",
    "lat": 42.3605817,
    "lon": -71.1394945
  },
  {
    "street": "Mackin Street",
    "housenumber": "17",
    "city": "Boston",
    "postcode": "02135",
    "lat": 42.3610444,
    "lon": -71.1445669
  },
  {
    "street": "Waverly Street",
    "housenumber": "63",
    "city": "Boston",
    "postcode": "02135",
    "lat": 42.3611709,
    "lon": -71.1411736
  },
  {
    "street": "Abby Road",
    "housenumber": "10",
    "city": "Boston",
    "postcode": "02135",
    "lat": 42.3613454,
    "lon": -71.1417335
  },
  {
    "street": "Richardson Street",
    "housenumber": "18",
    "city": "Boston",
    "postcode": "02135",
    "lat": 42.3612566,
    "lon": -71.143207
  },
  {
    "street": "Antwerp Street",
    "housenumber": "85",
    "city": "Boston",
    "postcode": "02135",
    "lat": 42.3603646,
    "lon": -71.1393169
  },
  {
    "street": "Portsmouth Street",
    "housenumber": "40",
    "city": "Boston",
    "postcode": "02135",
    "lat": 42.3594778,
    "lon": -71.1441831
  },
  {
    "street": "Litchfield Street",
    "housenumber": "71",
    "city": "Boston",
    "postcode": "02135",
    "lat": 42.360615,
    "lon": -71.140378
  },
  {
    "street": "Richardson Street",
    "housenumber": "8",
    "city": "Boston",
    "postcode": "02135",
    "lat": 42.3614759,
    "lon": -71.1432946
  },
  {
    "street": "Waverly Street",
    "housenumber": "60",
    "city": "Boston",
    "postcode": "02135",
    "lat": 42.3609219,
    "lon": -71.1415341
  },
  {
    "street": "Portsmouth Street",
    "housenumber": "37",
    "city": "Boston",
    "postcode": "02135",
    "lat": 42.3596412,
    "lon": -71.1444674
  },
  {
    "street": "Litchfield Street",
    "housenumber": "77",
    "city": "Boston",
    "postcode": "02135",
    "lat": 42.3608086,
    "lon": -71.1402578
  },
  {
    "street": "Waverly Street",
    "housenumber": "83",
    "city": "Boston",
    "postcode": "02135",
    "lat": 42.3617673,
    "lon": -71.1408485
  },
  {
    "street": "Antwerp Street",
    "housenumber": "70",
    "city": "Boston",
    "postcode": "02135",
    "lat": 42.3604677,
    "lon": -71.1395579
  },
  {
    "street": "Mackin Street",
    "housenumber": "13",
    "city": "Boston",
    "postcode": "02135",
    "lat": 42.3611922,
    "lon": -71.1445831
  },
  {
    "street": "Leo M Birmingham Parkway",
    "housenumber": "54",
    "city": "Boston",
    "postcode": "02135",
    "lat": 42.3599707,
    "lon": -71.1465632
  },
  {
    "street": "Antwerp Street",
    "housenumber": "79",
    "city": "Boston",
    "postcode": "02135",
    "lat": 42.3601741,
    "lon": -71.1394374
  },
  {
    "street": "Waverly Street",
    "housenumber": "59",
    "city": "Boston",
    "postcode": "02135",
    "lat": 42.3610499,
    "lon": -71.141218
  },
  {
    "street": "Richardson Street",
    "housenumber": "14",
    "city": "Boston",
    "postcode": "02135",
    "lat": 42.3613435,
    "lon": -71.1432521
  },
  {
    "street": "Waverly Street",
    "housenumber": "36",
    "city": "Boston",
    "postcode": "02135",
    "lat": 42.3608786,
    "lon": -71.1435717
  },
  {
    "street": "Duval Street",
    "housenumber": "5",
    "city": "Boston",
    "postcode": "02135",
    "lat": 42.3604212,
    "lon": -71.1399511
  },
  {
    "street": "Richardson Street",
    "housenumber": "32",
    "city": "Boston",
    "postcode": "02135",
    "lat": 42.3612301,
    "lon": -71.1437206
  },
  {
    "street": "Waverly Street",
    "housenumber": "95",
    "city": "Boston",
    "postcode": "02135",
    "lat": 42.3620561,
    "lon": -71.1406871
  },
  {
    "street": "Duval Street",
    "housenumber": "9",
    "city": "Boston",
    "postcode": "02135",
    "lat": 42.3604724,
    "lon": -71.1401275
  },
  {
    "street": "Portsmouth Street",
    "housenumber": "19",
    "city": "Boston",
    "postcode": "02135",
    "lat": 42.3600775,
    "lon": -71.1443983
  },
  {
    "street": "Litchfield Street",
    "housenumber": "75",
    "city": "Boston",
    "postcode": "02135",
    "lat": 42.3607222,
    "lon": -71.1403085
  },
  {
    "street": "Kelley Court",
    "housenumber": "22",
    "city": "Boston",
    "postcode": "02135",
    "lat": 42.3611768,
    "lon": -71.1426119
  },
  {
    "street": "Antwerp Street",
    "housenumber": "76",
    "city": "Boston",
    "postcode": "02135",
    "lat": 42.3606085,
    "lon": -71.1394788
  },
  {
    "street": "Abby Road",
    "housenumber": "3",
    "city": "Boston",
    "postcode": "02135",
    "lat": 42.361395,
    "lon": -71.1414852
  },
  {
    "street": "Mackin Street",
    "housenumber": "19",
    "city": "Boston",
    "postcode": "02135",
    "lat": 42.3609406,
    "lon": -71.1446032
  },
  {
    "street": "High Street",
    "housenumber": "1-5",
    "city": "Boston",
    "postcode": "PE21 8SH",
    "lat": 52.9770899,
    "lon": -0.0250692
  },
  {
    "street": "Spain Lane",
    "housenumber": "11",
    "city": "Boston",
    "postcode": "PE21 6HP",
    "lat": 52.9761353,
    "lon": -0.0224371
  },
  {
    "street": "High Street",
    "housenumber": "59-61",
    "city": "Boston",
    "postcode": "PE21 8ST",
    "lat": 52.9747096,
    "lon": -0.0249687
  },
  {
    "street": "Harrison Avenue",
    "housenumber": "444",
    "city": "Boston",
    "lat": 42.3432437,
    "lon": -71.0644988
  },
  {
    "street": "Horncastle Road",
    "housenumber": "34",
    "city": "Boston",
    "postcode": "PE21 9BU",
    "lat": 52.984974,
    "lon": -0.0189259
  },
  {
    "street": "Market Place",
    "housenumber": "23",
    "city": "Boston",
    "lat": 52.9775099,
    "lon": -0.0233958
  },
  {
    "street": "Market Place",
    "housenumber": "42",
    "city": "Boston",
    "postcode": "PE21 6NH",
    "lat": 52.9778361,
    "lon": -0.0242296
  },
  {
    "street": "West Street",
    "housenumber": "8-10",
    "city": "Boston",
    "postcode": "PE21 8QH",
    "lat": 52.9760687,
    "lon": -0.0249241
  },
  {
    "street": "West Street",
    "housenumber": "46",
    "city": "Boston",
    "postcode": "PE21 8QH",
    "lat": 52.9762299,
    "lon": -0.0264439
  },
  {
    "street": "High Street",
    "housenumber": "46",
    "city": "Boston",
    "postcode": "PE21 8SP",
    "lat": 52.9756785,
    "lon": -0.0245444
  },
  {
    "street": "Pescod Square",
    "housenumber": "1",
    "city": "Boston",
    "postcode": "PE21 6QX",
    "lat": 52.9788466,
    "lon": -0.0218109
  },
  {
    "street": "Strait Bargate",
    "housenumber": "12",
    "city": "Boston",
    "postcode": "PE21 6LR",
    "lat": 52.9789985,
    "lon": -0.0235067
  },
  {
    "street": "Pescod Square",
    "housenumber": "2",
    "city": "Boston",
    "postcode": "PE21 6QX",
    "lat": 52.9794482,
    "lon": -0.0217006
  },
  {
    "street": "Park Drive",
    "housenumber": "401",
    "city": "Boston",
    "postcode": "02215",
    "lat": 42.34464,
    "lon": -71.103177
  },
  {
    "street": "Long Wharf",
    "housenumber": "66",
    "city": "Boston",
    "postcode": "02129",
    "lat": 42.3594308,
    "lon": -71.0504562
  },
  {
    "street": "Harborside Drive",
    "housenumber": "1",
    "city": "Boston",
    "postcode": "02128",
    "lat": 42.3681676,
    "lon": -71.0182748
  },
  {
    "street": "Tremont Street",
    "housenumber": "175",
    "city": "Boston",
    "postcode": "02111",
    "lat": 42.3532266,
    "lon": -71.0640876
  },
  {
    "street": "Sleeper Street",
    "housenumber": "88",
    "city": "Boston",
    "postcode": "02210",
    "lat": 42.353709,
    "lon": -71.048734
  },
  {
    "street": "Rowes Wharf",
    "housenumber": "70",
    "city": "Boston",
    "postcode": "02110",
    "lat": 42.3566602,
    "lon": -71.0503163
  },
  {
    "street": "Beacon Street",
    "housenumber": "84",
    "city": "Boston",
    "postcode": "02108",
    "lat": 42.3559525,
    "lon": -71.0712576
  },
  {
    "street": "Pearl Street",
    "housenumber": "55",
    "city": "Boston",
    "postcode": "02109",
    "lat": 42.356221,
    "lon": -71.0552892
  },
  {
    "street": "Congress Street",
    "housenumber": "130",
    "city": "Boston",
    "postcode": "02109",
    "lat": 42.3560801,
    "lon": -71.0559007
  },
  {
    "street": "Congress Street",
    "housenumber": "130",
    "city": "Boston",
    "postcode": "02109",
    "lat": 42.3563681,
    "lon": -71.055942
  },
  {
    "street": "Post Office Square",
    "housenumber": "0",
    "city": "Boston",
    "postcode": "02109",
    "lat": 42.3562283,
    "lon": -71.0556175
  },
  {
    "street": "Pearl Street",
    "housenumber": "55",
    "city": "Boston",
    "postcode": "02109",
    "lat": 42.3564807,
    "lon": -71.0554585
  },
  {
    "street": "Huntington Avenue",
    "housenumber": "53",
    "city": "Boston",
    "postcode": "02116",
    "lat": 42.3474434,
    "lon": -71.0796721
  },
  {
    "street": "Courthouse Way",
    "housenumber": "1",
    "city": "Boston",
    "postcode": "02210",
    "lat": 42.3543649,
    "lon": -71.0467083
  },
  {
    "street": "Congress Street",
    "housenumber": "354",
    "city": "Boston",
    "postcode": "02210",
    "lat": 42.3504639,
    "lon": -71.0482916
  },
  {
    "street": "Farnsworth Street",
    "housenumber": "12",
    "city": "Boston",
    "postcode": "02210",
    "lat": 42.3512481,
    "lon": -71.0487544
  },
  {
    "street": "Salem Street",
    "housenumber": "97",
    "city": "Boston",
    "lat": 42.3638,
    "lon": -71.055658
  },
  {
    "street": "Boylston Street",
    "housenumber": "867",
    "city": "Boston",
    "postcode": "02116",
    "lat": 42.3486678,
    "lon": -71.0834071
  },
  {
    "street": "Boylston Street",
    "housenumber": "899",
    "city": "Boston",
    "postcode": "02115",
    "lat": 42.3484447,
    "lon": -71.0841008
  },
  {
    "street": "Newbury Street",
    "housenumber": "279A",
    "city": "Boston",
    "postcode": "02115",
    "lat": 42.3492887,
    "lon": -71.0843668
  },
  {
    "street": "Newbury Street",
    "housenumber": "279",
    "city": "Boston",
    "postcode": "02116",
    "lat": 42.3494102,
    "lon": -71.0838845
  },
  {
    "street": "Newbury Street",
    "housenumber": "338",
    "city": "Boston",
    "postcode": "02115",
    "lat": 42.3482979,
    "lon": -71.0866366
  },
  {
    "street": "Farnsworth Street",
    "housenumber": "24",
    "city": "Boston",
    "postcode": "02210",
    "lat": 42.3516377,
    "lon": -71.0484465
  },
  {
    "street": "Boylston Street",
    "housenumber": "90p",
    "city": "Boston",
    "lat": 42.3481552,
    "lon": -71.0839194
  },
  {
    "street": "Barrows Street",
    "housenumber": "6",
    "city": "Allston",
    "postcode": "02134",
    "lat": 42.3534662,
    "lon": -71.137956
  },
  {
    "street": "East First Street",
    "housenumber": "455",
    "city": "South Boston",
    "postcode": "02127",
    "lat": 42.3379214,
    "lon": -71.0422832
  },
  {
    "street": "Strait Bargate",
    "housenumber": "27",
    "city": "Boston",
    "postcode": "PE21 6EG",
    "lat": 52.9793531,
    "lon": -0.022483
  },
  {
    "street": "Fishtoft Road",
    "housenumber": "17",
    "city": "Boston",
    "postcode": "PE21 0AA",
    "lat": 52.9701996,
    "lon": -0.0125394
  },
  {
    "street": "Tattershall Road",
    "housenumber": "18",
    "city": "Boston",
    "postcode": "PE21 9JG",
    "lat": 52.9824943,
    "lon": -0.0294668
  },
  {
    "street": "Woodville Road",
    "housenumber": "88",
    "city": "Boston",
    "postcode": "PE21 8BB",
    "lat": 52.9739662,
    "lon": -0.0388337
  },
  {
    "street": "Liquorpond Street",
    "housenumber": "55-56",
    "city": "Boston",
    "postcode": "PE21 8UJ",
    "lat": 52.9747366,
    "lon": -0.02957
  },
  {
    "street": "Stuart Street",
    "housenumber": "200",
    "city": "Boston",
    "postcode": "02116",
    "lat": 42.3504434,
    "lon": -71.067087
  },
  {
    "street": "Wide Bargate",
    "housenumber": "12",
    "city": "Boston",
    "postcode": "PE21 6RF",
    "lat": 52.9797474,
    "lon": -0.0224644
  },
  {
    "street": "Commonwealth Avenue",
    "housenumber": "635",
    "city": "Boston",
    "lat": 42.3498642,
    "lon": -71.1020204
  },
  {
    "street": "Commonwealth Avenue",
    "housenumber": "700",
    "city": "Boston",
    "lat": 42.3493957,
    "lon": -71.1040558
  },
  {
    "street": "Commonwealth Avenue",
    "housenumber": "702",
    "city": "Boston",
    "lat": 42.3494665,
    "lon": -71.1045874
  },
  {
    "street": "Commonwealth Avenue",
    "housenumber": "775",
    "city": "Boston",
    "postcode": "02215",
    "lat": 42.3507931,
    "lon": -71.1091116
  },
  {
    "street": "Buick Street",
    "housenumber": "10",
    "city": "Boston",
    "lat": 42.3521337,
    "lon": -71.1158287
  },
  {
    "street": "Bay State Road",
    "housenumber": "91",
    "city": "Boston",
    "lat": 42.3502982,
    "lon": -71.0969245
  },
  {
    "street": "Commonwealth Avenue",
    "housenumber": "685",
    "city": "Boston",
    "postcode": "02215",
    "lat": 42.3501535,
    "lon": -71.1045366
  },
  {
    "street": "Babcock Street",
    "housenumber": "273",
    "city": "Boston",
    "lat": 42.3525797,
    "lon": -71.1198091
  },
  {
    "street": "Commonwealth Avenue",
    "housenumber": "728",
    "city": "Boston",
    "postcode": "02215",
    "lat": 42.3496762,
    "lon": -71.1063293
  },
  {
    "street": "High Street",
    "housenumber": "104",
    "city": "Boston",
    "postcode": "PE21 8TA",
    "lat": 52.9732752,
    "lon": -0.0247509
  },
  {
    "street": "Main Ridge East",
    "housenumber": "86",
    "city": "Boston",
    "postcode": "PE21 6SY",
    "lat": 52.9782464,
    "lon": -0.0163153
  },
  {
    "street": "Broad Street",
    "housenumber": "80",
    "city": "Boston",
    "lat": 42.3577005,
    "lon": -71.0530222
  },
  {
    "street": "Union Street",
    "housenumber": "45-55",
    "city": "Boston",
    "postcode": "02108",
    "lat": 42.3614571,
    "lon": -71.0570406
  },
  {
    "street": "Congress Street",
    "housenumber": "330",
    "city": "Boston",
    "postcode": "02210",
    "lat": 42.351171,
    "lon": -71.049434
  },
  {
    "street": "Dorchester Avenue",
    "housenumber": "632",
    "city": "Boston",
    "lat": 42.3282863,
    "lon": -71.05675
  },
  {
    "street": "London Road",
    "housenumber": "6",
    "city": "Boston",
    "postcode": "PE21 8AG",
    "lat": 52.9706164,
    "lon": -0.0262226
  },
  {
    "street": "Dartmouth Street",
    "housenumber": "185",
    "city": "Boston",
    "postcode": "02116",
    "lat": 42.3485218,
    "lon": -71.0762884
  },
  {
    "street": "Cummins Highway",
    "housenumber": "16",
    "city": "Boston",
    "postcode": "02131",
    "lat": 42.2861806,
    "lon": -71.1274447
  },
  {
    "street": "Huntington Avenue",
    "housenumber": "120",
    "city": "Boston",
    "postcode": "02116",
    "lat": 42.3457259,
    "lon": -71.0809307
  },
  {
    "street": "Centre Street",
    "housenumber": "358",
    "city": "Boston",
    "postcode": "02130",
    "lat": 42.3223304,
    "lon": -71.1075053
  },
  {
    "street": "Talbot Avenue",
    "housenumber": "555",
    "city": "Boston",
    "postcode": "02124",
    "lat": 42.2860989,
    "lon": -71.0646266
  },
  {
    "street": "Dorchester Avenue",
    "housenumber": "1918",
    "city": "Boston",
    "postcode": "02124",
    "lat": 42.2838236,
    "lon": -71.0646286
  },
  {
    "street": "Shawmut Avenue",
    "housenumber": "314",
    "city": "Boston",
    "lat": 42.3421306,
    "lon": -71.0704032
  },
  {
    "street": "Summer Street",
    "housenumber": "425",
    "city": "Boston",
    "postcode": "02210",
    "lat": 42.3461583,
    "lon": -71.0433047
  },
  {
    "street": "Summer Street",
    "housenumber": "425",
    "city": "Boston",
    "lat": 42.3462734,
    "lon": -71.0431626
  },
  {
    "street": "Seaport Boulevard",
    "housenumber": "200",
    "city": "Boston",
    "lat": 42.3504317,
    "lon": -71.0419235
  },
  {
    "street": "North Square",
    "housenumber": "5",
    "city": "Boston",
    "postcode": "02113",
    "lat": 42.3640061,
    "lon": -71.0535524
  },
  {
    "street": "Summer Street",
    "housenumber": "425",
    "city": "Boston",
    "lat": 42.3464386,
    "lon": -71.0430745
  },
  {
    "street": "Lansdowne Street",
    "housenumber": "82A",
    "city": "Boston",
    "postcode": "02215",
    "lat": 42.3470437,
    "lon": -71.0967137
  },
  {
    "street": "Lansdowne Street",
    "housenumber": "15",
    "city": "Boston",
    "postcode": "02215",
    "lat": 42.3474108,
    "lon": -71.0955967
  },
  {
    "street": "Ipswich Street",
    "housenumber": "145",
    "city": "Boston",
    "postcode": "02215",
    "lat": 42.3474257,
    "lon": -71.0943647
  },
  {
    "street": "Lansdowne Street",
    "housenumber": "9",
    "city": "Boston",
    "postcode": "02215",
    "lat": 42.3473454,
    "lon": -71.0951514
  },
  {
    "street": "Congress Street",
    "housenumber": "355",
    "city": "Boston",
    "postcode": "02210",
    "lat": 42.350181,
    "lon": -71.04844
  },
  {
    "street": "Summer Street",
    "housenumber": "425",
    "city": "Boston",
    "postcode": "02210",
    "lat": 42.3458582,
    "lon": -71.0436805
  },
  {
    "street": "Everett Street",
    "housenumber": "254",
    "city": "East Boston",
    "postcode": "02128",
    "lat": 42.3655182,
    "lon": -71.0297293
  },
  {
    "street": "Everett Street",
    "housenumber": "256",
    "city": "East Boston",
    "postcode": "02128",
    "lat": 42.3654925,
    "lon": -71.0296749
  },
  {
    "street": "Sumner Street",
    "housenumber": "535",
    "city": "Boston",
    "lat": 42.3643866,
    "lon": -71.0296692
  },
  {
    "street": "Jeffries Street",
    "housenumber": "44",
    "city": "Boston",
    "lat": 42.3643599,
    "lon": -71.0298675
  },
  {
    "street": "Jeffries Street",
    "housenumber": "46",
    "city": "Boston",
    "lat": 42.3643281,
    "lon": -71.0298957
  },
  {
    "street": "Jeffries Street",
    "housenumber": "48",
    "city": "Boston",
    "lat": 42.3642667,
    "lon": -71.0299386
  },
  {
    "street": "Marginal Street",
    "housenumber": "288",
    "city": "Boston",
    "lat": 42.3641577,
    "lon": -71.0308975
  },
  {
    "street": "Maverick Street",
    "housenumber": "371",
    "city": "Boston",
    "lat": 42.3659283,
    "lon": -71.0297442
  },
  {
    "street": "Maverick Street",
    "housenumber": "373",
    "city": "Boston",
    "lat": 42.3659838,
    "lon": -71.0297067
  },
  {
    "street": "Aramon Street",
    "housenumber": "3 - 5",
    "city": "Boston",
    "lat": 42.3661861,
    "lon": -71.030769
  },
  {
    "street": "Maverick Street",
    "housenumber": "302",
    "city": "Boston",
    "lat": 42.3673671,
    "lon": -71.0321929
  },
  {
    "street": "Cambridge Street",
    "housenumber": "288",
    "city": "Boston",
    "postcode": "02114",
    "lat": 42.3609909,
    "lon": -71.0682055
  },
  {
    "street": "Cambridge Street",
    "housenumber": "280",
    "city": "Boston",
    "lat": 42.3609949,
    "lon": -71.0680579
  },
  {
    "street": "Cambridge Street",
    "housenumber": "272",
    "city": "Boston",
    "postcode": "02114",
    "lat": 42.3609889,
    "lon": -71.0679602
  },
  {
    "street": "Cambridge Street",
    "housenumber": "204",
    "city": "Boston",
    "lat": 42.3609731,
    "lon": -71.0658862
  },
  {
    "street": "Tremont Street",
    "housenumber": "165",
    "city": "Boston",
    "postcode": "02111",
    "lat": 42.3536887,
    "lon": -71.0638884
  },
  {
    "street": "Adams Street",
    "housenumber": "353",
    "city": "Dorchester",
    "postcode": "02122",
    "lat": 42.2973828,
    "lon": -71.0568151
  },
  {
    "street": "Talbot Avenue",
    "housenumber": "551A",
    "city": "Boston",
    "postcode": "02124",
    "lat": 42.2862483,
    "lon": -71.0646831
  },
  {
    "street": "Washington Street",
    "housenumber": "821",
    "city": "Boston",
    "postcode": "02111",
    "lat": 42.3488946,
    "lon": -71.0642452
  },
  {
    "street": "Tremont Street",
    "housenumber": "1041",
    "city": "Boston",
    "postcode": "02120",
    "lat": 42.3365682,
    "lon": -71.085623
  },
  {
    "street": "Tremont Street",
    "housenumber": "981",
    "city": "Boston",
    "postcode": "02116",
    "lat": 42.3372859,
    "lon": -71.0843302
  },
  {
    "street": "Huntington Avenue",
    "housenumber": "360",
    "city": "Boston",
    "postcode": "02115",
    "lat": 42.3389976,
    "lon": -71.0872848
  },
  {
    "street": "Huntington Avenue",
    "housenumber": "360",
    "city": "Boston",
    "postcode": "02115",
    "lat": 42.3390448,
    "lon": -71.0875401
  },
  {
    "street": "Huntington Avenue",
    "housenumber": "263",
    "city": "Boston",
    "postcode": "02115",
    "lat": 42.3421493,
    "lon": -71.0860734
  },
  {
    "street": "Huntington Avenue",
    "housenumber": "283",
    "city": "Boston",
    "postcode": "02115",
    "lat": 42.3418178,
    "lon": -71.0864751
  },
  {
    "street": "Cambridge Street",
    "housenumber": "219",
    "city": "Allston",
    "postcode": "02134",
    "lat": 42.3582321,
    "lon": -71.1262334
  },
  {
    "street": "Huntington Avenue",
    "housenumber": "800",
    "city": "Boston",
    "postcode": "02120",
    "lat": 42.3330898,
    "lon": -71.1074741
  },
  {
    "street": "Dorchester Avenue",
    "housenumber": "611",
    "city": "Boston",
    "postcode": "02127",
    "lat": 42.3288045,
    "lon": -71.0570881
  },
  {
    "street": "Boston Street",
    "housenumber": "82",
    "city": "Boston",
    "postcode": "02125",
    "lat": 42.3266369,
    "lon": -71.0583975
  },
  {
    "street": "Neponset Avenue",
    "housenumber": "243",
    "city": "Boston",
    "postcode": "02122",
    "lat": 42.2901927,
    "lon": -71.0488041
  },
  {
    "street": "Kingston Street",
    "housenumber": "28",
    "city": "Boston",
    "postcode": "02111",
    "lat": 42.3533994,
    "lon": -71.0591955
  },
  {
    "street": "Beacon Street",
    "housenumber": "636",
    "city": "Boston",
    "postcode": "02215",
    "lat": 42.3495134,
    "lon": -71.0951372
  },
  {
    "street": "Beacon Street",
    "housenumber": "636",
    "city": "Boston",
    "postcode": "02215",
    "lat": 42.3494898,
    "lon": -71.0952642
  },
  {
    "street": "Dorchester Avenue",
    "housenumber": "888",
    "city": "Dorchester",
    "postcode": "02125",
    "lat": 42.3205933,
    "lon": -71.0565137
  },
  {
    "street": "Dorchester Avenue",
    "housenumber": "845",
    "city": "Dorchester",
    "postcode": "02125",
    "lat": 42.321815,
    "lon": -71.0569268
  },
  {
    "street": "Dorchester Avenue",
    "housenumber": "857",
    "city": "Boston",
    "postcode": "02125",
    "lat": 42.3214818,
    "lon": -71.0569268
  },
  {
    "street": "Commonwealth Avenue",
    "housenumber": "595",
    "city": "Campus Dining Services/Starbucks Coffee",
    "postcode": "02215",
    "lat": 42.3495212,
    "lon": -71.0999346
  },
  {
    "street": "Commonwealth Avenue",
    "housenumber": "528",
    "city": "Boston",
    "postcode": "02215",
    "lat": 42.3485601,
    "lon": -71.0961765
  },
  {
    "street": "Commonwealth Avenue",
    "housenumber": "700",
    "city": "Boston",
    "postcode": "02215",
    "lat": 42.3493987,
    "lon": -71.1031365
  },
  {
    "street": "Commonwealth Avenue",
    "housenumber": "500",
    "city": "Boston",
    "postcode": "02215",
    "lat": 42.3485521,
    "lon": -71.0950952
  },
  {
    "street": "Beacon Street",
    "housenumber": "65-66",
    "city": "Boston",
    "postcode": "02108",
    "lat": 42.3563867,
    "lon": -71.0693504
  },
  {
    "street": "Park Plaza",
    "housenumber": "8",
    "city": "Boston",
    "postcode": "02116-3952",
    "lat": 42.3512134,
    "lon": -71.0664259
  },
  {
    "street": "Stuart Street",
    "housenumber": "63",
    "city": "Boston",
    "postcode": "02116",
    "lat": 42.3512106,
    "lon": -71.0643655
  },
  {
    "street": "Blue Hill Avenue",
    "housenumber": "930",
    "city": "Boston",
    "postcode": "02124",
    "lat": 42.2921432,
    "lon": -71.0879854
  },
  {
    "street": "Independence Drive",
    "housenumber": "291",
    "city": "Chestnut Hill",
    "postcode": "02467",
    "lat": 42.2961867,
    "lon": -71.158616
  },
  {
    "street": "Veterans of Foreign Wars Parkway",
    "housenumber": "655",
    "city": "Boston",
    "postcode": "02467",
    "lat": 42.2963494,
    "lon": -71.1569504
  },
  {
    "street": "Temple Place",
    "housenumber": "60",
    "city": "Boston",
    "postcode": "02111",
    "lat": 42.354961,
    "lon": -71.061446
  },
  {
    "street": "Washington Street",
    "housenumber": "5315",
    "city": "West Roxbury",
    "postcode": "02132",
    "lat": 42.2582797,
    "lon": -71.1611822
  },
  {
    "street": "Centre Street",
    "housenumber": "1779",
    "city": "West Roxbury",
    "postcode": "02132",
    "lat": 42.2876561,
    "lon": -71.1516572
  },
  {
    "street": "Lincoln Street",
    "housenumber": "66",
    "city": "Boston",
    "postcode": "02111",
    "lat": 42.3521764,
    "lon": -71.0579115
  },
  {
    "street": "Lincoln Street",
    "housenumber": "162",
    "city": "Boston",
    "postcode": "02111",
    "lat": 42.3507726,
    "lon": -71.0583898
  },
  {
    "street": "Kneeland Street",
    "housenumber": "150",
    "city": "Boston",
    "lat": 42.3499328,
    "lon": -71.0582458
  },
  {
    "street": "Kneeland Street",
    "housenumber": "164",
    "city": "Boston",
    "lat": 42.3498761,
    "lon": -71.0580049
  },
  {
    "street": "South Street",
    "housenumber": "181",
    "city": "Boston",
    "lat": 42.3501375,
    "lon": -71.0576574
  },
  {
    "street": "South Street",
    "housenumber": "210",
    "city": "Boston",
    "lat": 42.3498184,
    "lon": -71.0574606
  },
  {
    "street": "Essex Street",
    "housenumber": "179",
    "city": "Boston",
    "postcode": "02111",
    "lat": 42.352008,
    "lon": -71.0573119
  },
  {
    "street": "South Street",
    "housenumber": "103",
    "city": "Boston",
    "lat": 42.3516984,
    "lon": -71.0573696
  },
  {
    "street": "Essex Street",
    "housenumber": "181",
    "city": "Boston",
    "lat": 42.3520677,
    "lon": -71.0574663
  },
  {
    "street": "South Street",
    "housenumber": "60",
    "city": "Boston",
    "lat": 42.3519373,
    "lon": -71.0570604
  },
  {
    "street": "Atlantic Avenue",
    "housenumber": "695",
    "city": "Boston",
    "lat": 42.3515377,
    "lon": -71.0561977
  },
  {
    "street": "South Street",
    "housenumber": "89",
    "city": "Boston",
    "lat": 42.3518221,
    "lon": -71.0573484
  },
  {
    "street": "Atlantic Avenue",
    "housenumber": "711",
    "city": "Boston",
    "postcode": "02111",
    "lat": 42.3512165,
    "lon": -71.0564197
  },
  {
    "street": "Beach Street",
    "housenumber": "140",
    "city": "Boston",
    "lat": 42.3506191,
    "lon": -71.0569596
  },
  {
    "street": "East Street",
    "housenumber": "20",
    "city": "Boston",
    "lat": 42.3515102,
    "lon": -71.0567243
  },
  {
    "street": "Atlantic Avenue",
    "housenumber": "700",
    "city": "Boston",
    "lat": 42.3503458,
    "lon": -71.0563179
  },
  {
    "street": "Atlantic Avenue",
    "housenumber": "711",
    "city": "Boston",
    "lat": 42.3510033,
    "lon": -71.0565164
  },
  {
    "street": "Atlantic Avenue",
    "housenumber": "717",
    "city": "Boston",
    "postcode": "02111",
    "lat": 42.3508013,
    "lon": -71.0566199
  },
  {
    "street": "Atlantic Avenue",
    "housenumber": "727",
    "city": "Boston",
    "postcode": "02111",
    "lat": 42.3506754,
    "lon": -71.056699
  },
  {
    "street": "Atlantic Avenue",
    "housenumber": "745",
    "city": "Boston",
    "lat": 42.3503565,
    "lon": -71.0568431
  },
  {
    "street": "Bedford Street",
    "housenumber": "99",
    "city": "Boston",
    "lat": 42.3532502,
    "lon": -71.0579655
  },
  {
    "street": "Summer Street",
    "housenumber": "100",
    "city": "Boston",
    "lat": 42.353667,
    "lon": -71.0575216
  },
  {
    "street": "Commonwealth Avenue",
    "housenumber": "967",
    "city": "Boston",
    "lat": 42.35183,
    "lon": -71.1194989
  },
  {
    "street": "Forsyth Street",
    "housenumber": "115",
    "city": "Boston",
    "postcode": "02115",
    "lat": 42.3375049,
    "lon": -71.0901364
  },
  {
    "street": "Leon Street",
    "housenumber": "Ryder",
    "city": "Boston",
    "postcode": "02115",
    "lat": 42.3366147,
    "lon": -71.0905736
  },
  {
    "street": "High Street",
    "housenumber": "184",
    "city": "Boston",
    "lat": 42.3565905,
    "lon": -71.0527728
  },
  {
    "street": "P Street",
    "housenumber": "149",
    "city": "Boston",
    "postcode": "02127",
    "lat": 42.3331084,
    "lon": -71.0273177
  },
  {
    "street": "P Street",
    "housenumber": "11",
    "city": "Boston",
    "lat": 42.33778,
    "lon": -71.0274312
  },
  {
    "street": "Beacon Street",
    "housenumber": "1960",
    "city": "Brighton",
    "lat": 42.3363699,
    "lon": -71.1504142
  },
  {
    "street": "Temple Place",
    "housenumber": "21",
    "city": "Boston",
    "lat": 42.3552498,
    "lon": -71.0623372
  },
  {
    "street": "Centre Street",
    "housenumber": "403",
    "city": "Boston",
    "postcode": "02130",
    "lat": 42.3216357,
    "lon": -71.1103151
  },
  {
    "street": "Amory Street",
    "housenumber": "284",
    "city": "Jamaica Plain",
    "postcode": "02130",
    "lat": 42.3144172,
    "lon": -71.1040271
  },
  {
    "street": "Boylston Street",
    "housenumber": "66",
    "city": "Jamaica Plain",
    "postcode": "02130",
    "lat": 42.3172057,
    "lon": -71.10629
  },
  {
    "street": "Centre Street",
    "housenumber": "729",
    "city": "Boston",
    "lat": 42.3110544,
    "lon": -71.1147246
  },
  {
    "street": "Centre Street",
    "housenumber": "672",
    "city": "Jamaica Plain",
    "postcode": "02130",
    "lat": 42.3123528,
    "lon": -71.1139621
  },
  {
    "street": "Centre Street",
    "housenumber": "676",
    "city": "Boston",
    "lat": 42.3121001,
    "lon": -71.1140295
  },
  {
    "street": "Centre Street",
    "housenumber": "678",
    "city": "Boston",
    "lat": 42.312046,
    "lon": -71.1140475
  },
  {
    "street": "Stuart Street",
    "housenumber": "19",
    "city": "Boston",
    "lat": 42.3511012,
    "lon": -71.0633625
  },
  {
    "street": "Stuart Street",
    "housenumber": "1",
    "city": "Boston",
    "postcode": "02111",
    "lat": 42.3510675,
    "lon": -71.0631238
  },
  {
    "street": "Commonwealth Avenue",
    "housenumber": "1230",
    "city": "Boston",
    "postcode": "02135",
    "lat": 42.3499761,
    "lon": -71.1309633
  },
  {
    "street": "Boylston Street",
    "housenumber": "815",
    "city": "Boston",
    "postcode": "02116",
    "lat": 42.3489689,
    "lon": -71.0824143
  },
  {
    "street": "Columbus Avenue",
    "housenumber": "567",
    "city": "Boston",
    "postcode": "02118",
    "lat": 42.3410055,
    "lon": -71.0815425
  },
  {
    "street": "Massachusetts Avenue",
    "housenumber": "175",
    "city": "Boston",
    "postcode": "02215",
    "lat": 42.3458492,
    "lon": -71.0872764
  },
  {
    "street": "Tremont Street",
    "housenumber": "782",
    "city": "Boston",
    "postcode": "02118",
    "lat": 42.3390224,
    "lon": -71.0804718
  },
  {
    "street": "Massachusetts Avenue",
    "housenumber": "182",
    "city": "Boston",
    "postcode": "02215",
    "lat": 42.3458115,
    "lon": -71.0868122
  },
  {
    "street": "Boylston Street",
    "housenumber": "1106",
    "city": "Boston",
    "postcode": "02115",
    "lat": 42.3468331,
    "lon": -71.088552
  },
  {
    "street": "Massachusetts Avenue",
    "housenumber": "179",
    "city": "Boston",
    "postcode": "02115",
    "lat": 42.3457309,
    "lon": -71.0871907
  },
  {
    "street": "Massachusetts Avenue",
    "housenumber": "374",
    "city": "Boston",
    "postcode": "02115",
    "lat": 42.3419062,
    "lon": -71.083346
  },
  {
    "street": "Tremont Street",
    "housenumber": "783",
    "city": "Boston",
    "postcode": "02118",
    "lat": 42.339304,
    "lon": -71.0806882
  },
  {
    "street": "Massachusetts Avenue",
    "housenumber": "147",
    "city": "Boston",
    "postcode": "02115",
    "lat": 42.3466618,
    "lon": -71.0876487
  },
  {
    "street": "Boylston Street",
    "housenumber": "1130",
    "city": "Boston",
    "postcode": "02215",
    "lat": 42.3466842,
    "lon": -71.0890102
  },
  {
    "street": "Boylston Street",
    "housenumber": "1110",
    "city": "Boston",
    "postcode": "02215",
    "lat": 42.3468136,
    "lon": -71.0886276
  },
  {
    "street": "Massachusetts Avenue",
    "housenumber": "412",
    "city": "Boston",
    "postcode": "02118",
    "lat": 42.3414171,
    "lon": -71.0825565
  },
  {
    "street": "Commonwealth Avenue",
    "housenumber": "371",
    "city": "Boston",
    "postcode": "02115",
    "lat": 42.3494485,
    "lon": -71.089041
  },
  {
    "street": "Massachusetts Avenue",
    "housenumber": "45",
    "city": "Boston",
    "postcode": "02115",
    "lat": 42.3499012,
    "lon": -71.089264
  },
  {
    "street": "Marlborough Street",
    "housenumber": "421",
    "city": "Boston",
    "postcode": "02115",
    "lat": 42.3501216,
    "lon": -71.0893601
  },
  {
    "street": "Commonwealth Avenue",
    "housenumber": "370",
    "city": "Boston",
    "postcode": "02115",
    "lat": 42.3486873,
    "lon": -71.0887471
  },
  {
    "street": "Commonwealth Avenue",
    "housenumber": "540",
    "city": "Boston",
    "postcode": "02215",
    "lat": 42.3484698,
    "lon": -71.0969597
  },
  {
    "street": "Brookline Avenue",
    "housenumber": "61",
    "city": "Boston",
    "postcode": "02215",
    "lat": 42.3469999,
    "lon": -71.0989887
  },
  {
    "street": "Commonwealth Avenue",
    "housenumber": "491",
    "city": "Boston",
    "postcode": "02215",
    "lat": 42.3493074,
    "lon": -71.0943202
  },
  {
    "street": "Commonwealth Avenue",
    "housenumber": "530",
    "city": "Boston",
    "postcode": "02215",
    "lat": 42.3485501,
    "lon": -71.0963142
  },
  {
    "street": "Commonwealth Avenue",
    "housenumber": "500",
    "city": "Boston",
    "postcode": "02215",
    "lat": 42.348593,
    "lon": -71.0953263
  },
  {
    "street": "Commonwealth Avenue",
    "housenumber": "486",
    "city": "Boston",
    "postcode": "02215",
    "lat": 42.3485481,
    "lon": -71.0943415
  },
  {
    "street": "Commonwealth Avenue",
    "housenumber": "540",
    "city": "Boston",
    "postcode": "02215",
    "lat": 42.3485145,
    "lon": -71.0968382
  },
  {
    "street": "Commonwealth Avenue",
    "housenumber": "500",
    "city": "Boston",
    "postcode": "02215",
    "lat": 42.3485642,
    "lon": -71.0959729
  },
  {
    "street": "Commonwealth Avenue",
    "housenumber": "532",
    "city": "Boston",
    "postcode": "02215",
    "lat": 42.3485466,
    "lon": -71.096419
  },
  {
    "street": "Boylston Street",
    "housenumber": "425",
    "city": "Boston",
    "postcode": "02116",
    "lat": 42.3515568,
    "lon": -71.0726978
  },
  {
    "street": "Boylston Street",
    "housenumber": "426",
    "city": "Boston",
    "postcode": "02116",
    "lat": 42.3511567,
    "lon": -71.0727532
  },
  {
    "street": "Boylston Street",
    "housenumber": "424",
    "city": "Boston",
    "lat": 42.351196,
    "lon": -71.0726425
  },
  {
    "street": "Boylston Street",
    "housenumber": "416",
    "city": "Boston",
    "lat": 42.3512202,
    "lon": -71.0725508
  },
  {
    "street": "Tremont Street",
    "housenumber": "232",
    "city": "Boston",
    "postcode": "02116",
    "lat": 42.35123,
    "lon": -71.0646747
  },
  {
    "street": "Commonwealth Avenue",
    "housenumber": "540",
    "city": "Boston",
    "postcode": "02215",
    "lat": 42.3485449,
    "lon": -71.0966956
  },
  {
    "street": "Brookline Avenue",
    "housenumber": "364",
    "city": "Boston",
    "postcode": "02115",
    "lat": 42.3385877,
    "lon": -71.1062405
  },
  {
    "street": "Longwood Avenue",
    "housenumber": "283",
    "city": "Boston",
    "postcode": "02115",
    "lat": 42.3377354,
    "lon": -71.1046597
  },
  {
    "street": "Longwood Avenue",
    "housenumber": "350",
    "city": "Boston",
    "postcode": "02115",
    "lat": 42.3386222,
    "lon": -71.1072676
  },
  {
    "street": "Huntington Avenue",
    "housenumber": "735",
    "city": "Boston",
    "postcode": "02115",
    "lat": 42.334063,
    "lon": -71.1053945
  },
  {
    "street": "School Street",
    "housenumber": "24",
    "city": "Boston",
    "postcode": "02108",
    "lat": 42.3573365,
    "lon": -71.0589528
  },
  {
    "street": "School Street",
    "housenumber": "27",
    "city": "Boston",
    "postcode": "02108",
    "lat": 42.357701,
    "lon": -71.0591519
  },
  {
    "street": "School Street",
    "housenumber": "27",
    "city": "Boston",
    "postcode": "02108",
    "lat": 42.3577408,
    "lon": -71.059223
  },
  {
    "street": "Avenue De Lafayette",
    "housenumber": "1",
    "city": "Boston",
    "postcode": "02111",
    "lat": 42.3534041,
    "lon": -71.0607712
  },
  {
    "street": "Hanover Street",
    "housenumber": "300",
    "city": "Boston",
    "postcode": "02113",
    "lat": 42.3641884,
    "lon": -71.0542414
  },
  {
    "street": "Broad Street",
    "housenumber": "33",
    "city": "Boston",
    "postcode": "02108",
    "lat": 42.3583771,
    "lon": -71.054433
  },
  {
    "street": "Beacon Street",
    "housenumber": "838",
    "city": "Boston",
    "postcode": "02215",
    "lat": 42.347314,
    "lon": -71.1031467
  },
  {
    "street": "Beacon Street",
    "housenumber": "914",
    "city": "boston",
    "postcode": "02215",
    "lat": 42.3465892,
    "lon": -71.1062333
  },
  {
    "street": "Huntington Avenue",
    "housenumber": "369",
    "city": "Boston",
    "postcode": "02115",
    "lat": 42.3403456,
    "lon": -71.0906607
  },
  {
    "street": "Brookline Avenue",
    "housenumber": "142-148",
    "city": "Trilogy",
    "postcode": "02215",
    "lat": 42.3442452,
    "lon": -71.101384
  },
  {
    "street": "Brookline Avenue",
    "housenumber": "160",
    "city": "Boston",
    "postcode": "02215",
    "lat": 42.3444389,
    "lon": -71.1011874
  },
  {
    "street": "Brookline Avenue",
    "housenumber": "152",
    "city": "Boston",
    "postcode": "02215",
    "lat": 42.3445392,
    "lon": -71.1010762
  },
  {
    "street": "Brookline Avenue",
    "housenumber": "148",
    "city": "Boston",
    "postcode": "02215",
    "lat": 42.344574,
    "lon": -71.1008236
  },
  {
    "street": "Peterborough Street",
    "housenumber": "100",
    "city": "Boston",
    "postcode": "02215",
    "lat": 42.3430238,
    "lon": -71.0993993
  },
  {
    "street": "Peterborough Street",
    "housenumber": "96",
    "city": "Boston",
    "postcode": "02215",
    "lat": 42.3430483,
    "lon": -71.0992983
  },
  {
    "street": "Peterborough Street",
    "housenumber": "94",
    "city": "Boston",
    "postcode": "02215",
    "lat": 42.3430842,
    "lon": -71.099175
  },
  {
    "street": "Peterborough Street",
    "housenumber": "92",
    "city": "Boston",
    "postcode": "02215",
    "lat": 42.3431054,
    "lon": -71.0990861
  },
  {
    "street": "Jersey Street",
    "housenumber": "117",
    "city": "Boston",
    "postcode": "02115",
    "lat": 42.3425937,
    "lon": -71.0970077
  },
  {
    "street": "Avery Street",
    "housenumber": "4",
    "city": "Boston",
    "postcode": "02111",
    "lat": 42.3531469,
    "lon": -71.0630373
  },
  {
    "street": "Meridian Street",
    "housenumber": "150",
    "city": "East Boston",
    "postcode": "02128",
    "lat": 42.3739221,
    "lon": -71.0392151
  },
  {
    "street": "Maverick Street",
    "housenumber": "20",
    "city": "East Boston",
    "postcode": "02128",
    "lat": 42.3716451,
    "lon": -71.0420659
  },
  {
    "street": "Huntington Avenue",
    "housenumber": "111",
    "city": "Boston",
    "postcode": "02116",
    "lat": 42.3464582,
    "lon": -71.0818241
  },
  {
    "street": "Huntington Avenue",
    "housenumber": "10",
    "city": "Boston",
    "postcode": "02116",
    "lat": 42.3485752,
    "lon": -71.0772032
  },
  {
    "street": "Washington Street",
    "housenumber": "283",
    "city": "Boston",
    "postcode": "02108",
    "lat": 42.3575099,
    "lon": -71.0584354
  },
  {
    "street": "Portland Street",
    "housenumber": "138",
    "city": "Boston",
    "lat": 42.3636502,
    "lon": -71.0611221
  },
  {
    "street": "Adams Street",
    "housenumber": "60",
    "city": "Milton",
    "postcode": "02186",
    "lat": 42.2724435,
    "lon": -71.0669442
  },
  {
    "street": "Summer Street",
    "housenumber": "837",
    "city": "Boston",
    "lat": 42.3380229,
    "lon": -71.0356837
  },
  {
    "street": "L Street",
    "housenumber": "56",
    "city": "South Boston",
    "postcode": "02127",
    "lat": 42.3363816,
    "lon": -71.0352776
  },
  {
    "street": "Devonshire Street",
    "housenumber": "161",
    "city": "Boston",
    "postcode": "02110",
    "lat": 42.3562793,
    "lon": -71.0574902
  },
  {
    "street": "Congress Street",
    "housenumber": "355",
    "city": "Boston",
    "postcode": "02210",
    "lat": 42.3501528,
    "lon": -71.0484632
  },
  {
    "street": "Boylston Street",
    "housenumber": "607",
    "city": "Boston",
    "postcode": "02116",
    "lat": 42.3505094,
    "lon": -71.0771718
  },
  {
    "street": "Arlington Street",
    "housenumber": "75",
    "city": "Boston",
    "postcode": "02116",
    "lat": 42.3505483,
    "lon": -71.0704182
  },
  {
    "street": "Arlington Street",
    "housenumber": "75",
    "city": "Boston",
    "postcode": "02116",
    "lat": 42.3507971,
    "lon": -71.0705266
  },
  {
    "street": "Faneuil Street",
    "housenumber": "236",
    "city": "Brighton",
    "postcode": "02135",
    "lat": 42.3528788,
    "lon": -71.1594983
  },
  {
    "street": "Washington Street",
    "housenumber": "615",
    "city": "Brighton",
    "postcode": "02135",
    "lat": 42.3509398,
    "lon": -71.1672541
  },
  {
    "street": "Post Office Square",
    "housenumber": "10",
    "city": "Boston",
    "postcode": "02109",
    "lat": 42.3573104,
    "lon": -71.0558515
  },
  {
    "street": "Franklin Street",
    "housenumber": "265",
    "city": "Boston",
    "postcode": "02110",
    "lat": 42.3565617,
    "lon": -71.0534199
  },
  {
    "street": "Charles Street South",
    "housenumber": "78",
    "city": "Boston",
    "postcode": "02116",
    "lat": 42.3499628,
    "lon": -71.0663948
  },
  {
    "street": "Boylston Street",
    "housenumber": "140",
    "city": "Boston",
    "postcode": "02116",
    "lat": 42.3523987,
    "lon": -71.0668621
  },
  {
    "street": "Washington Street",
    "housenumber": "3484",
    "city": "Jamaica Plain",
    "postcode": "02130",
    "lat": 42.3065707,
    "lon": -71.1072478
  },
  {
    "street": "Cambridge Street",
    "housenumber": "316",
    "city": "Boston",
    "postcode": "02114",
    "lat": 42.3609663,
    "lon": -71.0689181
  },
  {
    "street": "Cambridge Street",
    "housenumber": "242",
    "city": "Boston",
    "postcode": "02114",
    "lat": 42.360994,
    "lon": -71.0671559
  },
  {
    "street": "Cambridge Street",
    "housenumber": "240",
    "city": "Boston",
    "postcode": "02114",
    "lat": 42.361003,
    "lon": -71.0668207
  },
  {
    "street": "Cambridge Street",
    "housenumber": "228",
    "city": "Boston",
    "postcode": "02114",
    "lat": 42.3610059,
    "lon": -71.0666758
  },
  {
    "street": "Cambridge Street",
    "housenumber": "222",
    "city": "Boston",
    "postcode": "02114",
    "lat": 42.361007,
    "lon": -71.0665202
  },
  {
    "street": "Charles Street",
    "housenumber": "149",
    "city": "Boston",
    "postcode": "02114",
    "lat": 42.3604302,
    "lon": -71.070636
  },
  {
    "street": "Charles Street",
    "housenumber": "145",
    "city": "Boston",
    "postcode": "02114",
    "lat": 42.3603697,
    "lon": -71.0706347
  },
  {
    "street": "Cambridge Street",
    "housenumber": "191",
    "city": "Boston",
    "postcode": "02114",
    "lat": 42.3620776,
    "lon": -71.0656249
  },
  {
    "street": "Cambridge Street",
    "housenumber": "181",
    "city": "Boston",
    "postcode": "02114",
    "lat": 42.3620025,
    "lon": -71.0653418
  },
  {
    "street": "Pump Square",
    "housenumber": "1",
    "city": "Boston",
    "postcode": "PE21 6QP",
    "lat": 52.9780066,
    "lon": -0.0220107
  },
  {
    "street": "Cambridge Street",
    "housenumber": "282",
    "city": "Boston",
    "postcode": "02114",
    "lat": 42.3609929,
    "lon": -71.0681277
  },
  {
    "street": "Cambridge Street",
    "housenumber": "250",
    "city": "Boston",
    "postcode": "02114",
    "lat": 42.3609929,
    "lon": -71.0672908
  },
  {
    "street": "Causeway Street",
    "housenumber": "125",
    "city": "Boston",
    "postcode": "02114",
    "lat": 42.365234,
    "lon": -71.0611969
  },
  {
    "street": "Canal Street",
    "housenumber": "166",
    "city": "Boston",
    "postcode": "02114",
    "lat": 42.3650161,
    "lon": -71.0609394
  },
  {
    "street": "Canal Street",
    "housenumber": "168",
    "city": "Boston",
    "postcode": "02114",
    "lat": 42.3651059,
    "lon": -71.0609947
  },
  {
    "street": "Canal Street",
    "housenumber": "150",
    "city": "Boston",
    "postcode": "02114",
    "lat": 42.3648417,
    "lon": -71.0607328
  },
  {
    "street": "Canal Street",
    "housenumber": "132",
    "city": "Boston",
    "postcode": "02114",
    "lat": 42.3647227,
    "lon": -71.0606014
  },
  {
    "street": "Canal Street",
    "housenumber": "57",
    "city": "Boston",
    "postcode": "02114",
    "lat": 42.3638369,
    "lon": -71.0591047
  },
  {
    "street": "Canal Street",
    "housenumber": "101",
    "city": "Boston",
    "postcode": "02114",
    "lat": 42.3654203,
    "lon": -71.0608938
  },
  {
    "street": "Causeway Street",
    "housenumber": "115",
    "city": "Boston",
    "postcode": "02114",
    "lat": 42.3650755,
    "lon": -71.0614919
  },
  {
    "street": "Causeway Street",
    "housenumber": "101",
    "city": "Boston",
    "postcode": "02114",
    "lat": 42.3648886,
    "lon": -71.0619016
  },
  {
    "street": "Causeway Street",
    "housenumber": "91-99",
    "city": "Boston",
    "postcode": "02114",
    "lat": 42.3647842,
    "lon": -71.062082
  },
  {
    "street": "Causeway Street",
    "housenumber": "85",
    "city": "Boston",
    "postcode": "02114",
    "lat": 42.364582,
    "lon": -71.0624441
  },
  {
    "street": "Causeway Street",
    "housenumber": "59",
    "city": "Boston",
    "postcode": "02114",
    "lat": 42.364372,
    "lon": -71.0629242
  },
  {
    "street": "Causeway Street",
    "housenumber": "55",
    "city": "Boston",
    "postcode": "02114",
    "lat": 42.3643327,
    "lon": -71.0630074
  },
  {
    "street": "Staniford Street",
    "housenumber": "74",
    "city": "Boston",
    "postcode": "02114",
    "lat": 42.3632066,
    "lon": -71.0640024
  },
  {
    "street": "Staniford Street",
    "housenumber": "64",
    "city": "Boston",
    "postcode": "02114",
    "lat": 42.362842,
    "lon": -71.0641231
  },
  {
    "street": "Staniford Street",
    "housenumber": "66",
    "city": "Boston",
    "postcode": "02114",
    "lat": 42.3629292,
    "lon": -71.0640963
  },
  {
    "street": "Staniford Street",
    "housenumber": "68",
    "city": "Boston",
    "postcode": "02114",
    "lat": 42.3630144,
    "lon": -71.0640749
  },
  {
    "street": "Cambridge Street",
    "housenumber": "138",
    "city": "Boston",
    "postcode": "02114",
    "lat": 42.3610246,
    "lon": -71.0639676
  },
  {
    "street": "Cambridge Street",
    "housenumber": "122-128",
    "city": "Boston",
    "postcode": "02114",
    "lat": 42.3610266,
    "lon": -71.0636082
  },
  {
    "street": "Cambridge Street",
    "housenumber": "106",
    "city": "Boston",
    "postcode": "02114",
    "lat": 42.3610246,
    "lon": -71.0630851
  },
  {
    "street": "Cambridge Street",
    "housenumber": "120",
    "city": "Boston",
    "postcode": "02114",
    "lat": 42.3610186,
    "lon": -71.0632702
  },
  {
    "street": "Cambridge Street",
    "housenumber": "100",
    "city": "Boston",
    "postcode": "02114",
    "lat": 42.360981,
    "lon": -71.0626238
  },
  {
    "street": "Cambridge Street",
    "housenumber": "172",
    "city": "Boston",
    "postcode": "02114",
    "lat": 42.3610068,
    "lon": -71.0650405
  },
  {
    "street": "Cambridge Street",
    "housenumber": "170",
    "city": "Boston",
    "postcode": "02114",
    "lat": 42.3610068,
    "lon": -71.0649895
  },
  {
    "street": "Cambridge Street",
    "housenumber": "168",
    "city": "Boston",
    "postcode": "02114",
    "lat": 42.3610068,
    "lon": -71.0649359
  },
  {
    "street": "Cambridge Street",
    "housenumber": "161",
    "city": "Boston",
    "postcode": "02114",
    "lat": 42.3614071,
    "lon": -71.0653976
  },
  {
    "street": "Cambridge Street",
    "housenumber": "210",
    "city": "Boston",
    "postcode": "02114",
    "lat": 42.3610028,
    "lon": -71.0661026
  },
  {
    "street": "Cambridge Street",
    "housenumber": "175",
    "city": "Boston",
    "postcode": "02114",
    "lat": 42.3613595,
    "lon": -71.0659551
  },
  {
    "street": "Cambridge Street",
    "housenumber": "173B",
    "city": "Boston",
    "postcode": "02114",
    "lat": 42.3613536,
    "lon": -71.0662421
  },
  {
    "street": "Cambridge Street",
    "housenumber": "326",
    "city": "Boston",
    "postcode": "02114",
    "lat": 42.3609592,
    "lon": -71.0693025
  },
  {
    "street": "Cambridge Street",
    "housenumber": "326",
    "city": "Boston",
    "postcode": "02114",
    "lat": 42.3609631,
    "lon": -71.0691442
  },
  {
    "street": "Cambridge Street",
    "housenumber": "277",
    "city": "Boston",
    "postcode": "02114",
    "lat": 42.3613001,
    "lon": -71.068353
  },
  {
    "street": "Charles Street",
    "housenumber": "150",
    "city": "Boston",
    "postcode": "02114",
    "lat": 42.3601077,
    "lon": -71.0709826
  },
  {
    "street": "Charles Street",
    "housenumber": "144",
    "city": "Boston",
    "postcode": "02114",
    "lat": 42.3599789,
    "lon": -71.0709685
  },
  {
    "street": "Charles Street",
    "housenumber": "151",
    "city": "Boston",
    "postcode": "02114",
    "lat": 42.3605192,
    "lon": -71.0706248
  },
  {
    "street": "Charles Street",
    "housenumber": "161",
    "city": "Boston",
    "postcode": "02114",
    "lat": 42.3607914,
    "lon": -71.0702452
  },
  {
    "street": "Charles Street",
    "housenumber": "143",
    "city": "Boston",
    "postcode": "02114",
    "lat": 42.3602732,
    "lon": -71.0706345
  },
  {
    "street": "Charles Street",
    "housenumber": "139",
    "city": "Boston",
    "postcode": "02114",
    "lat": 42.3602088,
    "lon": -71.0706346
  },
  {
    "street": "Northern Avenue",
    "housenumber": "306",
    "city": "Boston",
    "postcode": "02210",
    "lat": 42.3472714,
    "lon": -71.0339692
  },
  {
    "street": "Akron Street",
    "housenumber": "1",
    "city": "Boston",
    "lat": 42.3258869,
    "lon": -71.0864111
  },
  {
    "street": "Boylston Street",
    "housenumber": "179",
    "city": "Jamaica Plain",
    "postcode": "02130",
    "lat": 42.3149874,
    "lon": -71.1025517
  },
  {
    "street": "London Road",
    "housenumber": "23",
    "city": "Boston",
    "postcode": "PE20 1JE",
    "lat": 52.92754,
    "lon": -0.060352
  },
  {
    "street": "Guest Street",
    "housenumber": "1",
    "city": "Boston",
    "postcode": "02135",
    "lat": 42.35687,
    "lon": -71.1479096
  },
  {
    "street": "Berkeley Street",
    "housenumber": "40",
    "city": "Boston",
    "postcode": "02116",
    "lat": 42.346057,
    "lon": -71.0708438
  },
  {
    "street": "Federal Street",
    "housenumber": "1",
    "city": "Boston",
    "lat": 42.3564941,
    "lon": -71.0568139
  },
  {
    "street": "Congress Street",
    "housenumber": "343",
    "city": "Boston",
    "postcode": "02210",
    "lat": 42.3508403,
    "lon": -71.0494833
  },
  {
    "street": "Congress Street",
    "housenumber": "383",
    "city": "Boston",
    "postcode": "02210",
    "lat": 42.3495874,
    "lon": -71.0474916
  },
  {
    "street": "Congress Street",
    "housenumber": "345",
    "city": "Boston",
    "postcode": "02210",
    "lat": 42.350548,
    "lon": -71.0490382
  },
  {
    "street": "Congress Street",
    "housenumber": "348",
    "city": "Boston",
    "postcode": "02210",
    "lat": 42.3505525,
    "lon": -71.0485101
  },
  {
    "street": "Chelsea Street",
    "housenumber": "111",
    "city": "East Boston",
    "postcode": "02128",
    "lat": 42.3726687,
    "lon": -71.0353415
  },
  {
    "street": "Service Road",
    "housenumber": "2",
    "city": "East Boston",
    "postcode": "02128",
    "lat": 42.3755234,
    "lon": -71.0281826
  },
  {
    "street": "Northern Avenue",
    "housenumber": "300",
    "city": "Boston",
    "lat": 42.3478563,
    "lon": -71.0359785
  },
  {
    "street": "West End Road",
    "housenumber": "71",
    "city": "Boston",
    "postcode": "PE20 1BT",
    "lat": 52.9405069,
    "lon": -0.0632064
  },
  {
    "street": "Tremont Street",
    "housenumber": "90",
    "city": "Boston",
    "postcode": "02108",
    "lat": 42.3573301,
    "lon": -71.0606926
  },
  {
    "street": "Avery Street",
    "housenumber": "10",
    "city": "Boston",
    "postcode": "02111",
    "lat": 42.3531653,
    "lon": -71.0636868
  },
  {
    "street": "Dorchester Avenue",
    "housenumber": "220",
    "city": "Boston",
    "postcode": "02127",
    "lat": 42.3401238,
    "lon": -71.0567898
  },
  {
    "street": "Northern Avenue",
    "housenumber": "225",
    "city": "Boston",
    "postcode": "02210",
    "lat": 42.3484554,
    "lon": -71.0384942
  },
  {
    "street": "Northern Avenue",
    "housenumber": "270",
    "city": "Boston",
    "lat": 42.3486219,
    "lon": -71.0377807
  },
  {
    "street": "Centre Street",
    "housenumber": "605",
    "city": "Jamaica Plain",
    "postcode": "02130",
    "lat": 42.3147474,
    "lon": -71.1142615
  },
  {
    "street": "Centre Street",
    "housenumber": "603",
    "city": "Boston",
    "lat": 42.3147857,
    "lon": -71.1142577
  },
  {
    "street": "Centre Street",
    "housenumber": "603",
    "city": "Jamaica Plain",
    "postcode": "02130",
    "lat": 42.314824,
    "lon": -71.1142555
  },
  {
    "street": "Centre Street",
    "housenumber": "599",
    "city": "Boston",
    "lat": 42.3148932,
    "lon": -71.1142535
  },
  {
    "street": "Pond Street",
    "housenumber": "7",
    "city": "Jamaica Plain",
    "postcode": "02130",
    "lat": 42.3147663,
    "lon": -71.114369
  },
  {
    "street": "Tomahawk Drive",
    "housenumber": "156",
    "city": "Boston",
    "postcode": "02128",
    "lat": 42.3675601,
    "lon": -71.0313707
  },
  {
    "street": "School Street",
    "housenumber": "60",
    "city": "Boston",
    "postcode": "02108",
    "lat": 42.3578372,
    "lon": -71.0602361
  },
  {
    "street": "State Street",
    "housenumber": "165",
    "city": "Boston",
    "postcode": "02109",
    "lat": 42.3592716,
    "lon": -71.0528316
  },
  {
    "street": "Warrenton Street",
    "housenumber": "100",
    "city": "Boston",
    "postcode": "02116",
    "lat": 42.3506611,
    "lon": -71.0662113
  },
  {
    "street": "Commonwealth Avenue",
    "housenumber": "957",
    "city": "Boston",
    "postcode": "02215",
    "lat": 42.3517005,
    "lon": -71.1190102
  },
  {
    "street": "Washington Street",
    "housenumber": "631",
    "city": "Boston",
    "postcode": "02116",
    "lat": 42.3524008,
    "lon": -71.0628808
  },
  {
    "street": "Beach Street",
    "housenumber": "75",
    "city": "Boston",
    "postcode": "02111",
    "lat": 42.3514695,
    "lon": -71.059355
  },
  {
    "street": "Cambridge Street",
    "housenumber": "165",
    "city": "Boston",
    "postcode": "02114",
    "lat": 42.3612995,
    "lon": -71.0652246
  },
  {
    "street": "Atlantic Avenue",
    "housenumber": "200",
    "city": "Boston",
    "postcode": "02110",
    "lat": 42.3599087,
    "lon": -71.0514427
  },
  {
    "street": "Tremont Street",
    "housenumber": "150",
    "city": "Boston",
    "postcode": "02111",
    "lat": 42.3549535,
    "lon": -71.0633749
  },
  {
    "street": "Hanover Street",
    "housenumber": "200",
    "city": "Boston",
    "postcode": "02113",
    "lat": 42.3628305,
    "lon": -71.0561164
  },
  {
    "street": "Park Plaza",
    "housenumber": "8",
    "city": "Boston",
    "postcode": "02116",
    "lat": 42.351179,
    "lon": -71.0663529
  },
  {
    "street": "Atlantic Avenue",
    "housenumber": "2",
    "city": "Boston",
    "postcode": "02110",
    "lat": 42.3638888,
    "lon": -71.0508797
  },
  {
    "street": "State Street",
    "housenumber": "28",
    "city": "Boston",
    "postcode": "02109",
    "lat": 42.3590016,
    "lon": -71.0575529
  },
  {
    "street": "Commonwealth Avenue",
    "housenumber": "1065",
    "city": "Boston",
    "postcode": "02215",
    "lat": 42.3522601,
    "lon": -71.1237528
  },
  {
    "street": "Rowes Wharf",
    "housenumber": "30",
    "city": "Boston",
    "postcode": "02110",
    "lat": 42.3571387,
    "lon": -71.0507043
  },
  {
    "street": "Atlantic Avenue",
    "housenumber": "700",
    "city": "Boston",
    "postcode": "02111",
    "lat": 42.3520961,
    "lon": -71.055608
  },
  {
    "street": "Hemenway Street",
    "housenumber": "146",
    "city": "Boston",
    "postcode": "02115",
    "lat": 42.341814,
    "lon": -71.0902297
  },
  {
    "street": "Dorchester Avenue",
    "housenumber": "25",
    "city": "Boston",
    "postcode": "02205-9761",
    "lat": 42.3508036,
    "lon": -71.0536732
  },
  {
    "street": "Chandler Street",
    "housenumber": "100",
    "city": "Boston",
    "postcode": "02116",
    "lat": 42.3463152,
    "lon": -71.0729011
  },
  {
    "street": "Milk Street",
    "housenumber": "151",
    "city": "Boston",
    "lat": 42.3576995,
    "lon": -71.0541968
  },
  {
    "street": "Milk Street",
    "housenumber": "155",
    "city": "Boston",
    "postcode": "02110",
    "lat": 42.3578311,
    "lon": -71.0540352
  },
  {
    "street": "Lagrange Street",
    "housenumber": "450",
    "city": "West Roxbury",
    "postcode": "02132-3226",
    "lat": 42.2813757,
    "lon": -71.1601407
  },
  {
    "street": "State Street",
    "housenumber": "160",
    "city": "Boston",
    "postcode": "02109",
    "lat": 42.3594126,
    "lon": -71.0536973
  },
  {
    "street": "Colbert Street",
    "housenumber": "35",
    "city": "West Roxbury",
    "postcode": "02132-1239",
    "lat": 42.2866423,
    "lon": -71.145562
  },
  {
    "street": "Centre Street",
    "housenumber": "1780",
    "city": "West Roxbury",
    "postcode": "02132",
    "lat": 42.2874097,
    "lon": -71.1519372
  },
  {
    "street": "Belgrade Avenue",
    "housenumber": "1",
    "city": "Roslindale",
    "postcode": "02131-3025",
    "lat": 42.2874874,
    "lon": -71.1303173
  },
  {
    "street": "South Street",
    "housenumber": "42",
    "city": "Jamaica Plain",
    "postcode": "02130",
    "lat": 42.3082444,
    "lon": -71.1153632
  },
  {
    "street": "Washington Street",
    "housenumber": "3510",
    "city": "Jamaica Plain",
    "postcode": "02130",
    "lat": 42.3057899,
    "lon": -71.1079233
  },
  {
    "street": "Centre Street",
    "housenumber": "640",
    "city": "Jamaica Plain",
    "postcode": "02130",
    "lat": 42.3133097,
    "lon": -71.1138915
  },
  {
    "street": "High Street",
    "housenumber": "200",
    "city": "Boston",
    "postcode": "02110",
    "lat": 42.3568214,
    "lon": -71.0517938
  },
  {
    "street": "Franklin Street",
    "housenumber": "265",
    "city": "Boston",
    "postcode": "02109",
    "lat": 42.3564483,
    "lon": -71.0530893
  },
  {
    "street": "North Street",
    "housenumber": "173",
    "city": "Boston",
    "postcode": "02109",
    "lat": 42.3630916,
    "lon": -71.0538855
  },
  {
    "street": "Atlantic Avenue",
    "housenumber": "520",
    "city": "Boston",
    "postcode": "02210",
    "lat": 42.3537855,
    "lon": -71.0528227
  },
  {
    "street": "Post Office Square",
    "housenumber": "3",
    "city": "Boston",
    "postcode": "02109",
    "lat": 42.356713,
    "lon": -71.0565572
  },
  {
    "street": "Summer Street",
    "housenumber": "125",
    "city": "Boston",
    "postcode": "02110",
    "lat": 42.353244,
    "lon": -71.0576648
  },
  {
    "street": "Winter Street",
    "housenumber": "12",
    "city": "Boston",
    "postcode": "02108",
    "lat": 42.3555941,
    "lon": -71.0611045
  },
  {
    "street": "Milk Street",
    "housenumber": "50",
    "city": "Boston",
    "lat": 42.3569451,
    "lon": -71.057376
  },
  {
    "street": "Babcock Street",
    "housenumber": "270",
    "city": "Boston",
    "postcode": "02215",
    "lat": 42.3526094,
    "lon": -71.1213609
  },
  {
    "street": "Wide Bargate",
    "housenumber": "21",
    "city": "Boston",
    "postcode": "PE21 6SR",
    "lat": 52.9798356,
    "lon": -0.020988
  },
  {
    "street": "Wide Bargate",
    "housenumber": "26a",
    "city": "Boston",
    "postcode": "PE21 6RX",
    "lat": 52.9803552,
    "lon": -0.021291
  },
  {
    "street": "Pescod Square",
    "housenumber": "2",
    "city": "Boston",
    "postcode": "PE21 6QX",
    "lat": 52.9787834,
    "lon": -0.0214194
  },
  {
    "street": "Market Place",
    "housenumber": "26",
    "city": "Boston",
    "postcode": "PE21 6EH",
    "lat": 52.977317,
    "lon": -0.023243
  },
  {
    "street": "High Street",
    "housenumber": "8",
    "city": "Boston",
    "postcode": "PE21 8SH",
    "lat": 52.9765928,
    "lon": -0.0243738
  },
  {
    "street": "West Street",
    "housenumber": "55",
    "city": "Boston",
    "postcode": "PE21 8QN",
    "lat": 52.9762491,
    "lon": -0.0285901
  },
  {
    "street": "West Street",
    "housenumber": "59-61",
    "city": "Boston",
    "postcode": "PE21 8QN",
    "lat": 52.976228,
    "lon": -0.0288032
  },
  {
    "street": "Artillery Row",
    "housenumber": "5",
    "city": "Boston",
    "postcode": "PE21 6TY",
    "lat": 52.9778646,
    "lon": -0.0186353
  },
  {
    "street": "Dolphin Lane",
    "housenumber": "7",
    "city": "Boston",
    "postcode": "PE21 6EU",
    "lat": 52.9779009,
    "lon": -0.02309
  },
  {
    "street": "Market Place",
    "housenumber": "31",
    "city": "Boston",
    "postcode": "PE21 6EH",
    "lat": 52.976982,
    "lon": -0.023039
  },
  {
    "street": "Fydell Street",
    "housenumber": "108-110",
    "city": "Boston",
    "postcode": "PE21 8LF",
    "lat": 52.9812727,
    "lon": -0.0363496
  },
  {
    "street": "West Street",
    "housenumber": "136",
    "city": "Boston",
    "postcode": "PE21 8RE",
    "lat": 52.9760996,
    "lon": -0.0302565
  },
  {
    "street": "West Street",
    "housenumber": "67",
    "city": "Boston",
    "postcode": "PE21 8QZ",
    "lat": 52.9761943,
    "lon": -0.0290636
  },
  {
    "street": "West Street",
    "housenumber": "53",
    "city": "Boston",
    "postcode": "PE21 8QN",
    "lat": 52.976288,
    "lon": -0.0284236
  },
  {
    "street": "South Street",
    "housenumber": "66",
    "city": "Jamaica Plain",
    "postcode": "02130",
    "lat": 42.3074687,
    "lon": -71.1153083
  },
  {
    "street": "Tremont Street",
    "housenumber": "496",
    "city": "South End",
    "postcode": "02116",
    "lat": 42.3455368,
    "lon": -71.0692717
  },
  {
    "street": "Centre Street",
    "housenumber": "1754",
    "city": "West Roxbury",
    "postcode": "02132",
    "lat": 42.2872272,
    "lon": -71.1508554
  },
  {
    "street": "Beacon Street",
    "housenumber": "1927",
    "city": "Brighton",
    "postcode": "02135",
    "lat": 42.3359372,
    "lon": -71.1488934
  },
  {
    "street": "Congress Street",
    "housenumber": "369",
    "city": "Boston",
    "postcode": "02210",
    "lat": 42.3498759,
    "lon": -71.0480519
  },
  {
    "street": "Legends Way",
    "housenumber": "100",
    "city": "Boston",
    "postcode": "02114",
    "lat": 42.3661111,
    "lon": -71.0621959
  },
  {
    "street": "Legends Way",
    "housenumber": "100",
    "city": "Boston",
    "postcode": "02114",
    "lat": 42.3659064,
    "lon": -71.062425
  },
  {
    "street": "Legends Way",
    "housenumber": "100",
    "city": "Boston",
    "postcode": "02114",
    "lat": 42.3661454,
    "lon": -71.0620468
  },
  {
    "street": "East Broadway",
    "housenumber": "715",
    "city": "South Boston",
    "postcode": "02127",
    "lat": 42.3354785,
    "lon": -71.036595
  },
  {
    "street": "East Broadway",
    "housenumber": "710",
    "city": "South Boston",
    "postcode": "02127",
    "lat": 42.3359737,
    "lon": -71.0366042
  },
  {
    "street": "Eatonia Street",
    "housenumber": "9",
    "city": "Allston",
    "postcode": "02134",
    "lat": 42.359987,
    "lon": -71.1271667
  },
  {
    "street": "Massachusetts Avenue",
    "housenumber": "1033",
    "city": "Boston",
    "postcode": "02118",
    "lat": 42.3271497,
    "lon": -71.067652
  },
  {
    "street": "Franklin Street",
    "housenumber": "61",
    "city": "Boston",
    "postcode": "02134-1409",
    "lat": 42.3578933,
    "lon": -71.1329235
  },
  {
    "street": "Tremont Street",
    "housenumber": "513",
    "city": "Boston",
    "postcode": "02116",
    "lat": 42.3448813,
    "lon": -71.070484
  },
  {
    "street": "Commonwealth Avenue",
    "housenumber": "965",
    "city": "Boston",
    "postcode": "02215",
    "lat": 42.3518055,
    "lon": -71.1193275
  },
  {
    "street": "Harrison Avenue",
    "housenumber": "1010",
    "city": "Boston",
    "lat": 42.331177,
    "lon": -71.0801264
  },
  {
    "street": "West Broadway",
    "housenumber": "470",
    "city": "Boston",
    "postcode": "02127",
    "lat": 42.3360443,
    "lon": -71.0458914
  },
  {
    "street": "Dartmouth Street",
    "housenumber": "130",
    "city": "Boston",
    "postcode": "02116",
    "lat": 42.3469394,
    "lon": -71.0761022
  },
  {
    "street": "Union Street",
    "housenumber": "33",
    "city": "Boston",
    "postcode": "02108",
    "lat": 42.3611464,
    "lon": -71.0567876
  },
  {
    "street": "Commonwealth Avenue",
    "housenumber": "640",
    "city": "Boston",
    "postcode": "02215",
    "lat": 42.3489018,
    "lon": -71.1023218
  },
  {
    "street": "Commonwealth Avenue",
    "housenumber": "602",
    "city": "Boston",
    "postcode": "02215",
    "lat": 42.3489751,
    "lon": -71.1009021
  },
  {
    "street": "Commonwealth Avenue",
    "housenumber": "1035",
    "city": "Boston",
    "postcode": "02215",
    "lat": 42.3521479,
    "lon": -71.1220694
  },
  {
    "street": "Commonwealth Avenue",
    "housenumber": "1033",
    "city": "Boston",
    "postcode": "02215",
    "lat": 42.3521499,
    "lon": -71.1219581
  },
  {
    "street": "Neponset Avenue",
    "housenumber": "176",
    "city": "Boston",
    "postcode": "02122",
    "lat": 42.2927701,
    "lon": -71.0504117
  },
  {
    "street": "Atlantic Avenue",
    "housenumber": "695",
    "city": "Boston",
    "postcode": "02111",
    "lat": 42.35184,
    "lon": -71.0564057
  },
  {
    "street": "Harborside Drive",
    "housenumber": "1",
    "city": "Boston",
    "postcode": "02128",
    "lat": 42.3607531,
    "lon": -71.0185512
  },
  {
    "street": "Congress Street",
    "housenumber": "313",
    "city": "Boston",
    "postcode": "02210",
    "lat": 42.3513272,
    "lon": -71.0502082
  },
  {
    "street": "Gloucester Street",
    "housenumber": "50",
    "city": "Boston",
    "postcode": "02115",
    "lat": 42.3486374,
    "lon": -71.0840371
  },
  {
    "street": "Centre Street",
    "housenumber": "763",
    "city": "Jamaica Plain",
    "postcode": "02130",
    "lat": 42.310245,
    "lon": -71.115202
  },
  {
    "street": "North Harvard Street",
    "housenumber": "210",
    "city": "Allston",
    "postcode": "02134",
    "lat": 42.3626186,
    "lon": -71.1300838
  },
  {
    "street": "Faneuil Hall Marketplace",
    "housenumber": "1",
    "city": "Boston",
    "lat": 42.3596495,
    "lon": -71.0559557
  },
  {
    "street": "Congress Street",
    "housenumber": "294",
    "city": "Boston",
    "lat": 42.3528321,
    "lon": -71.0526061
  },
  {
    "street": "Summer Street",
    "housenumber": "125",
    "city": "Boston",
    "lat": 42.3529082,
    "lon": -71.0571574
  },
  {
    "street": "West Street",
    "housenumber": "138A",
    "city": "Boston",
    "postcode": "PE21 8RE",
    "lat": 52.9761562,
    "lon": -0.0304542
  },
  {
    "street": "West Street",
    "housenumber": "138-142",
    "city": "Boston",
    "postcode": "PE21 8RE",
    "lat": 52.9761981,
    "lon": -0.0306231
  },
  {
    "street": "London Road",
    "housenumber": "17",
    "city": "Boston",
    "postcode": "PE21 8AG",
    "lat": 52.9697295,
    "lon": -0.0265079
  },
  {
    "street": "Red Lion Street",
    "housenumber": "11",
    "city": "Boston",
    "postcode": "PE21 6NY",
    "lat": 52.9801287,
    "lon": -0.0246899
  },
  {
    "street": "Red Lion Street",
    "housenumber": "6",
    "city": "Boston",
    "lat": 52.9798908,
    "lon": -0.0243929
  },
  {
    "street": "Faneuil Hall Marketplace",
    "housenumber": "1",
    "city": "Boston",
    "lat": 42.3597313,
    "lon": -71.0560006
  },
  {
    "street": "Harrison Avenue",
    "housenumber": "61",
    "city": "Boston",
    "lat": 42.351373,
    "lon": -71.061404
  },
  {
    "street": "Beach Street",
    "housenumber": "42",
    "city": "Boston",
    "postcode": "02111",
    "lat": 42.3515414,
    "lon": -71.060963
  },
  {
    "street": "Washington Street",
    "housenumber": "692",
    "city": "Boston",
    "postcode": "02111",
    "lat": 42.3512504,
    "lon": -71.0627836
  },
  {
    "street": "William T. Morrissey Boulevard",
    "housenumber": "2",
    "city": "Dorchester",
    "postcode": "02125",
    "lat": 42.3195254,
    "lon": -71.0495435
  },
  {
    "street": "Beach Street",
    "housenumber": "105",
    "city": "Boston",
    "postcode": "02111",
    "lat": 42.3507421,
    "lon": -71.0582114
  },
  {
    "street": "Speare Place",
    "housenumber": "11",
    "city": "Boston",
    "postcode": "02115",
    "lat": 42.3408902,
    "lon": -71.0906394
  },
  {
    "street": "Kingston Street",
    "housenumber": "120",
    "city": "Boston",
    "postcode": "02111",
    "lat": 42.3523573,
    "lon": -71.0590353
  },
  {
    "street": "Main Street",
    "housenumber": "67",
    "city": "Charlestown",
    "postcode": "02129",
    "lat": 42.3736375,
    "lon": -71.062397
  },
  {
    "street": "Lincoln Street",
    "housenumber": "108",
    "city": "Boston",
    "lat": 42.3515263,
    "lon": -71.0581273
  },
  {
    "street": "Huntington Avenue",
    "housenumber": "47",
    "city": "Boston",
    "postcode": "02116",
    "lat": 42.3483514,
    "lon": -71.0787289
  },
  {
    "street": "Huntington Avenue",
    "housenumber": "150",
    "city": "Boston",
    "postcode": "02115",
    "lat": 42.3449757,
    "lon": -71.0818503
  },
  {
    "street": "Boylston Street",
    "housenumber": "176",
    "city": "Boston",
    "postcode": "02116",
    "lat": 42.3522916,
    "lon": -71.0670748
  },
  {
    "street": "Dudley Street",
    "housenumber": "385",
    "city": "Boston",
    "postcode": "02119",
    "lat": 42.3261955,
    "lon": -71.0756187
  },
  {
    "street": "Cambridge Street",
    "housenumber": "562",
    "city": "Boston",
    "postcode": "02134",
    "lat": 42.3523825,
    "lon": -71.1403616
  },
  {
    "street": "Cambridge Street",
    "housenumber": "568",
    "city": "Boston",
    "postcode": "02134",
    "lat": 42.3523408,
    "lon": -71.1404708
  },
  {
    "street": "Cambridge Street",
    "housenumber": "574",
    "city": "Allston",
    "postcode": "02134",
    "lat": 42.3523116,
    "lon": -71.1405644
  },
  {
    "street": "Brighton Avenue",
    "housenumber": "254",
    "city": "Allston",
    "postcode": "02134",
    "lat": 42.3533093,
    "lon": -71.136656
  },
  {
    "street": "Brighton Avenue",
    "housenumber": "248",
    "city": "Allston",
    "postcode": "02134",
    "lat": 42.3533182,
    "lon": -71.1364619
  },
  {
    "street": "Brighton Avenue",
    "housenumber": "250",
    "city": "Allston",
    "postcode": "02134",
    "lat": 42.3533157,
    "lon": -71.1365237
  },
  {
    "street": "Brighton Avenue",
    "housenumber": "252",
    "city": "Allston",
    "postcode": "02134",
    "lat": 42.3533142,
    "lon": -71.1365857
  },
  {
    "street": "Cambridge Street",
    "housenumber": "506",
    "city": "Boston",
    "lat": 42.3531517,
    "lon": -71.1379485
  },
  {
    "street": "Dorchester Avenue",
    "housenumber": "1906",
    "city": "Boston",
    "postcode": "02124",
    "lat": 42.2844845,
    "lon": -71.0644422
  },
  {
    "street": "Washington Street",
    "housenumber": "682",
    "city": "Boston",
    "lat": 42.3514781,
    "lon": -71.0626786
  },
  {
    "street": "Austin Street",
    "housenumber": "27",
    "city": "Charlestown",
    "postcode": "02129",
    "lat": 42.375626,
    "lon": -71.0662711
  },
  {
    "street": "Austin Street",
    "housenumber": "11",
    "city": "Charlestown",
    "postcode": "02129",
    "lat": 42.3758044,
    "lon": -71.0654203
  },
  {
    "street": "Austin Street",
    "housenumber": "9",
    "city": "Charlestown",
    "postcode": "02129-3502",
    "lat": 42.3756294,
    "lon": -71.0651915
  },
  {
    "street": "Thompson Square",
    "housenumber": "10",
    "city": "Charlestown",
    "postcode": "02129",
    "lat": 42.3749721,
    "lon": -71.0637606
  },
  {
    "street": "Broad Street",
    "housenumber": "125",
    "city": "Boston",
    "postcode": "02110",
    "lat": 42.3570815,
    "lon": -71.0520539
  },
  {
    "street": "Austin Street",
    "housenumber": "1",
    "city": "Charlestown",
    "postcode": "02129",
    "lat": 42.3753324,
    "lon": -71.0650552
  },
  {
    "street": "Main Street",
    "housenumber": "83",
    "city": "Charlestown",
    "lat": 42.3738086,
    "lon": -71.0626573
  },
  {
    "street": "City Square",
    "housenumber": "100",
    "city": "Charlestown",
    "postcode": "02129",
    "lat": 42.3713911,
    "lon": -71.0613055
  },
  {
    "street": "Harrison Avenue",
    "housenumber": "348",
    "city": "Boston",
    "postcode": "02118",
    "lat": 42.3454666,
    "lon": -71.0628246
  },
  {
    "street": "International Place",
    "housenumber": "1",
    "city": "Boston",
    "postcode": "02110",
    "lat": 42.3556559,
    "lon": -71.0521838
  },
  {
    "street": "Tremont Street",
    "housenumber": "139",
    "city": "Boston",
    "postcode": "02108",
    "lat": 42.3554005,
    "lon": -71.0637636
  },
  {
    "street": "Tremont Street",
    "housenumber": "146",
    "city": "Boston",
    "postcode": "02111",
    "lat": 42.35524,
    "lon": -71.063037
  },
  {
    "street": "Winter Street",
    "housenumber": "58",
    "city": "Boston",
    "lat": 42.3553779,
    "lon": -71.0629255
  },
  {
    "street": "Tremont Street",
    "housenumber": "146",
    "city": "Boston",
    "lat": 42.3552233,
    "lon": -71.0630596
  },
  {
    "street": "Post Office Square",
    "housenumber": "10",
    "city": "Boston",
    "postcode": "02109",
    "lat": 42.3573803,
    "lon": -71.0554927
  },
  {
    "street": "Green Street",
    "housenumber": "154",
    "city": "Jamaica Plain",
    "postcode": "02130",
    "lat": 42.3104998,
    "lon": -71.1067245
  },
  {
    "street": "Soldiers Field Road",
    "housenumber": "1660",
    "city": "Brighton",
    "postcode": "02135",
    "lat": 42.3587756,
    "lon": -71.1532564
  },
  {
    "street": "Soldiers Field Road",
    "housenumber": "1660-1670",
    "city": "Brighton",
    "postcode": "02135",
    "lat": 42.3587422,
    "lon": -71.1543435
  },
  {
    "street": "Chandler Street",
    "housenumber": "78",
    "city": "Boston",
    "postcode": "02116",
    "lat": 42.3467083,
    "lon": -71.0723997
  },
  {
    "street": "Lee Street",
    "housenumber": "17",
    "city": "Boston",
    "lat": 42.3073493,
    "lon": -71.1118691
  },
  {
    "street": "Lee Street",
    "housenumber": "19",
    "city": "Boston",
    "lat": 42.3072948,
    "lon": -71.1118611
  },
  {
    "street": "Lee Street",
    "housenumber": "21",
    "city": "Boston",
    "lat": 42.3072358,
    "lon": -71.1118525
  },
  {
    "street": "Lee Street",
    "housenumber": "23",
    "city": "Boston",
    "lat": 42.3071858,
    "lon": -71.1118452
  },
  {
    "street": "Lee Street",
    "housenumber": "25",
    "city": "Boston",
    "lat": 42.3071159,
    "lon": -71.1118349
  },
  {
    "street": "Lee Street",
    "housenumber": "27",
    "city": "Boston",
    "lat": 42.3070594,
    "lon": -71.1118266
  },
  {
    "street": "Carolina Avenue",
    "housenumber": "46",
    "city": "Boston",
    "lat": 42.3078956,
    "lon": -71.113647
  },
  {
    "street": "Carolina Avenue",
    "housenumber": "48",
    "city": "Boston",
    "lat": 42.3079039,
    "lon": -71.1135342
  },
  {
    "street": "Centre Street",
    "housenumber": "733",
    "city": "Boston",
    "lat": 42.3109842,
    "lon": -71.1147472
  },
  {
    "street": "South Street",
    "housenumber": "64",
    "city": "Boston",
    "lat": 42.3075122,
    "lon": -71.1153169
  },
  {
    "street": "South Street",
    "housenumber": "60",
    "city": "Jamaica Plain",
    "postcode": "02130",
    "lat": 42.3075872,
    "lon": -71.1153241
  },
  {
    "street": "Centre Street",
    "housenumber": "730",
    "city": "Jamaica Plain",
    "postcode": "02130",
    "lat": 42.3108866,
    "lon": -71.1144258
  },
  {
    "street": "Eliot Street",
    "housenumber": "7",
    "city": "Jamaica Plain",
    "postcode": "02130",
    "lat": 42.310419,
    "lon": -71.1159864
  },
  {
    "street": "Centre Street",
    "housenumber": "736",
    "city": "Jamaica Plain",
    "postcode": "02130",
    "lat": 42.3107847,
    "lon": -71.114453
  },
  {
    "street": "McBride Street",
    "housenumber": "74",
    "city": "Boston",
    "lat": 42.30613,
    "lon": -71.1124354
  },
  {
    "street": "McBride Street",
    "housenumber": "76",
    "city": "Boston",
    "lat": 42.3061335,
    "lon": -71.1123542
  },
  {
    "street": "McBride Street",
    "housenumber": "80",
    "city": "Boston",
    "lat": 42.306146,
    "lon": -71.1122734
  },
  {
    "street": "McBride Street",
    "housenumber": "82",
    "city": "Boston",
    "lat": 42.3061509,
    "lon": -71.1121654
  },
  {
    "street": "McBride Street",
    "housenumber": "108",
    "city": "Boston",
    "lat": 42.3061896,
    "lon": -71.1113214
  },
  {
    "street": "McBride Street",
    "housenumber": "110",
    "city": "Boston",
    "lat": 42.3061879,
    "lon": -71.1113596
  },
  {
    "street": "McBride Street",
    "housenumber": "47",
    "city": "Boston",
    "lat": 42.3059289,
    "lon": -71.1133839
  },
  {
    "street": "McBride Street",
    "housenumber": "49",
    "city": "Boston",
    "lat": 42.3059341,
    "lon": -71.1132759
  },
  {
    "street": "McBride Street",
    "housenumber": "79",
    "city": "Boston",
    "lat": 42.3059788,
    "lon": -71.1122002
  },
  {
    "street": "McBride Street",
    "housenumber": "81",
    "city": "Boston",
    "lat": 42.3059051,
    "lon": -71.1121573
  },
  {
    "street": "McBride Street",
    "housenumber": "87",
    "city": "Boston",
    "lat": 42.3057798,
    "lon": -71.1120198
  },
  {
    "street": "McBride Street",
    "housenumber": "89",
    "city": "Boston",
    "lat": 42.3057807,
    "lon": -71.1119615
  },
  {
    "street": "South Street",
    "housenumber": "84",
    "city": "Jamaica Plain",
    "postcode": "02130",
    "lat": 42.3068539,
    "lon": -71.1152132
  },
  {
    "street": "South Street",
    "housenumber": "34",
    "city": "Jamaica Plain",
    "postcode": "02130",
    "lat": 42.3084102,
    "lon": -71.1153705
  },
  {
    "street": "South Street",
    "housenumber": "68",
    "city": "Jamaica Plain",
    "postcode": "02130",
    "lat": 42.3073706,
    "lon": -71.1152952
  },
  {
    "street": "South Street",
    "housenumber": "38",
    "city": "Jamaica Plain",
    "postcode": "02130",
    "lat": 42.3083198,
    "lon": -71.1153665
  },
  {
    "street": "South Street",
    "housenumber": "68",
    "city": "Jamaica Plain",
    "postcode": "02130",
    "lat": 42.3074014,
    "lon": -71.1152993
  },
  {
    "street": "South Street",
    "housenumber": "46",
    "city": "Jamaica Plain",
    "postcode": "02130",
    "lat": 42.3081839,
    "lon": -71.1153605
  },
  {
    "street": "South Street",
    "housenumber": "36",
    "city": "Jamaica Plain",
    "postcode": "02130",
    "lat": 42.3083662,
    "lon": -71.1153686
  },
  {
    "street": "South Street",
    "housenumber": "50",
    "city": "Jamaica Plain",
    "postcode": "02130",
    "lat": 42.3081111,
    "lon": -71.1153573
  },
  {
    "street": "South Street",
    "housenumber": "40",
    "city": "Jamaica Plain",
    "postcode": "02130",
    "lat": 42.3082781,
    "lon": -71.1153647
  },
  {
    "street": "Centre Street",
    "housenumber": "716",
    "city": "Boston",
    "lat": 42.3111935,
    "lon": -71.1138051
  },
  {
    "street": "Centre Street",
    "housenumber": "716",
    "city": "Jamaica Plain",
    "postcode": "02130",
    "lat": 42.3112478,
    "lon": -71.1143134
  },
  {
    "street": "Centre Street",
    "housenumber": "726",
    "city": "Boston",
    "lat": 42.3110425,
    "lon": -71.1143893
  },
  {
    "street": "Centre Street",
    "housenumber": "720",
    "city": "Boston",
    "lat": 42.3111604,
    "lon": -71.1143457
  },
  {
    "street": "Centre Street",
    "housenumber": "722",
    "city": "Boston",
    "lat": 42.3111157,
    "lon": -71.1143622
  },
  {
    "street": "Greenough Avenue",
    "housenumber": "2",
    "city": "Boston",
    "lat": 42.3100934,
    "lon": -71.1147611
  },
  {
    "street": "Centre Street",
    "housenumber": "754",
    "city": "Boston",
    "lat": 42.3102809,
    "lon": -71.1148321
  },
  {
    "street": "South Street",
    "housenumber": "114",
    "city": "Jamaica Plain",
    "postcode": "02130",
    "lat": 42.305997,
    "lon": -71.1147634
  },
  {
    "street": "South Street",
    "housenumber": "112",
    "city": "Boston",
    "lat": 42.3060478,
    "lon": -71.1147874
  },
  {
    "street": "Newbern Street",
    "housenumber": "24",
    "city": "Boston",
    "lat": 42.3088808,
    "lon": -71.109837
  },
  {
    "street": "Newbern Street",
    "housenumber": "26",
    "city": "Boston",
    "lat": 42.3088441,
    "lon": -71.109837
  },
  {
    "street": "Newbern Street",
    "housenumber": "28",
    "city": "Boston",
    "lat": 42.3087326,
    "lon": -71.1098428
  },
  {
    "street": "Newbern Street",
    "housenumber": "30",
    "city": "Boston",
    "lat": 42.3087013,
    "lon": -71.10985
  },
  {
    "street": "Centre Street",
    "housenumber": "704",
    "city": "Boston",
    "lat": 42.3115381,
    "lon": -71.1142167
  },
  {
    "street": "Centre Street",
    "housenumber": "696",
    "city": "Boston",
    "lat": 42.3117341,
    "lon": -71.1141514
  },
  {
    "street": "Centre Street",
    "housenumber": "650",
    "city": "Boston",
    "lat": 42.3131025,
    "lon": -71.1139363
  },
  {
    "street": "Centre Street",
    "housenumber": "710",
    "city": "Jamaica Plain",
    "postcode": "02130",
    "lat": 42.3113988,
    "lon": -71.1142631
  },
  {
    "street": "Seaverns Avenue",
    "housenumber": "100",
    "city": "Boston",
    "lat": 42.3107642,
    "lon": -71.1090913
  },
  {
    "street": "Green Street",
    "housenumber": "101",
    "city": "Boston",
    "lat": 42.3111937,
    "lon": -71.1089452
  },
  {
    "street": "Seaverns Avenue",
    "housenumber": "102",
    "city": "Boston",
    "lat": 42.3107393,
    "lon": -71.1090404
  },
  {
    "street": "Green Street",
    "housenumber": "103",
    "city": "Boston",
    "lat": 42.3111731,
    "lon": -71.1088998
  },
  {
    "street": "Warren Square",
    "housenumber": "11",
    "city": "Boston",
    "lat": 42.3131538,
    "lon": -71.1123997
  },
  {
    "street": "Warren Square",
    "housenumber": "12",
    "city": "Boston",
    "lat": 42.3130873,
    "lon": -71.1124379
  },
  {
    "street": "Warren Square",
    "housenumber": "3",
    "city": "Boston",
    "lat": 42.3130311,
    "lon": -71.1118394
  },
  {
    "street": "Green Street",
    "housenumber": "36",
    "city": "Boston",
    "lat": 42.3127138,
    "lon": -71.1120324
  },
  {
    "street": "Green Street",
    "housenumber": "38",
    "city": "Boston",
    "lat": 42.3126777,
    "lon": -71.1119442
  },
  {
    "street": "Warren Square",
    "housenumber": "4",
    "city": "Boston",
    "lat": 42.3130749,
    "lon": -71.1118069
  },
  {
    "street": "Green Street",
    "housenumber": "44",
    "city": "Boston",
    "lat": 42.3124361,
    "lon": -71.1114351
  },
  {
    "street": "Green Street",
    "housenumber": "46",
    "city": "Boston",
    "lat": 42.3123953,
    "lon": -71.1113416
  },
  {
    "street": "Warren Square",
    "housenumber": "6",
    "city": "Boston",
    "lat": 42.3132146,
    "lon": -71.111878
  },
  {
    "street": "Warren Square",
    "housenumber": "7",
    "city": "Boston",
    "lat": 42.3131849,
    "lon": -71.1118207
  },
  {
    "street": "Green Street",
    "housenumber": "74",
    "city": "Boston",
    "lat": 42.3117747,
    "lon": -71.1099185
  },
  {
    "street": "Green Street",
    "housenumber": "76",
    "city": "Boston",
    "lat": 42.3118262,
    "lon": -71.1097262
  },
  {
    "street": "Warren Square",
    "housenumber": "8",
    "city": "Boston",
    "lat": 42.3132492,
    "lon": -71.1120763
  },
  {
    "street": "Warren Square",
    "housenumber": "9",
    "city": "Boston",
    "lat": 42.3132765,
    "lon": -71.1121421
  },
  {
    "street": "Seaverns Avenue",
    "housenumber": "98",
    "city": "Boston",
    "lat": 42.3108181,
    "lon": -71.1091319
  },
  {
    "street": "Green Street",
    "housenumber": "7",
    "city": "Boston",
    "lat": 42.3129978,
    "lon": -71.1135345
  },
  {
    "street": "Green Street",
    "housenumber": "3",
    "city": "Boston",
    "lat": 42.3130408,
    "lon": -71.1137162
  },
  {
    "street": "Centre Street",
    "housenumber": "702",
    "city": "Jamaica Plain",
    "postcode": "02130",
    "lat": 42.3116637,
    "lon": -71.1141742
  },
  {
    "street": "Green Street",
    "housenumber": "26",
    "city": "Boston",
    "lat": 42.3128948,
    "lon": -71.1125868
  },
  {
    "street": "Green Street",
    "housenumber": "24",
    "city": "Boston",
    "lat": 42.3129203,
    "lon": -71.1126672
  },
  {
    "street": "Washington Street",
    "housenumber": "3700",
    "city": "Boston",
    "lat": 42.3005521,
    "lon": -71.1128599
  },
  {
    "street": "Washington Street",
    "housenumber": "3710",
    "city": "Jamaica Plain",
    "postcode": "02130",
    "lat": 42.3002732,
    "lon": -71.113132
  },
  {
    "street": "Washington Street",
    "housenumber": "3720",
    "city": "Boston",
    "lat": 42.3001209,
    "lon": -71.1132455
  },
  {
    "street": "Washington Street",
    "housenumber": "3724",
    "city": "Boston",
    "lat": 42.2999593,
    "lon": -71.1133421
  },
  {
    "street": "Washington Street",
    "housenumber": "3696",
    "city": "Boston",
    "lat": 42.3006707,
    "lon": -71.1127463
  },
  {
    "street": "Washington Street",
    "housenumber": "3694",
    "city": "Boston",
    "lat": 42.3007284,
    "lon": -71.1126944
  },
  {
    "street": "Washington Street",
    "housenumber": "3722",
    "city": "Boston",
    "lat": 42.3000636,
    "lon": -71.1132798
  },
  {
    "street": "Washington Street",
    "housenumber": "3702",
    "city": "Jamaica Plain",
    "postcode": "02130",
    "lat": 42.300495,
    "lon": -71.1129119
  },
  {
    "street": "Washington Street",
    "housenumber": "3708",
    "city": "Boston",
    "lat": 42.3003314,
    "lon": -71.1130771
  },
  {
    "street": "Washington Street",
    "housenumber": "3706",
    "city": "Boston",
    "lat": 42.3003852,
    "lon": -71.1130259
  },
  {
    "street": "Centre Street",
    "housenumber": "654",
    "city": "Jamaica Plain",
    "postcode": "02130",
    "lat": 42.3130254,
    "lon": -71.1139436
  },
  {
    "street": "Centre Street",
    "housenumber": "668",
    "city": "Boston",
    "lat": 42.3124605,
    "lon": -71.1140032
  },
  {
    "street": "Green Street",
    "housenumber": "10B",
    "city": "Boston",
    "lat": 42.3131373,
    "lon": -71.113347
  },
  {
    "street": "Green Street",
    "housenumber": "10A",
    "city": "Boston",
    "lat": 42.3131629,
    "lon": -71.113433
  },
  {
    "street": "Centre Street",
    "housenumber": "371A",
    "city": "Jamaica Plain",
    "postcode": "02130",
    "lat": 42.322397,
    "lon": -71.1088341
  },
  {
    "street": "Pond Street",
    "housenumber": "12",
    "city": "Boston",
    "lat": 42.3147272,
    "lon": -71.1147046
  },
  {
    "street": "Grovenor Road",
    "housenumber": "21",
    "city": "Boston",
    "lat": 42.3147272,
    "lon": -71.1149354
  },
  {
    "street": "Pond Street",
    "housenumber": "14",
    "city": "Boston",
    "lat": 42.3147638,
    "lon": -71.1148013
  },
  {
    "street": "Call Street",
    "housenumber": "99",
    "city": "Boston",
    "lat": 42.3066088,
    "lon": -71.1108353
  },
  {
    "street": "Call Street",
    "housenumber": "99R",
    "city": "Boston",
    "lat": 42.3065768,
    "lon": -71.1109418
  },
  {
    "street": "Centre Street",
    "housenumber": "769",
    "city": "Jamaica Plain",
    "postcode": "02130",
    "lat": 42.3099188,
    "lon": -71.1155894
  },
  {
    "street": "Centre Street",
    "housenumber": "777",
    "city": "Jamaica Plain",
    "postcode": "02130",
    "lat": 42.309993,
    "lon": -71.11548
  },
  {
    "street": "Centre Street",
    "housenumber": "741",
    "city": "Boston",
    "lat": 42.3108101,
    "lon": -71.1148076
  },
  {
    "street": "Centre Street",
    "housenumber": "711",
    "city": "Boston",
    "lat": 42.3113581,
    "lon": -71.1146111
  },
  {
    "street": "Centre Street",
    "housenumber": "703",
    "city": "Boston",
    "lat": 42.3115419,
    "lon": -71.1145489
  },
  {
    "street": "Centre Street",
    "housenumber": "713",
    "city": "Boston",
    "lat": 42.3112958,
    "lon": -71.1146195
  },
  {
    "street": "Centre Street",
    "housenumber": "723",
    "city": "Jamaica Plain",
    "postcode": "02130",
    "lat": 42.311192,
    "lon": -71.114668
  },
  {
    "street": "Centre Street",
    "housenumber": "775",
    "city": "Jamaica Plain",
    "postcode": "02130",
    "lat": 42.310022,
    "lon": -71.1154399
  },
  {
    "street": "Centre Street",
    "housenumber": "779",
    "city": "Jamaica Plain",
    "postcode": "02130",
    "lat": 42.3099547,
    "lon": -71.1155392
  },
  {
    "street": "Centre Street",
    "housenumber": "707",
    "city": "Boston",
    "lat": 42.3114333,
    "lon": -71.1145883
  },
  {
    "street": "Centre Street",
    "housenumber": "753",
    "city": "Boston",
    "lat": 42.3105683,
    "lon": -71.1149274
  },
  {
    "street": "Centre Street",
    "housenumber": "743",
    "city": "Boston",
    "lat": 42.3107394,
    "lon": -71.1148524
  },
  {
    "street": "Centre Street",
    "housenumber": "765",
    "city": "Jamaica Plain",
    "postcode": "02130",
    "lat": 42.3102099,
    "lon": -71.1152395
  },
  {
    "street": "Centre Street",
    "housenumber": "709",
    "city": "Boston",
    "lat": 42.3113917,
    "lon": -71.1146004
  },
  {
    "street": "Centre Street",
    "housenumber": "761",
    "city": "Jamaica Plain",
    "postcode": "02130",
    "lat": 42.3102785,
    "lon": -71.1151683
  },
  {
    "street": "Centre Street",
    "housenumber": "767",
    "city": "Jamaica Plain",
    "postcode": "02130",
    "lat": 42.3101744,
    "lon": -71.1152764
  },
  {
    "street": "South Street",
    "housenumber": "146",
    "city": "Jamaica Plain",
    "postcode": "02130",
    "lat": 42.3049258,
    "lon": -71.1145067
  },
  {
    "street": "South Street",
    "housenumber": "138",
    "city": "Jamaica Plain",
    "postcode": "02130",
    "lat": 42.3053165,
    "lon": -71.114504
  },
  {
    "street": "South Street",
    "housenumber": "172",
    "city": "Jamaica Plain",
    "postcode": "02130",
    "lat": 42.3039275,
    "lon": -71.1145707
  },
  {
    "street": "South Street",
    "housenumber": "142",
    "city": "Jamaica Plain",
    "postcode": "02130",
    "lat": 42.3051529,
    "lon": -71.1145161
  },
  {
    "street": "South Street",
    "housenumber": "144",
    "city": "Jamaica Plain",
    "postcode": "02130",
    "lat": 42.3050894,
    "lon": -71.1145161
  },
  {
    "street": "South Street",
    "housenumber": "138",
    "city": "Jamaica Plain",
    "postcode": "02130",
    "lat": 42.3053562,
    "lon": -71.114504
  },
  {
    "street": "South Street",
    "housenumber": "148",
    "city": "Jamaica Plain",
    "postcode": "02130",
    "lat": 42.3047688,
    "lon": -71.1145205
  },
  {
    "street": "South Street",
    "housenumber": "140",
    "city": "Jamaica Plain",
    "postcode": "02130",
    "lat": 42.3052789,
    "lon": -71.1145067
  },
  {
    "street": "South Street",
    "housenumber": "152",
    "city": "Jamaica Plain",
    "postcode": "02130",
    "lat": 42.3047306,
    "lon": -71.1145097
  },
  {
    "street": "South Street",
    "housenumber": "142B",
    "city": "Boston",
    "lat": 42.3051281,
    "lon": -71.1145148
  },
  {
    "street": "South Street",
    "housenumber": "146",
    "city": "Jamaica Plain",
    "postcode": "02130",
    "lat": 42.3049694,
    "lon": -71.1145054
  },
  {
    "street": "Allstate Road",
    "housenumber": "14",
    "city": "Dorchester",
    "postcode": "02125",
    "lat": 42.3278702,
    "lon": -71.0608913
  },
  {
    "street": "Allstate Road",
    "housenumber": "7",
    "city": "Dorchester",
    "postcode": "02125",
    "lat": 42.3290239,
    "lon": -71.0628531
  },
  {
    "street": "State Street",
    "housenumber": "148",
    "city": "Boston",
    "lat": 42.3593344,
    "lon": -71.054186
  },
  {
    "street": "Centre Street",
    "housenumber": "565",
    "city": "Jamaica Plain",
    "postcode": "02130",
    "lat": 42.3128849,
    "lon": -71.1139536
  },
  {
    "street": "Centre Street",
    "housenumber": "663",
    "city": "Jamaica Plain",
    "postcode": "02130",
    "lat": 42.3126531,
    "lon": -71.1142889
  },
  {
    "street": "Centre Street",
    "housenumber": "667",
    "city": "Boston",
    "lat": 42.3125981,
    "lon": -71.1142943
  },
  {
    "street": "Centre Street",
    "housenumber": "669",
    "city": "Boston",
    "lat": 42.3125272,
    "lon": -71.1143037
  },
  {
    "street": "Centre Street",
    "housenumber": "615",
    "city": "Jamaica Plain",
    "postcode": "02130",
    "lat": 42.3143358,
    "lon": -71.1142574
  },
  {
    "street": "Centre Street",
    "housenumber": "617",
    "city": "Boston",
    "lat": 42.3142941,
    "lon": -71.114252
  },
  {
    "street": "Centre Street",
    "housenumber": "669",
    "city": "Boston",
    "lat": 42.3125619,
    "lon": -71.1142997
  },
  {
    "street": "Centre Street",
    "housenumber": "671",
    "city": "Boston",
    "lat": 42.3124463,
    "lon": -71.1143157
  },
  {
    "street": "Thomas Street",
    "housenumber": "8",
    "city": "Boston",
    "lat": 42.3106551,
    "lon": -71.115278
  },
  {
    "street": "Centre Street",
    "housenumber": "662",
    "city": "Boston",
    "lat": 42.3126464,
    "lon": -71.1139905
  },
  {
    "street": "Centre Street",
    "housenumber": "666",
    "city": "Boston",
    "lat": 42.3125646,
    "lon": -71.1140073
  },
  {
    "street": "Centre Street",
    "housenumber": "693",
    "city": "Boston",
    "lat": 42.3118468,
    "lon": -71.114474
  },
  {
    "street": "Centre Street",
    "housenumber": "613",
    "city": "Jamaica Plain",
    "postcode": "02130",
    "lat": 42.3143824,
    "lon": -71.1142641
  },
  {
    "street": "Boston Street",
    "housenumber": "65",
    "city": "Dorchester",
    "postcode": "02125",
    "lat": 42.3282551,
    "lon": -71.0600153
  },
  {
    "street": "Bartlett Square",
    "housenumber": "18",
    "city": "Jamaica Plain",
    "postcode": "02130",
    "lat": 42.3097804,
    "lon": -71.1071103
  },
  {
    "street": "Belvidere Street",
    "housenumber": "102",
    "city": "Boston",
    "postcode": "02199",
    "lat": 42.3460024,
    "lon": -71.0823055
  },
  {
    "street": "Columbus Avenue",
    "housenumber": "429",
    "city": "Boston",
    "postcode": "02116",
    "lat": 42.3440917,
    "lon": -71.0777133
  },
  {
    "street": "Summer Street",
    "housenumber": "40",
    "city": "Boston",
    "postcode": "02110",
    "lat": 42.3546833,
    "lon": -71.059172
  },
  {
    "street": "South Station",
    "housenumber": "1",
    "city": "Boston",
    "postcode": "02210",
    "lat": 42.3518246,
    "lon": -71.0549596
  },
  {
    "street": "Washington Street",
    "housenumber": "630",
    "city": "Boston",
    "postcode": "02111",
    "lat": 42.3522864,
    "lon": -71.0624349
  },
  {
    "street": "Summer Street",
    "housenumber": "101",
    "city": "Boston",
    "postcode": "02110",
    "lat": 42.3534817,
    "lon": -71.0580307
  },
  {
    "street": "Summer Street",
    "housenumber": "1",
    "city": "Boston",
    "postcode": "02110",
    "lat": 42.3544906,
    "lon": -71.0595435
  },
  {
    "street": "Boylston Street",
    "housenumber": "62",
    "city": "Boston",
    "postcode": "02116",
    "lat": 42.3522389,
    "lon": -71.0644358
  },
  {
    "street": "Charles Street",
    "housenumber": "4",
    "city": "Boston",
    "postcode": "02116",
    "lat": 42.3540368,
    "lon": -71.0696551
  },
  {
    "street": "Summer Street",
    "housenumber": "71",
    "city": "Boston",
    "postcode": "02110",
    "lat": 42.3542245,
    "lon": -71.0590064
  },
  {
    "street": "Summer Street",
    "housenumber": "50",
    "city": "Boston",
    "postcode": "02110-2124",
    "lat": 42.3546125,
    "lon": -71.0590721
  },
  {
    "street": "Newbury Street",
    "housenumber": "279",
    "city": "Boston",
    "postcode": "02116",
    "lat": 42.3493685,
    "lon": -71.0840537
  },
  {
    "street": "Sedgwick Street",
    "housenumber": "17",
    "city": "Boston",
    "lat": 42.3083163,
    "lon": -71.1147915
  },
  {
    "street": "Sedgwick Street",
    "housenumber": "19",
    "city": "Boston",
    "lat": 42.3084469,
    "lon": -71.1147751
  },
  {
    "street": "Sedgwick Street",
    "housenumber": "21",
    "city": "Boston",
    "lat": 42.3084484,
    "lon": -71.1147349
  },
  {
    "street": "Sedgwick Street",
    "housenumber": "29",
    "city": "Boston",
    "lat": 42.3083733,
    "lon": -71.1143305
  },
  {
    "street": "Sedgwick Street",
    "housenumber": "31",
    "city": "Boston",
    "lat": 42.3084142,
    "lon": -71.1143372
  },
  {
    "street": "Sedgwick Street",
    "housenumber": "33",
    "city": "Boston",
    "lat": 42.3084789,
    "lon": -71.1142951
  },
  {
    "street": "Sedgwick Street",
    "housenumber": "53A",
    "city": "Boston",
    "lat": 42.3083244,
    "lon": -71.1134953
  },
  {
    "street": "Sedgwick Street",
    "housenumber": "53B",
    "city": "Boston",
    "lat": 42.3082843,
    "lon": -71.1134921
  },
  {
    "street": "Commonwealth Avenue",
    "housenumber": "1383",
    "city": "Boston",
    "lat": 42.3487231,
    "lon": -71.1374272
  },
  {
    "street": "Dane Street",
    "housenumber": "12",
    "city": "Boston",
    "lat": 42.3111625,
    "lon": -71.1185478
  },
  {
    "street": "Saint Rose Street",
    "housenumber": "121",
    "city": "Boston",
    "lat": 42.3047039,
    "lon": -71.1188008
  },
  {
    "street": "Saint Rose Street",
    "housenumber": "123",
    "city": "Boston",
    "lat": 42.3046332,
    "lon": -71.1188641
  },
  {
    "street": "Newsome Park",
    "housenumber": "2",
    "city": "Boston",
    "lat": 42.3120813,
    "lon": -71.1176489
  },
  {
    "street": "Saint Mark Street",
    "housenumber": "2",
    "city": "Boston",
    "lat": 42.302349,
    "lon": -71.114222
  }
]