[
  {
    "street": "Packard Highway",
    "housenumber": "1790",
    "city": "Charlotte",
    "postcode": "48813",
    "lat": 42.5814435,
    "lon": -84.8019444
  },
  {
    "street": "North Graham Street",
    "housenumber": "601",
    "city": "Charlotte",
    "postcode": "28202",
    "lat": 35.2352101,
    "lon": -80.8415651
  },
  {
    "street": "Melynda Road",
    "housenumber": "524",
    "city": "Charlotte",
    "postcode": "28208",
    "lat": 35.2762273,
    "lon": -80.9101928
  },
  {
    "street": "Old Mount Holly Road",
    "housenumber": "6729",
    "city": "Charlotte",
    "postcode": "28214",
    "lat": 35.2810201,
    "lon": -80.9192126
  },
  {
    "street": "Central Avenue",
    "housenumber": "1817",
    "city": "Charlotte",
    "postcode": "28205",
    "lat": 35.2206987,
    "lon": -80.8089596
  },
  {
    "street": "Moores Chapel Road",
    "housenumber": "8701",
    "city": "Charlotte",
    "postcode": "28214",
    "lat": 35.2738153,
    "lon": -80.9507787
  },
  {
    "street": "Perimeter Parkway",
    "housenumber": "10275",
    "city": "Charlotte",
    "postcode": "28216",
    "lat": 35.3460548,
    "lon": -80.8559942
  },
  {
    "street": "North Church Street",
    "housenumber": "525",
    "city": "Charlotte",
    "postcode": "28202",
    "lat": 35.2320179,
    "lon": -80.8391286
  },
  {
    "street": "Dr Webber Ave",
    "housenumber": "2337",
    "city": "Charlotte",
    "postcode": "28216",
    "lat": 35.2652015,
    "lon": -80.8561764
  },
  {
    "street": "Coverse Bay Road",
    "housenumber": "1028",
    "city": "Charlotte",
    "postcode": "05445",
    "lat": 44.2911613,
    "lon": -73.2825907
  },
  {
    "street": "Arbo Road",
    "housenumber": "12",
    "city": "Charlotte",
    "postcode": "04666",
    "lat": 45.0273728,
    "lon": -67.3115685
  },
  {
    "street": "Ballantyne Village Way",
    "housenumber": "14835",
    "city": "Charlotte",
    "postcode": "28277",
    "lat": 35.0529669,
    "lon": -80.8507517
  },
  {
    "street": "Camden Road",
    "housenumber": "1821",
    "city": "Charlotte",
    "postcode": "28203",
    "lat": 35.2122117,
    "lon": -80.8589291
  },
  {
    "street": "Carson Boulevard",
    "housenumber": "218",
    "city": "Charlotte",
    "postcode": "28203",
    "lat": 35.2188191,
    "lon": -80.8508781
  },
  {
    "street": "Camden Road",
    "housenumber": "1511",
    "city": "Charlotte",
    "postcode": "28203",
    "lat": 35.2157775,
    "lon": -80.8551939
  },
  {
    "street": "East Arbors Drive",
    "housenumber": "2130",
    "city": "Charlotte",
    "postcode": "28262",
    "lat": 35.3380201,
    "lon": -80.7573357
  },
  {
    "street": "Saint Mary's Boulevard",
    "housenumber": "807",
    "city": "Charlotte",
    "postcode": "48813",
    "lat": 42.5513459,
    "lon": -84.8289685
  },
  {
    "street": "North Old Woodward Avenue",
    "housenumber": "280",
    "city": "Charlotte",
    "postcode": "48009",
    "lat": 35.2134608,
    "lon": -80.8270161
  },
  {
    "street": "Clanton Road",
    "housenumber": "605",
    "city": "Charlotte",
    "postcode": "28217",
    "lat": 35.1969854,
    "lon": -80.8813084
  },
  {
    "street": "Ferry Road",
    "housenumber": "115",
    "city": "Charlotte",
    "postcode": "05445",
    "lat": 44.3107285,
    "lon": -73.2492519
  },
  {
    "street": "S Tryon Street Ste 105",
    "housenumber": "8516",
    "city": "Charlotte",
    "lat": 35.1397023,
    "lon": -80.9350431
  },
  {
    "street": "Microsoft Way",
    "housenumber": "8055",
    "city": "Charlotte",
    "lat": 35.1388082,
    "lon": -80.9229466
  },
  {
    "street": "Park Road",
    "housenumber": "4139",
    "city": "Charlotte",
    "postcode": "28209",
    "lat": 35.1750511,
    "lon": -80.8492838
  },
  {
    "street": "Providence Road",
    "housenumber": "900",
    "city": "Charlotte",
    "postcode": "28226",
    "lat": 35.0970101,
    "lon": -80.780433
  },
  {
    "street": "Providence Road",
    "housenumber": "8124",
    "city": "Charlotte",
    "postcode": "28226",
    "lat": 35.0963476,
    "lon": -80.780346
  },
  {
    "street": "Providence Road",
    "housenumber": "8140",
    "city": "Charlotte",
    "postcode": "28226",
    "lat": 35.0966139,
    "lon": -80.7785689
  },
  {
    "street": "Providence Road",
    "housenumber": "8046-D",
    "city": "Charlotte",
    "postcode": "28226",
    "lat": 35.09743,
    "lon": -80.7791615
  },
  {
    "street": "East Trade Street",
    "housenumber": "210",
    "city": "Charlotte",
    "postcode": "28202",
    "lat": 35.225542,
    "lon": -80.8427582
  },
  {
    "street": "North Church Street",
    "housenumber": "210",
    "city": "Charlotte",
    "postcode": "28202",
    "lat": 35.2289353,
    "lon": -80.8427746
  },
  {
    "street": "North College Street",
    "housenumber": "230",
    "city": "Charlotte",
    "postcode": "28202",
    "lat": 35.2274313,
    "lon": -80.8400624
  },
  {
    "street": "East 5th Street",
    "housenumber": "201",
    "city": "Charlotte",
    "postcode": "28202",
    "lat": 35.2269129,
    "lon": -80.8404682
  },
  {
    "street": "North Tryon Street",
    "housenumber": "301",
    "city": "Charlotte",
    "lat": 35.2297339,
    "lon": -80.8414419
  },
  {
    "street": "Ardsley",
    "housenumber": "600",
    "city": "Charlotte",
    "lat": 35.2019799,
    "lon": -80.8256372
  },
  {
    "street": "Pineville-Matthews Road",
    "housenumber": "7521",
    "city": "Charlotte",
    "postcode": "28226",
    "lat": 35.0868848,
    "lon": -80.8468188
  },
  {
    "street": "Pineville-Matthews Road",
    "housenumber": "7601",
    "city": "Charlotte",
    "postcode": "28226",
    "lat": 35.0866188,
    "lon": -80.8473314
  },
  {
    "street": "Hawthorne Lane",
    "housenumber": "200",
    "city": "Charlotte",
    "lat": 35.2130365,
    "lon": -80.8245169
  },
  {
    "street": "South Tryon Street",
    "housenumber": "8010",
    "city": "Charlotte",
    "postcode": "28273",
    "lat": 35.1448823,
    "lon": -80.9284476
  },
  {
    "street": "South Tryon Street",
    "housenumber": "9424",
    "city": "Charlotte",
    "postcode": "28273",
    "lat": 35.1302389,
    "lon": -80.9420572
  },
  {
    "street": "South Blvd",
    "housenumber": "4400-C",
    "city": "Charlotte",
    "postcode": "28209",
    "lat": 35.1838527,
    "lon": -80.8760855
  },
  {
    "street": "West 9th Street",
    "housenumber": "401",
    "city": "Charlotte",
    "postcode": "28202",
    "lat": 35.2336339,
    "lon": -80.8407528
  },
  {
    "street": "Providence Road",
    "housenumber": "8016",
    "city": "Charlotte",
    "postcode": "28270",
    "lat": 35.0984954,
    "lon": -80.7805812
  },
  {
    "street": "Pineville Matthews Road",
    "housenumber": "7724",
    "city": "Charlotte",
    "postcode": "28226",
    "lat": 35.0880368,
    "lon": -80.8509049
  },
  {
    "street": "South Boulevard",
    "housenumber": "9101",
    "city": "Charlotte",
    "lat": 35.1138047,
    "lon": -80.8812989
  },
  {
    "street": "Galleria Boulevard",
    "housenumber": "1605",
    "city": "Charlotte",
    "postcode": "28270",
    "lat": 35.1352994,
    "lon": -80.7368271
  },
  {
    "street": "Galleria Boulevard",
    "housenumber": "1848",
    "city": "Charlotte",
    "postcode": "28277",
    "lat": 35.1380102,
    "lon": -80.7346174
  },
  {
    "street": "South Tryon Street",
    "housenumber": "9124-A",
    "city": "Charlotte",
    "postcode": "28273",
    "lat": 35.1337097,
    "lon": -80.9405986
  },
  {
    "street": "Rivergate Parkway",
    "housenumber": "14137",
    "city": "Charlotte",
    "postcode": "28273",
    "lat": 35.1029206,
    "lon": -80.9829995
  },
  {
    "street": "River Gate Parkway",
    "housenumber": "14125",
    "city": "Charlotte",
    "postcode": "28273",
    "lat": 35.1040209,
    "lon": -80.983714
  },
  {
    "street": "South Tryon",
    "housenumber": "12820",
    "city": "Charlotte",
    "postcode": "28273",
    "lat": 35.1044454,
    "lon": -80.9885554
  },
  {
    "street": "South Mint Street",
    "housenumber": "1300",
    "city": "Charlotte",
    "postcode": "28203",
    "lat": 35.2212938,
    "lon": -80.8576185
  },
  {
    "street": "South Boulevard",
    "housenumber": "2601",
    "city": "Charlotte",
    "postcode": "28209",
    "lat": 35.2019466,
    "lon": -80.8650617
  },
  {
    "street": "South Boulevard",
    "housenumber": "2326",
    "city": "Charlotte",
    "postcode": "28203",
    "lat": 35.205117,
    "lon": -80.8634167
  },
  {
    "street": "South Boulevard",
    "housenumber": "2334",
    "city": "Charlotte",
    "postcode": "28203",
    "lat": 35.2048235,
    "lon": -80.8635334
  },
  {
    "street": "South Boulevard",
    "housenumber": "2201",
    "city": "Charlotte",
    "postcode": "28203",
    "lat": 35.2065446,
    "lon": -80.8610949
  },
  {
    "street": "South Boulevard",
    "housenumber": "2201",
    "city": "Charlotte",
    "postcode": "28203",
    "lat": 35.2066147,
    "lon": -80.8610251
  },
  {
    "street": "South Boulevard",
    "housenumber": "1520",
    "city": "Charlotte",
    "postcode": "28203",
    "lat": 35.2139184,
    "lon": -80.8556348
  },
  {
    "street": "Elmhurst Road",
    "housenumber": "611",
    "city": "Charlotte",
    "postcode": "28209",
    "lat": 35.1983324,
    "lon": -80.8591551
  },
  {
    "street": "Elmhurst Road",
    "housenumber": "615",
    "city": "Charlotte",
    "postcode": "28209",
    "lat": 35.1984125,
    "lon": -80.8588399
  },
  {
    "street": "Elmhurst Road",
    "housenumber": "610",
    "city": "Charlotte",
    "postcode": "28209",
    "lat": 35.1978191,
    "lon": -80.8589707
  },
  {
    "street": "Elmhurst Road",
    "housenumber": "616",
    "city": "Charlotte",
    "postcode": "28209",
    "lat": 35.1978401,
    "lon": -80.858513
  },
  {
    "street": "Elmhurst Road",
    "housenumber": "614",
    "city": "Charlotte",
    "postcode": "28209",
    "lat": 35.1977752,
    "lon": -80.8586414
  },
  {
    "street": "Elmhurst Road",
    "housenumber": "612",
    "city": "Charlotte",
    "postcode": "28209",
    "lat": 35.1976912,
    "lon": -80.8588843
  },
  {
    "street": "Elmhurst Road",
    "housenumber": "618",
    "city": "Charlotte",
    "postcode": "28209",
    "lat": 35.1979278,
    "lon": -80.8583565
  },
  {
    "street": "Elmhurst Road",
    "housenumber": "620",
    "city": "Charlotte",
    "postcode": "28209",
    "lat": 35.1980061,
    "lon": -80.8582071
  },
  {
    "street": "Elmhurst Road",
    "housenumber": "301",
    "city": "Charlotte",
    "postcode": "28209",
    "lat": 35.198894,
    "lon": -80.8645746
  },
  {
    "street": "Dorchester Place",
    "housenumber": "2830",
    "city": "Charlotte",
    "postcode": "28209",
    "lat": 35.195957,
    "lon": -80.8608156
  },
  {
    "street": "Dorchester Place",
    "housenumber": "2712",
    "city": "Charlotte",
    "postcode": "28209",
    "lat": 35.1972973,
    "lon": -80.8579497
  },
  {
    "street": "Dorchester Place",
    "housenumber": "2716",
    "city": "Charlotte",
    "postcode": "28209",
    "lat": 35.1974354,
    "lon": -80.8583332
  },
  {
    "street": "Dorchester Place",
    "housenumber": "2720",
    "city": "Charlotte",
    "postcode": "28209",
    "lat": 35.1970781,
    "lon": -80.8583467
  },
  {
    "street": "Dorchester Place",
    "housenumber": "2711",
    "city": "Charlotte",
    "postcode": "28209",
    "lat": 35.1967691,
    "lon": -80.8574719
  },
  {
    "street": "Dorchester Place",
    "housenumber": "2713",
    "city": "Charlotte",
    "postcode": "28209",
    "lat": 35.1964907,
    "lon": -80.8573915
  },
  {
    "street": "Dorchester Place",
    "housenumber": "2723",
    "city": "Charlotte",
    "postcode": "28209",
    "lat": 35.1962452,
    "lon": -80.857885
  },
  {
    "street": "Dorchester Place",
    "housenumber": "2725",
    "city": "Charlotte",
    "postcode": "28209",
    "lat": 35.1963548,
    "lon": -80.8581398
  },
  {
    "street": "Dorchester Place",
    "housenumber": "2715",
    "city": "Charlotte",
    "postcode": "28209",
    "lat": 35.1960392,
    "lon": -80.8569489
  },
  {
    "street": "Dorchester Place",
    "housenumber": "2717",
    "city": "Charlotte",
    "postcode": "28209",
    "lat": 35.1961093,
    "lon": -80.8572493
  },
  {
    "street": "Dorchester Place",
    "housenumber": "2719",
    "city": "Charlotte",
    "postcode": "28209",
    "lat": 35.1959756,
    "lon": -80.8575095
  },
  {
    "street": "Dorchester Place",
    "housenumber": "2721",
    "city": "Charlotte",
    "postcode": "28209",
    "lat": 35.1957214,
    "lon": -80.8575738
  },
  {
    "street": "Sedgefield Road",
    "housenumber": "736",
    "city": "Charlotte",
    "postcode": "28209",
    "lat": 35.1956534,
    "lon": -80.8572681
  },
  {
    "street": "Sedgefield Road",
    "housenumber": "732",
    "city": "Charlotte",
    "postcode": "28209",
    "lat": 35.1957937,
    "lon": -80.8570025
  },
  {
    "street": "Sedgefield Road",
    "housenumber": "734",
    "city": "Charlotte",
    "postcode": "28209",
    "lat": 35.1958463,
    "lon": -80.8573432
  },
  {
    "street": "Sedgefield Road",
    "housenumber": "720",
    "city": "Charlotte",
    "postcode": "28209",
    "lat": 35.1955,
    "lon": -80.8566753
  },
  {
    "street": "Sedgefield Road",
    "housenumber": "740",
    "city": "Charlotte",
    "postcode": "28209",
    "lat": 35.1952501,
    "lon": -80.8571581
  },
  {
    "street": "Sedgefield Road",
    "housenumber": "744",
    "city": "Charlotte",
    "postcode": "28209",
    "lat": 35.1950112,
    "lon": -80.8570642
  },
  {
    "street": "Sedgefield Road",
    "housenumber": "724",
    "city": "Charlotte",
    "postcode": "28209",
    "lat": 35.1954036,
    "lon": -80.8564849
  },
  {
    "street": "Sedgefield Road",
    "housenumber": "748",
    "city": "Charlotte",
    "postcode": "28209",
    "lat": 35.1950792,
    "lon": -80.8567585
  },
  {
    "street": "Providence Road",
    "housenumber": "8016",
    "city": "Charlotte",
    "postcode": "28277",
    "lat": 35.0983804,
    "lon": -80.7802427
  },
  {
    "street": "Providence Road",
    "housenumber": "8040",
    "city": "Charlotte",
    "postcode": "28277",
    "lat": 35.0969535,
    "lon": -80.7789395
  },
  {
    "street": "South Church Street",
    "housenumber": "222",
    "city": "Charlotte",
    "postcode": "28202",
    "lat": 35.2268461,
    "lon": -80.8462211
  },
  {
    "street": "Sardis Road North",
    "housenumber": "1640",
    "city": "Charlotte",
    "postcode": "28270",
    "lat": 35.139107,
    "lon": -80.7372013
  },
  {
    "street": "Monroe Road",
    "housenumber": "9614",
    "city": "Charlotte",
    "postcode": "28270",
    "lat": 35.1408072,
    "lon": -80.7402373
  },
  {
    "street": "Monroe Rd",
    "housenumber": "9535",
    "city": "Charlotte",
    "postcode": "28270",
    "lat": 35.1447347,
    "lon": -80.7369573
  },
  {
    "street": "Park Road",
    "housenumber": "4245",
    "city": "Charlotte",
    "postcode": "28209",
    "lat": 35.1739589,
    "lon": -80.8480842
  },
  {
    "street": "Ballantyne Village Way",
    "housenumber": "14825",
    "city": "Charlotte",
    "postcode": "28277",
    "lat": 35.0537193,
    "lon": -80.8514431
  },
  {
    "street": "South Boulevard",
    "housenumber": "9101",
    "city": "Charlotte",
    "postcode": "28273",
    "lat": 35.1137857,
    "lon": -80.882582
  },
  {
    "street": "North Davidson Street",
    "housenumber": "3201",
    "city": "Charlotte",
    "postcode": "28205",
    "lat": 35.2471262,
    "lon": -80.8057495
  },
  {
    "street": "Josh Birmingham PArkway",
    "housenumber": "5501",
    "city": "Charlotte",
    "lat": 35.2243547,
    "lon": -80.9403947
  },
  {
    "street": "Josh Birmingham Parkway",
    "housenumber": "5501",
    "city": "Charlotte",
    "postcode": "28208",
    "lat": 35.2223357,
    "lon": -80.9413581
  },
  {
    "street": "Providence Road",
    "housenumber": "10806",
    "city": "Charlotte",
    "postcode": "28277",
    "lat": 35.0627653,
    "lon": -80.7706872
  },
  {
    "street": "North Graham Street",
    "housenumber": "626",
    "city": "Charlotte",
    "postcode": "28202",
    "lat": 35.2349029,
    "lon": -80.8406219
  },
  {
    "street": "Josh Birmingham Parkway",
    "housenumber": "5501",
    "city": "Charlotte",
    "postcode": "28208",
    "lat": 35.2205591,
    "lon": -80.9428279
  },
  {
    "street": "Coltsview Lane",
    "housenumber": "2437",
    "city": "Matthews",
    "postcode": "28105",
    "lat": 35.0667368,
    "lon": -80.7294251
  },
  {
    "street": "Park Road",
    "housenumber": "4301",
    "city": "Charlotte",
    "postcode": "28209",
    "lat": 35.1736573,
    "lon": -80.8479764
  },
  {
    "street": "Park Road",
    "housenumber": "4147",
    "city": "Charlotte",
    "postcode": "28209",
    "lat": 35.1750024,
    "lon": -80.8491769
  },
  {
    "street": "Park Road",
    "housenumber": "4127",
    "city": "Charlotte",
    "postcode": "28209",
    "lat": 35.1752039,
    "lon": -80.8496188
  },
  {
    "street": "Park Road",
    "housenumber": "4241",
    "city": "Charlotte",
    "postcode": "28209",
    "lat": 35.1740701,
    "lon": -80.8481873
  },
  {
    "street": "Park Road",
    "housenumber": "4209",
    "city": "Charlotte",
    "postcode": "28209",
    "lat": 35.1747163,
    "lon": -80.8487879
  },
  {
    "street": "Park Road",
    "housenumber": "4145",
    "city": "Charlotte",
    "postcode": "28209",
    "lat": 35.1750302,
    "lon": -80.8492377
  },
  {
    "street": "Park Road",
    "housenumber": "4211",
    "city": "Charlotte",
    "postcode": "28209",
    "lat": 35.1746562,
    "lon": -80.8487331
  },
  {
    "street": "Park Road",
    "housenumber": "4201",
    "city": "Charlotte",
    "postcode": "28209",
    "lat": 35.1750833,
    "lon": -80.8486524
  },
  {
    "street": "Park Road",
    "housenumber": "4125",
    "city": "Charlotte",
    "postcode": "28209",
    "lat": 35.1752323,
    "lon": -80.8496811
  },
  {
    "street": "Park Road",
    "housenumber": "4149",
    "city": "Charlotte",
    "postcode": "28209",
    "lat": 35.1749663,
    "lon": -80.8490977
  },
  {
    "street": "Park Road",
    "housenumber": "4121",
    "city": "Charlotte",
    "postcode": "28209",
    "lat": 35.175282,
    "lon": -80.84979
  },
  {
    "street": "Park Road",
    "housenumber": "4301",
    "city": "Charlotte",
    "postcode": "28209",
    "lat": 35.1737953,
    "lon": -80.8479771
  },
  {
    "street": "Park Road",
    "housenumber": "4133",
    "city": "Charlotte",
    "postcode": "28209",
    "lat": 35.1751508,
    "lon": -80.8495024
  },
  {
    "street": "Park Road",
    "housenumber": "4151",
    "city": "Charlotte",
    "postcode": "28209",
    "lat": 35.1750358,
    "lon": -80.8488498
  },
  {
    "street": "Park Road",
    "housenumber": "4151",
    "city": "Charlotte",
    "postcode": "28209",
    "lat": 35.1749221,
    "lon": -80.8490007
  },
  {
    "street": "Park Road",
    "housenumber": "4323",
    "city": "Charlotte",
    "postcode": "28209",
    "lat": 35.1732564,
    "lon": -80.8479743
  },
  {
    "street": "Park Road",
    "housenumber": "4317",
    "city": "Charlotte",
    "postcode": "28209",
    "lat": 35.1734277,
    "lon": -80.8479752
  },
  {
    "street": "Park Road",
    "housenumber": "4425",
    "city": "Charlotte",
    "postcode": "28209",
    "lat": 35.1712552,
    "lon": -80.8507121
  },
  {
    "street": "East Woodlawn Road",
    "housenumber": "1600",
    "city": "Charlotte",
    "postcode": "28209",
    "lat": 35.1716938,
    "lon": -80.8477982
  },
  {
    "street": "East Woodlawn Road",
    "housenumber": "1630",
    "city": "Charlotte",
    "postcode": "28209",
    "lat": 35.1719782,
    "lon": -80.8482668
  },
  {
    "street": "East Woodlawn Road",
    "housenumber": "1600",
    "city": "Charlotte",
    "postcode": "28209",
    "lat": 35.1718376,
    "lon": -80.8491605
  },
  {
    "street": "Covedale Drive",
    "housenumber": "9038",
    "city": "Charlotte",
    "postcode": "28270",
    "lat": 35.1449655,
    "lon": -80.7474292
  },
  {
    "street": "Covedale Drive",
    "housenumber": "9026",
    "city": "Charlotte",
    "postcode": "28270",
    "lat": 35.1454345,
    "lon": -80.7473678
  },
  {
    "street": "Sardis Cove Drive",
    "housenumber": "1070",
    "city": "Charlotte",
    "postcode": "28270",
    "lat": 35.1457103,
    "lon": -80.7474071
  },
  {
    "street": "Sardis Cove Drive",
    "housenumber": "1080",
    "city": "Charlotte",
    "postcode": "28270",
    "lat": 35.1457162,
    "lon": -80.7469895
  },
  {
    "street": "Sardis Cove Drive",
    "housenumber": "1078",
    "city": "Charlotte",
    "postcode": "28270",
    "lat": 35.1457541,
    "lon": -80.7470847
  },
  {
    "street": "McAlpine Cove Court",
    "housenumber": "9039",
    "city": "Charlotte",
    "postcode": "28270",
    "lat": 35.1459944,
    "lon": -80.7481074
  },
  {
    "street": "Sardis Cove Drive",
    "housenumber": "1090",
    "city": "Charlotte",
    "postcode": "28270",
    "lat": 35.1460255,
    "lon": -80.7467215
  },
  {
    "street": "Sardis Cove Drive",
    "housenumber": "1058",
    "city": "Charlotte",
    "postcode": "28270",
    "lat": 35.1460497,
    "lon": -80.7475338
  },
  {
    "street": "McAlpine Cove Court",
    "housenumber": "9036",
    "city": "Charlotte",
    "postcode": "28270",
    "lat": 35.1461127,
    "lon": -80.748651
  },
  {
    "street": "Sardis Cove Drive",
    "housenumber": "1048",
    "city": "Charlotte",
    "postcode": "28270",
    "lat": 35.146296,
    "lon": -80.7473568
  },
  {
    "street": "Sardis Cove Drive",
    "housenumber": "804",
    "city": "Charlotte",
    "postcode": "28270",
    "lat": 35.1462937,
    "lon": -80.7489694
  },
  {
    "street": "McAlpine Cove Court",
    "housenumber": "9025",
    "city": "Charlotte",
    "postcode": "28270",
    "lat": 35.1463445,
    "lon": -80.7479314
  },
  {
    "street": "McAlpine Cove Court",
    "housenumber": "9023",
    "city": "Charlotte",
    "postcode": "28270",
    "lat": 35.1463836,
    "lon": -80.7480226
  },
  {
    "street": "Sardis Cove Drive",
    "housenumber": "1093",
    "city": "Charlotte",
    "postcode": "28270",
    "lat": 35.1464186,
    "lon": -80.7463284
  },
  {
    "street": "McAlpine Cove Court",
    "housenumber": "9024",
    "city": "Charlotte",
    "postcode": "28270",
    "lat": 35.146455,
    "lon": -80.7485674
  },
  {
    "street": "Sardis Cove Drive",
    "housenumber": "1038",
    "city": "Charlotte",
    "postcode": "28270",
    "lat": 35.1465091,
    "lon": -80.7472362
  },
  {
    "street": "Sardis Cove Drive",
    "housenumber": "805",
    "city": "Charlotte",
    "postcode": "28270",
    "lat": 35.1465471,
    "lon": -80.7494822
  },
  {
    "street": "Sardis Cove Drive",
    "housenumber": "1087",
    "city": "Charlotte",
    "postcode": "28270",
    "lat": 35.146565,
    "lon": -80.746111
  },
  {
    "street": "Sardis Cove Drive",
    "housenumber": "1034",
    "city": "Charlotte",
    "postcode": "28270",
    "lat": 35.1465731,
    "lon": -80.7471142
  },
  {
    "street": "McAlpine Cove Court",
    "housenumber": "9015",
    "city": "Charlotte",
    "postcode": "28270",
    "lat": 35.1465828,
    "lon": -80.7477988
  },
  {
    "street": "McAlpine Cove Court",
    "housenumber": "9014",
    "city": "Charlotte",
    "postcode": "28270",
    "lat": 35.1466377,
    "lon": -80.7484274
  },
  {
    "street": "Sardis Cove Drive",
    "housenumber": "814",
    "city": "Charlotte",
    "postcode": "28270",
    "lat": 35.1466476,
    "lon": -80.7488494
  },
  {
    "street": "Sardis Cove Drive",
    "housenumber": "1021",
    "city": "Charlotte",
    "postcode": "28270",
    "lat": 35.1467647,
    "lon": -80.7466097
  },
  {
    "street": "Sardis Cove Drive",
    "housenumber": "817",
    "city": "Charlotte",
    "postcode": "28270",
    "lat": 35.1468009,
    "lon": -80.7497109
  },
  {
    "street": "Sardis Cove Drive",
    "housenumber": "1077",
    "city": "Charlotte",
    "postcode": "28270",
    "lat": 35.1467973,
    "lon": -80.7457408
  },
  {
    "street": "McAlpine Cove Court",
    "housenumber": "9003",
    "city": "Charlotte",
    "postcode": "28270",
    "lat": 35.1468972,
    "lon": -80.747628
  },
  {
    "street": "Sardis Cove Drive",
    "housenumber": "826",
    "city": "Charlotte",
    "postcode": "28270",
    "lat": 35.1468979,
    "lon": -80.7491523
  },
  {
    "street": "McAlpine Cove Court",
    "housenumber": "9002",
    "city": "Charlotte",
    "postcode": "28270",
    "lat": 35.1469646,
    "lon": -80.7482395
  },
  {
    "street": "Sardis Cove Drive",
    "housenumber": "914",
    "city": "Charlotte",
    "postcode": "28270",
    "lat": 35.1469905,
    "lon": -80.7486185
  },
  {
    "street": "Sardis Cove Drive",
    "housenumber": "1071",
    "city": "Charlotte",
    "postcode": "28270",
    "lat": 35.1470426,
    "lon": -80.745966
  },
  {
    "street": "Sardis Cove Drive",
    "housenumber": "1031",
    "city": "Charlotte",
    "postcode": "28270",
    "lat": 35.1470718,
    "lon": -80.7467263
  },
  {
    "street": "Sardis Cove Drive",
    "housenumber": "829",
    "city": "Charlotte",
    "postcode": "28270",
    "lat": 35.1471233,
    "lon": -80.7496648
  },
  {
    "street": "Sardis Cove Drive",
    "housenumber": "902",
    "city": "Charlotte",
    "postcode": "28270",
    "lat": 35.147155,
    "lon": -80.7489947
  },
  {
    "street": "Sardis Cove Drive",
    "housenumber": "1003",
    "city": "Charlotte",
    "postcode": "28270",
    "lat": 35.1472225,
    "lon": -80.7475262
  },
  {
    "street": "Sardis Cove Drive",
    "housenumber": "1037",
    "city": "Charlotte",
    "postcode": "28270",
    "lat": 35.1472879,
    "lon": -80.7466644
  },
  {
    "street": "Sardis Cove Drive",
    "housenumber": "1061",
    "city": "Charlotte",
    "postcode": "28270",
    "lat": 35.1473015,
    "lon": -80.7460993
  },
  {
    "street": "Sardis Cove Drive",
    "housenumber": "939",
    "city": "Charlotte",
    "postcode": "28270",
    "lat": 35.1473441,
    "lon": -80.7480813
  },
  {
    "street": "Sardis Cove Drive",
    "housenumber": "925",
    "city": "Charlotte",
    "postcode": "28270",
    "lat": 35.1474192,
    "lon": -80.7485527
  },
  {
    "street": "Sardis Cove Drive",
    "housenumber": "857",
    "city": "Charlotte",
    "postcode": "28270",
    "lat": 35.14754,
    "lon": -80.749223
  },
  {
    "street": "Sardis Cove Drive",
    "housenumber": "861",
    "city": "Charlotte",
    "postcode": "28270",
    "lat": 35.1475454,
    "lon": -80.7491379
  },
  {
    "street": "Sardis Cove Drive",
    "housenumber": "859",
    "city": "Charlotte",
    "postcode": "28270",
    "lat": 35.1475702,
    "lon": -80.7492067
  },
  {
    "street": "Sardis Cove Drive",
    "housenumber": "949",
    "city": "Charlotte",
    "postcode": "28270",
    "lat": 35.1475772,
    "lon": -80.748028
  },
  {
    "street": "Sardis Cove Drive",
    "housenumber": "1055",
    "city": "Charlotte",
    "postcode": "28270",
    "lat": 35.1476079,
    "lon": -80.7461284
  },
  {
    "street": "Sardis Cove Drive",
    "housenumber": "1047",
    "city": "Charlotte",
    "postcode": "28270",
    "lat": 35.147652,
    "lon": -80.7466519
  },
  {
    "street": "Sardis Cove Drive",
    "housenumber": "963",
    "city": "Charlotte",
    "postcode": "28270",
    "lat": 35.1477537,
    "lon": -80.7476525
  },
  {
    "street": "Sardis Cove Drive",
    "housenumber": "903",
    "city": "Charlotte",
    "postcode": "28270",
    "lat": 35.147784,
    "lon": -80.7488392
  },
  {
    "street": "Sardis Cove Drive",
    "housenumber": "913",
    "city": "Charlotte",
    "postcode": "28270",
    "lat": 35.1477849,
    "lon": -80.7484419
  },
  {
    "street": "Central Avenue",
    "housenumber": "1703",
    "city": "Charlotte",
    "postcode": "28205",
    "lat": 35.2206217,
    "lon": -80.8102846
  },
  {
    "street": "Roland Street",
    "housenumber": "2520",
    "city": "Charlotte",
    "postcode": "28205",
    "lat": 35.2209964,
    "lon": -80.7993198
  },
  {
    "street": "Roland Street",
    "housenumber": "2518",
    "city": "Charlotte",
    "postcode": "28205",
    "lat": 35.2210045,
    "lon": -80.7994312
  },
  {
    "street": "Kenwood Avenue",
    "housenumber": "1801",
    "city": "Charlotte",
    "postcode": "28205",
    "lat": 35.2225216,
    "lon": -80.8050413
  },
  {
    "street": "Thurmond Place",
    "housenumber": "2119",
    "city": "Charlotte",
    "postcode": "28205",
    "lat": 35.2302276,
    "lon": -80.806375
  },
  {
    "street": "Mecklenburg Avenue",
    "housenumber": "1902",
    "city": "Charlotte",
    "postcode": "28205",
    "lat": 35.2317039,
    "lon": -80.8036147
  },
  {
    "street": "Mecklenburg Avenue",
    "housenumber": "1900",
    "city": "Charlotte",
    "postcode": "28205",
    "lat": 35.2317207,
    "lon": -80.8037773
  },
  {
    "street": "Matheson Avenue",
    "housenumber": "1601",
    "city": "Charlotte",
    "postcode": "28205",
    "lat": 35.2357185,
    "lon": -80.7970637
  },
  {
    "street": "Shamrock Drive",
    "housenumber": "2625",
    "city": "Charlotte",
    "postcode": "28205",
    "lat": 35.2387405,
    "lon": -80.7816363
  },
  {
    "street": "Shamrock Drive",
    "housenumber": "2623",
    "city": "Charlotte",
    "postcode": "28205",
    "lat": 35.2387826,
    "lon": -80.7817895
  },
  {
    "street": "Phillips Place Court",
    "housenumber": "6903",
    "city": "Charlotte",
    "postcode": "28210",
    "lat": 35.1460403,
    "lon": -80.8251904
  },
  {
    "street": "Phillips Place Court",
    "housenumber": "6822-G",
    "city": "Charlotte",
    "postcode": "28210",
    "lat": 35.1458722,
    "lon": -80.826149
  },
  {
    "street": "sharon road",
    "housenumber": "4400",
    "city": "charlotte",
    "postcode": "28210",
    "lat": 35.152011,
    "lon": -80.8303193
  },
  {
    "street": "sharon road",
    "housenumber": "4400",
    "city": "charlotte",
    "postcode": "28210",
    "lat": 35.1516134,
    "lon": -80.8304453
  },
  {
    "street": "sharon road",
    "housenumber": "4400",
    "city": "charlotte",
    "postcode": "28210",
    "lat": 35.1520004,
    "lon": -80.8305086
  },
  {
    "street": "sharon road",
    "housenumber": "4400",
    "city": "charlotte",
    "postcode": "28210",
    "lat": 35.1520362,
    "lon": -80.830649
  },
  {
    "street": "sharon road",
    "housenumber": "4400",
    "city": "charlotte",
    "postcode": "28210",
    "lat": 35.152069,
    "lon": -80.8307795
  },
  {
    "street": "sharon road",
    "housenumber": "4400",
    "city": "charlotte",
    "postcode": "28210",
    "lat": 35.1520591,
    "lon": -80.8309232
  },
  {
    "street": "sharon road",
    "housenumber": "4400",
    "city": "charlotte",
    "postcode": "28210",
    "lat": 35.1521119,
    "lon": -80.8309842
  },
  {
    "street": "sharon road",
    "housenumber": "4400",
    "city": "charlotte",
    "postcode": "28210",
    "lat": 35.1521707,
    "lon": -80.8309607
  },
  {
    "street": "sharon road",
    "housenumber": "4400",
    "city": "charlotte",
    "postcode": "28210",
    "lat": 35.1522226,
    "lon": -80.8309364
  },
  {
    "street": "sharon road",
    "housenumber": "4400",
    "city": "charlotte",
    "postcode": "28210",
    "lat": 35.152357,
    "lon": -80.8308164
  },
  {
    "street": "sharon road",
    "housenumber": "4400",
    "city": "charlotte",
    "postcode": "28210",
    "lat": 35.1525206,
    "lon": -80.8307532
  },
  {
    "street": "sharon road",
    "housenumber": "4400",
    "city": "charlotte",
    "postcode": "28210",
    "lat": 35.1523875,
    "lon": -80.8312125
  },
  {
    "street": "sharon road",
    "housenumber": "4400",
    "city": "charlotte",
    "postcode": "28210",
    "lat": 35.1522768,
    "lon": -80.8311783
  },
  {
    "street": "sharon road",
    "housenumber": "4400",
    "city": "charlotte",
    "postcode": "28210",
    "lat": 35.1521291,
    "lon": -80.8312391
  },
  {
    "street": "sharon road",
    "housenumber": "4400",
    "city": "charlotte",
    "postcode": "28210",
    "lat": 35.1521654,
    "lon": -80.8313461
  },
  {
    "street": "sharon road",
    "housenumber": "4400",
    "city": "charlotte",
    "postcode": "28210",
    "lat": 35.1521954,
    "lon": -80.8314596
  },
  {
    "street": "sharon road",
    "housenumber": "4400",
    "city": "charlotte",
    "postcode": "28210",
    "lat": 35.1523461,
    "lon": -80.8315358
  },
  {
    "street": "sharon road",
    "housenumber": "4400",
    "city": "charlotte",
    "postcode": "28210",
    "lat": 35.1523951,
    "lon": -80.8317243
  },
  {
    "street": "sharon road",
    "housenumber": "4400",
    "city": "charlotte",
    "postcode": "28210",
    "lat": 35.1524576,
    "lon": -80.831925
  },
  {
    "street": "sharon road",
    "housenumber": "4400",
    "city": "charlotte",
    "postcode": "28210",
    "lat": 35.1523723,
    "lon": -80.8320559
  },
  {
    "street": "sharon road",
    "housenumber": "4400",
    "city": "charlotte",
    "postcode": "28210",
    "lat": 35.1523869,
    "lon": -80.832148
  },
  {
    "street": "sharon road",
    "housenumber": "4400",
    "city": "charlotte",
    "postcode": "28210",
    "lat": 35.1524138,
    "lon": -80.8322272
  },
  {
    "street": "sharon road",
    "housenumber": "4400",
    "city": "charlotte",
    "postcode": "28210",
    "lat": 35.152466,
    "lon": -80.83229
  },
  {
    "street": "sharon road",
    "housenumber": "4400",
    "city": "charlotte",
    "postcode": "28210",
    "lat": 35.1525314,
    "lon": -80.8322903
  },
  {
    "street": "sharon road",
    "housenumber": "4400",
    "city": "charlotte",
    "postcode": "28210",
    "lat": 35.152603,
    "lon": -80.8322656
  },
  {
    "street": "sharon road",
    "housenumber": "4400",
    "city": "charlotte",
    "postcode": "28210",
    "lat": 35.1526929,
    "lon": -80.8322258
  },
  {
    "street": "sharon road",
    "housenumber": "4400",
    "city": "charlotte",
    "postcode": "28210",
    "lat": 35.1527538,
    "lon": -80.8321237
  },
  {
    "street": "sharon road",
    "housenumber": "4400",
    "city": "charlotte",
    "postcode": "28210",
    "lat": 35.1528406,
    "lon": -80.8320911
  },
  {
    "street": "Sharon Road",
    "housenumber": "4400",
    "city": "Charlotte",
    "postcode": "28210",
    "lat": 35.1529456,
    "lon": -80.8320539
  },
  {
    "street": "sharon road",
    "housenumber": "4400",
    "city": "charlotte",
    "postcode": "28210",
    "lat": 35.1532972,
    "lon": -80.8319401
  },
  {
    "street": "sharon road",
    "housenumber": "4400",
    "city": "charlotte",
    "postcode": "28210",
    "lat": 35.1532774,
    "lon": -80.8324096
  },
  {
    "street": "sharon road",
    "housenumber": "4400",
    "city": "charlotte",
    "postcode": "29210",
    "lat": 35.1525374,
    "lon": -80.8327518
  },
  {
    "street": "Sharon Road",
    "housenumber": "4400",
    "city": "Charlotte",
    "postcode": "28210",
    "lat": 35.1525616,
    "lon": -80.8328488
  },
  {
    "street": "sharon road",
    "housenumber": "4400",
    "city": "charlotte",
    "postcode": "28210",
    "lat": 35.1526255,
    "lon": -80.8330536
  },
  {
    "street": "sharon road",
    "housenumber": "4400",
    "city": "charlotte",
    "postcode": "28210",
    "lat": 35.1526498,
    "lon": -80.8331452
  },
  {
    "street": "sharon road",
    "housenumber": "4400",
    "city": "charlotte",
    "postcode": "28210",
    "lat": 35.1526784,
    "lon": -80.8332449
  },
  {
    "street": "sharon road",
    "housenumber": "4400",
    "city": "charlotte",
    "postcode": "28210",
    "lat": 35.1529031,
    "lon": -80.8330267
  },
  {
    "street": "Sharon Road",
    "housenumber": "4400",
    "city": "Charlotte",
    "postcode": "28210",
    "lat": 35.1529253,
    "lon": -80.8331098
  },
  {
    "street": "Sharon Road",
    "housenumber": "4400",
    "city": "Charlotte",
    "postcode": "28210",
    "lat": 35.1528819,
    "lon": -80.8329411
  },
  {
    "street": "Sharon Road",
    "housenumber": "4400",
    "city": "Charlotte",
    "postcode": "28210",
    "lat": 35.1528654,
    "lon": -80.8327577
  },
  {
    "street": "sharon road",
    "housenumber": "4400",
    "city": "charlotte",
    "postcode": "28210",
    "lat": 35.1528384,
    "lon": -80.8326479
  },
  {
    "street": "sharon road",
    "housenumber": "4400",
    "city": "charlotte",
    "postcode": "28210",
    "lat": 35.1528134,
    "lon": -80.8325779
  },
  {
    "street": "sharon road",
    "housenumber": "4400",
    "city": "charlotte",
    "postcode": "28210",
    "lat": 35.1527746,
    "lon": -80.8325007
  },
  {
    "street": "sharon road",
    "housenumber": "4400",
    "city": "charlotte",
    "postcode": "28210",
    "lat": 35.1527203,
    "lon": -80.8325285
  },
  {
    "street": "sharon road",
    "housenumber": "4400",
    "city": "charlotte",
    "postcode": "28210",
    "lat": 35.1526804,
    "lon": -80.8325979
  },
  {
    "street": "sharon road",
    "housenumber": "4400",
    "city": "charlotte",
    "postcode": "28210",
    "lat": 35.1526048,
    "lon": -80.8326293
  },
  {
    "street": "Sharon Road",
    "housenumber": "4400",
    "city": "Charlotte",
    "postcode": "28210",
    "lat": 35.1531728,
    "lon": -80.8330072
  },
  {
    "street": "sharon road",
    "housenumber": "4400",
    "city": "charlotte",
    "postcode": "28210",
    "lat": 35.1531489,
    "lon": -80.8329235
  },
  {
    "street": "sharon road",
    "housenumber": "4400",
    "city": "charlotte",
    "postcode": "28210",
    "lat": 35.153129,
    "lon": -80.8328487
  },
  {
    "street": "sharon road",
    "housenumber": "4400",
    "city": "charlotte",
    "postcode": "28210",
    "lat": 35.1531109,
    "lon": -80.8327597
  },
  {
    "street": "sharon road",
    "housenumber": "4400",
    "city": "charlotte",
    "postcode": "28210",
    "lat": 35.1530034,
    "lon": -80.8326531
  },
  {
    "street": "sharon road",
    "housenumber": "4400",
    "city": "charlotte",
    "postcode": "28210",
    "lat": 35.1525206,
    "lon": -80.833857
  },
  {
    "street": "sharon road",
    "housenumber": "4400",
    "city": "charlotte",
    "postcode": "28210",
    "lat": 35.1525843,
    "lon": -80.8335633
  },
  {
    "street": "sharon road",
    "housenumber": "4400",
    "city": "charlotte",
    "postcode": "28210",
    "lat": 35.1525279,
    "lon": -80.8334105
  },
  {
    "street": "sharon road",
    "housenumber": "4400",
    "city": "charlotte",
    "postcode": "28210",
    "lat": 35.1524924,
    "lon": -80.8332504
  },
  {
    "street": "sharon road",
    "housenumber": "4400",
    "city": "charlotte",
    "postcode": "28210",
    "lat": 35.1522992,
    "lon": -80.8328099
  },
  {
    "street": "sharon road",
    "housenumber": "4400",
    "city": "charlotte",
    "postcode": "28210",
    "lat": 35.1522652,
    "lon": -80.8327279
  },
  {
    "street": "sharon road",
    "housenumber": "4400",
    "city": "charlotte",
    "postcode": "28210",
    "lat": 35.1522081,
    "lon": -80.832755
  },
  {
    "street": "sharon road",
    "housenumber": "4400",
    "city": "charlotte",
    "postcode": "28210",
    "lat": 35.152154,
    "lon": -80.8327915
  },
  {
    "street": "sharon road",
    "housenumber": "4400",
    "city": "charlotte",
    "postcode": "28210",
    "lat": 35.15209,
    "lon": -80.8328144
  },
  {
    "street": "sharon road",
    "housenumber": "4400",
    "city": "charlotte",
    "postcode": "29210",
    "lat": 35.1520086,
    "lon": -80.8328496
  },
  {
    "street": "sharon road",
    "housenumber": "4400",
    "city": "charlotte",
    "postcode": "28210",
    "lat": 35.1518352,
    "lon": -80.8329261
  },
  {
    "street": "sharon road",
    "housenumber": "4400",
    "city": "charlotte",
    "postcode": "28210",
    "lat": 35.15164,
    "lon": -80.8338681
  },
  {
    "street": "Barclay Downs Drive",
    "housenumber": "4335",
    "city": "Charlotte",
    "postcode": "28211",
    "lat": 35.1529745,
    "lon": -80.8343426
  },
  {
    "street": "sharon road",
    "housenumber": "4400",
    "city": "charlotte",
    "postcode": "28210",
    "lat": 35.1517229,
    "lon": -80.8305757
  },
  {
    "street": "sharon road",
    "housenumber": "4400",
    "city": "charlotte",
    "postcode": "28210",
    "lat": 35.15175,
    "lon": -80.8306839
  },
  {
    "street": "sharon road",
    "housenumber": "4400",
    "city": "charlotte",
    "postcode": "29210",
    "lat": 35.1518253,
    "lon": -80.8307319
  },
  {
    "street": "sharon road",
    "housenumber": "4400",
    "city": "charlotte",
    "postcode": "28210",
    "lat": 35.1518524,
    "lon": -80.830803
  },
  {
    "street": "sharon road",
    "housenumber": "4400",
    "city": "Charlotte",
    "lat": 35.1518485,
    "lon": -80.8309385
  },
  {
    "street": "Blendwood Drive",
    "housenumber": "530",
    "city": "Charlotte",
    "postcode": "28215",
    "lat": 35.2496571,
    "lon": -80.7762994
  },
  {
    "street": "Park Road",
    "housenumber": "8510",
    "city": "Charlotte",
    "postcode": "28210",
    "lat": 35.1170941,
    "lon": -80.8574715
  },
  {
    "street": "Park Road",
    "housenumber": "8428",
    "city": "Charlotte",
    "postcode": "28210",
    "lat": 35.1173588,
    "lon": -80.8570081
  },
  {
    "street": "Park Road",
    "housenumber": "8402",
    "city": "Charlotte",
    "postcode": "28210",
    "lat": 35.1168945,
    "lon": -80.8566665
  },
  {
    "street": "Carmel Road",
    "housenumber": "4100",
    "city": "Charlotte",
    "postcode": "28226",
    "lat": 35.1169711,
    "lon": -80.8244806
  },
  {
    "street": "Pineville-Matthews Road",
    "housenumber": "7715",
    "city": "Charlotte",
    "postcode": "28226",
    "lat": 35.0863213,
    "lon": -80.8506416
  },
  {
    "street": "Pineville-Matthews Road",
    "housenumber": "7701",
    "city": "Charlotte",
    "postcode": "28226",
    "lat": 35.0861735,
    "lon": -80.8501102
  },
  {
    "street": "Pineville-Matthews Road",
    "housenumber": "7649",
    "city": "Charlotte",
    "postcode": "28226",
    "lat": 35.0861765,
    "lon": -80.8498498
  },
  {
    "street": "Pineville-Matthews Road",
    "housenumber": "7617",
    "city": "Charlotte",
    "postcode": "28226",
    "lat": 35.086539,
    "lon": -80.8483776
  },
  {
    "street": "Johnston Road",
    "housenumber": "16049",
    "city": "Charlotte",
    "postcode": "28277",
    "lat": 35.0293388,
    "lon": -80.8502267
  },
  {
    "street": "Lancaster Highway",
    "housenumber": "16131",
    "city": "Charlotte",
    "postcode": "28277",
    "lat": 35.0284002,
    "lon": -80.8510643
  },
  {
    "street": "Lancaster Highway",
    "housenumber": "161311",
    "city": "Charlotte",
    "postcode": "28277",
    "lat": 35.0289439,
    "lon": -80.8511285
  },
  {
    "street": "John J Delaney Drive",
    "housenumber": "15105",
    "city": "Charlotte",
    "postcode": "28277",
    "lat": 35.0534256,
    "lon": -80.8469365
  },
  {
    "street": "The Plaza",
    "housenumber": "4525",
    "city": "Charlotte",
    "postcode": "28215",
    "lat": 35.2518884,
    "lon": -80.7796161
  },
  {
    "street": "The Plaza",
    "housenumber": "4527",
    "city": "Charlotte",
    "postcode": "28215",
    "lat": 35.2518801,
    "lon": -80.7786971
  },
  {
    "street": "The Plaza",
    "housenumber": "4529",
    "city": "Charlotte",
    "postcode": "28215",
    "lat": 35.251888,
    "lon": -80.7784032
  },
  {
    "street": "The Plaza",
    "housenumber": "4539",
    "city": "Charlotte",
    "postcode": "28215",
    "lat": 35.2518825,
    "lon": -80.7778031
  },
  {
    "street": "The Plaza",
    "housenumber": "4541",
    "city": "Charlotte",
    "postcode": "28215",
    "lat": 35.2518812,
    "lon": -80.7776567
  },
  {
    "street": "The Plaza",
    "housenumber": "4543",
    "city": "Charlotte",
    "postcode": "28215",
    "lat": 35.2518805,
    "lon": -80.7775796
  },
  {
    "street": "Eastway Drive",
    "housenumber": "3201",
    "city": "Charlotte",
    "postcode": "28205",
    "lat": 35.2114113,
    "lon": -80.7799919
  },
  {
    "street": "Eastway Drive",
    "housenumber": "3211",
    "city": "Charlotte",
    "postcode": "28205",
    "lat": 35.2103615,
    "lon": -80.7812521
  },
  {
    "street": "Eastway Drive",
    "housenumber": "3044",
    "city": "Charlotte",
    "postcode": "28205",
    "lat": 35.2142401,
    "lon": -80.782182
  },
  {
    "street": "East Independence Boulevard",
    "housenumber": "7421",
    "city": "Charlotte",
    "postcode": "28227",
    "lat": 35.1616699,
    "lon": -80.7364173
  },
  {
    "street": "East Independence Boulevard",
    "housenumber": "7211",
    "city": "Charlotte",
    "postcode": "28270",
    "lat": 35.1637176,
    "lon": -80.7387415
  },
  {
    "street": "East Independence Boulevard",
    "housenumber": "7309",
    "city": "Charlotte",
    "postcode": "28227",
    "lat": 35.1630187,
    "lon": -80.7380484
  },
  {
    "street": "East Independence Boulevard",
    "housenumber": "7411",
    "city": "Charlotte",
    "postcode": "28227",
    "lat": 35.1621266,
    "lon": -80.73696
  },
  {
    "street": "South Sharon Amity Road",
    "housenumber": "338",
    "city": "Charlotte",
    "postcode": "28211",
    "lat": 35.1749295,
    "lon": -80.8021791
  },
  {
    "street": "South Sharon Amity Road",
    "housenumber": "306",
    "city": "Charlotte",
    "postcode": "28211",
    "lat": 35.1759292,
    "lon": -80.8020423
  },
  {
    "street": "South Sharon Amity Road",
    "housenumber": "236",
    "city": "Charlotte",
    "postcode": "28211",
    "lat": 35.1763184,
    "lon": -80.8018676
  },
  {
    "street": "South Sharon Amity Road",
    "housenumber": "206",
    "city": "Charlotte",
    "postcode": "28211",
    "lat": 35.1765283,
    "lon": -80.8016714
  },
  {
    "street": "South Sharon Amity Road",
    "housenumber": "112",
    "city": "Charlotte",
    "postcode": "28211",
    "lat": 35.1772917,
    "lon": -80.8008962
  },
  {
    "street": "Randolph Road",
    "housenumber": "4450",
    "city": "Charlotte",
    "postcode": "28211",
    "lat": 35.1770271,
    "lon": -80.7999245
  },
  {
    "street": "South Sharon Amity Road",
    "housenumber": "104",
    "city": "Charlotte",
    "postcode": "28211",
    "lat": 35.17597,
    "lon": -80.7994041
  },
  {
    "street": "South Sharon Amity Road",
    "housenumber": "106",
    "city": "Charlotte",
    "postcode": "28211",
    "lat": 35.1759903,
    "lon": -80.8005198
  },
  {
    "street": "South Sharon Amity Road",
    "housenumber": "108",
    "city": "Charlotte",
    "postcode": "28211",
    "lat": 35.1763564,
    "lon": -80.7997617
  },
  {
    "street": "South Sharon Amity Road",
    "housenumber": "108",
    "city": "Charlotte",
    "postcode": "28211",
    "lat": 35.1764032,
    "lon": -80.7997736
  },
  {
    "street": "South Sharon Amity Road",
    "housenumber": "110",
    "city": "Charlotte",
    "postcode": "28211",
    "lat": 35.1764653,
    "lon": -80.7997098
  },
  {
    "street": "Randolph Road",
    "housenumber": "4474",
    "city": "Charlotte",
    "postcode": "28211",
    "lat": 35.1760856,
    "lon": -80.798805
  },
  {
    "street": "Weddington Road",
    "housenumber": "301",
    "city": "Matthews",
    "postcode": "28105",
    "lat": 35.083684,
    "lon": -80.7331768
  },
  {
    "street": "South Mint Street",
    "housenumber": "1100",
    "city": "Charlotte",
    "postcode": "28203",
    "lat": 35.2228257,
    "lon": -80.8558392
  },
  {
    "street": "Selwyn Avenue",
    "housenumber": "2839",
    "city": "Charlotte",
    "lat": 35.1740801,
    "lon": -80.8398918
  },
  {
    "street": "Josh Birmingham Parkway",
    "housenumber": "5501",
    "city": "Charlotte",
    "postcode": "28208",
    "lat": 35.2230737,
    "lon": -80.9400231
  },
  {
    "street": "Prosperity Church Road",
    "housenumber": "3020",
    "city": "Charlotte",
    "postcode": "28269",
    "lat": 35.3431868,
    "lon": -80.7690588
  },
  {
    "street": "Prosperity Church Road",
    "housenumber": "3020",
    "city": "Charlotte",
    "postcode": "28269",
    "lat": 35.3431887,
    "lon": -80.7691872
  },
  {
    "street": "Driwood Court",
    "housenumber": "3014",
    "city": "Charlotte",
    "postcode": "28269",
    "lat": 35.3410183,
    "lon": -80.7696839
  },
  {
    "street": "Driwood Court",
    "housenumber": "3014",
    "city": "Charlotte",
    "postcode": "28269",
    "lat": 35.3409839,
    "lon": -80.7698008
  },
  {
    "street": "East Arbors Drive",
    "housenumber": "2130",
    "city": "Charlotte",
    "postcode": "28262",
    "lat": 35.3380782,
    "lon": -80.7574593
  },
  {
    "street": "The Plaza",
    "housenumber": "1308",
    "city": "Charlotte",
    "postcode": "28205",
    "lat": 35.2209105,
    "lon": -80.8102491
  },
  {
    "street": "North Tryon Street",
    "housenumber": "9335",
    "city": "Charlotte",
    "postcode": "28262",
    "lat": 35.3134638,
    "lon": -80.7430663
  },
  {
    "street": "North Tryon Street",
    "housenumber": "9355",
    "city": "Charlotte",
    "postcode": "28262",
    "lat": 35.3133411,
    "lon": -80.7432167
  },
  {
    "street": "Ashland Avenue and Kensington Drive",
    "housenumber": "1900",
    "city": "Charlotte",
    "postcode": "28205",
    "lat": 35.2240902,
    "lon": -80.8037961
  },
  {
    "street": "Sablewood Drive",
    "housenumber": "2122",
    "city": "Charlotte",
    "postcode": "28205",
    "lat": 35.2257055,
    "lon": -80.797952
  },
  {
    "street": "Belvedere Avenue",
    "housenumber": "2509",
    "city": "Charlotte",
    "postcode": "28205",
    "lat": 35.225581,
    "lon": -80.799055
  },
  {
    "street": "John J Delaney Drive",
    "housenumber": "15110",
    "city": "Charlotte",
    "postcode": "28277",
    "lat": 35.0527354,
    "lon": -80.8462737
  },
  {
    "street": "Charlottetowne Avenue",
    "housenumber": "1125",
    "city": "Charlotte",
    "postcode": "28204",
    "lat": 35.2155486,
    "lon": -80.8292548
  },
  {
    "street": "East 3rd Street",
    "housenumber": "1407",
    "city": "Charlotte",
    "postcode": "28204",
    "lat": 35.2134716,
    "lon": -80.8299705
  },
  {
    "street": "Elizabeth Avenue",
    "housenumber": "1617",
    "city": "Charlotte",
    "postcode": "28204",
    "lat": 35.2134225,
    "lon": -80.8260188
  },
  {
    "street": "Prosperity Church Road",
    "housenumber": "3020",
    "city": "Charlotte",
    "postcode": "28269",
    "lat": 35.343144,
    "lon": -80.7688687
  },
  {
    "street": "Prosperity Church Road",
    "housenumber": "3020",
    "city": "Charlotte",
    "postcode": "28269",
    "lat": 35.3431456,
    "lon": -80.7687786
  },
  {
    "street": "Driwood Court",
    "housenumber": "3130",
    "city": "Charlotte",
    "postcode": "28269",
    "lat": 35.3424816,
    "lon": -80.7706437
  },
  {
    "street": "Driwood Court",
    "housenumber": "3130",
    "city": "Charlotte",
    "postcode": "28269",
    "lat": 35.3423857,
    "lon": -80.7707298
  },
  {
    "street": "Driwood Court",
    "housenumber": "3020",
    "city": "Charlotte",
    "postcode": "28269",
    "lat": 35.3408866,
    "lon": -80.7700166
  },
  {
    "street": "East Arbors Drive",
    "housenumber": "2121",
    "city": "Charlotte",
    "postcode": "28262",
    "lat": 35.3376386,
    "lon": -80.7574919
  },
  {
    "street": "East Arbors Drive",
    "housenumber": "2115",
    "city": "Charlotte",
    "postcode": "28262",
    "lat": 35.3373726,
    "lon": -80.7569223
  },
  {
    "street": "East Arbors Drive",
    "housenumber": "2015",
    "city": "Charlotte",
    "postcode": "28262",
    "lat": 35.3370207,
    "lon": -80.7561834
  },
  {
    "street": "East Arbors Drive",
    "housenumber": "2005",
    "city": "Charlotte",
    "postcode": "28262",
    "lat": 35.3367866,
    "lon": -80.755882
  },
  {
    "street": "East Arbors Drive",
    "housenumber": "1824",
    "city": "Charlotte",
    "postcode": "28262",
    "lat": 35.3369331,
    "lon": -80.7550744
  },
  {
    "street": "North Tryon Street",
    "housenumber": "401",
    "city": "Charlotte",
    "postcode": "28202",
    "lat": 35.2298783,
    "lon": -80.8395114
  },
  {
    "street": "Selwyn Avenue",
    "housenumber": "2916",
    "city": "Charlotte",
    "postcode": "28209",
    "lat": 35.1734306,
    "lon": -80.8406866
  },
  {
    "street": "Union Pacific Avenue",
    "housenumber": "6024",
    "city": "Charlotte",
    "postcode": "28210",
    "lat": 35.1455289,
    "lon": -80.8650583
  },
  {
    "street": "Cameron Valley Parkway",
    "housenumber": "4500",
    "city": "Charlotte",
    "postcode": "28211",
    "lat": 35.1485157,
    "lon": -80.8252756
  },
  {
    "street": "Park Road",
    "housenumber": "2401",
    "city": "Charlotte",
    "postcode": "28209",
    "lat": 35.1994252,
    "lon": -80.852231
  },
  {
    "street": "Medical Plaza Drive",
    "housenumber": "8401",
    "city": "Charlotte",
    "postcode": "28262",
    "lat": 35.3189467,
    "lon": -80.7767128
  },
  {
    "street": "Medical Plaza Drive",
    "housenumber": "8300",
    "city": "Charlotte",
    "postcode": "28262",
    "lat": 35.3182726,
    "lon": -80.7754844
  },
  {
    "street": "West 5th Street",
    "housenumber": "118",
    "city": "Charlotte",
    "postcode": "28202",
    "lat": 35.228636,
    "lon": -80.8425072
  },
  {
    "street": "East Boulevard",
    "housenumber": "1235",
    "city": "Charlotte",
    "postcode": "28203",
    "lat": 35.2030726,
    "lon": -80.845671
  },
  {
    "street": "South Tryon Street",
    "housenumber": "1440",
    "city": "Charlotte",
    "postcode": "28203",
    "lat": 35.2169992,
    "lon": -80.8570717
  },
  {
    "street": "South Boulevard",
    "housenumber": "1928",
    "city": "Charlotte",
    "postcode": "28203",
    "lat": 35.2101455,
    "lon": -80.8598517
  },
  {
    "street": "Lansing Street",
    "housenumber": "680",
    "city": "Charlotte",
    "postcode": "48813",
    "lat": 42.5731945,
    "lon": -84.8216579
  },
  {
    "street": "Lansing Street",
    "housenumber": "680",
    "city": "Charlotte",
    "postcode": "48813",
    "lat": 42.5733099,
    "lon": -84.8218715
  },
  {
    "street": "Central Avenue",
    "housenumber": "1101",
    "city": "Charlotte",
    "postcode": "28204",
    "lat": 35.2217158,
    "lon": -80.8193063
  },
  {
    "street": "Providence Road",
    "housenumber": "210",
    "city": "Charlotte",
    "postcode": "28207",
    "lat": 35.2072589,
    "lon": -80.8244075
  },
  {
    "street": "Josh Birmingham Parkway",
    "housenumber": "5502",
    "city": "Charlotte/Douglas Int'l Airport",
    "postcode": "28208",
    "lat": 35.2186285,
    "lon": -80.942478
  },
  {
    "street": "West Trade Street",
    "housenumber": "718",
    "city": "Charlotte",
    "postcode": "28202",
    "lat": 35.2330447,
    "lon": -80.8497186
  },
  {
    "street": "Old Nations Ford Rd",
    "housenumber": "9629",
    "city": "Charlotte",
    "postcode": "28273",
    "lat": 35.1254397,
    "lon": -80.8927093
  },
  {
    "street": "Baldwin Avenue",
    "housenumber": "104",
    "city": "Charlotte",
    "postcode": "28204",
    "lat": 35.2130422,
    "lon": -80.8282402
  },
  {
    "street": "North Tryon Street",
    "housenumber": "7945 Unit #110",
    "city": "Charlotte",
    "postcode": "28262",
    "lat": 35.2971084,
    "lon": -80.7554052
  },
  {
    "street": "W Hill St",
    "housenumber": "962",
    "city": "Charlotte",
    "postcode": "28208",
    "lat": 35.2287762,
    "lon": -80.8571013
  },
  {
    "street": "Northlake Centre Parkway",
    "housenumber": "9749",
    "city": "Charlotte",
    "postcode": "28216",
    "lat": 35.348085,
    "lon": -80.8584637
  },
  {
    "street": "Northlake Centre Parkway",
    "housenumber": "9749",
    "city": "Charlotte",
    "postcode": "28216",
    "lat": 35.3480906,
    "lon": -80.858653
  },
  {
    "street": "Statesville Road",
    "housenumber": "8112",
    "city": "Charlotte",
    "postcode": "28269",
    "lat": 35.332215,
    "lon": -80.8423588
  },
  {
    "street": "North Cedar Street",
    "housenumber": "718",
    "city": "Charlotte",
    "postcode": "28202",
    "lat": 35.2332873,
    "lon": -80.849538
  },
  {
    "street": "West Trade Street",
    "housenumber": "800",
    "city": "Charlotte",
    "postcode": "28202",
    "lat": 35.2336341,
    "lon": -80.8505073
  },
  {
    "street": "South Tryon Street",
    "housenumber": "8951",
    "city": "Charlotte",
    "postcode": "28273",
    "lat": 35.1366272,
    "lon": -80.9372014
  },
  {
    "street": "Rea Road",
    "housenumber": "9820",
    "city": "Charlotte",
    "postcode": "28277",
    "lat": 35.034681,
    "lon": -80.8057555
  },
  {
    "street": "Rea Road",
    "housenumber": "9820",
    "city": "Blakeney",
    "postcode": "28277",
    "lat": 35.0347633,
    "lon": -80.8056228
  },
  {
    "street": "Flynwood Drive",
    "housenumber": "1616",
    "city": "Charlotte",
    "postcode": "28205",
    "lat": 35.2168745,
    "lon": -80.7867685
  },
  {
    "street": "Flynwood Drive",
    "housenumber": "1616",
    "city": "Charlotte",
    "postcode": "28205",
    "lat": 35.2169023,
    "lon": -80.7867694
  },
  {
    "street": "Flynwood Drive",
    "housenumber": "1616",
    "city": "Charlotte",
    "postcode": "28205",
    "lat": 35.2169034,
    "lon": -80.7867755
  },
  {
    "street": "Flynwood Drive",
    "housenumber": "1616",
    "city": "Charlotte",
    "postcode": "28205",
    "lat": 35.2168442,
    "lon": -80.7867888
  },
  {
    "street": "Flynwood Drive",
    "housenumber": "1616",
    "city": "Charlotte",
    "postcode": "28205",
    "lat": 35.2168453,
    "lon": -80.7867947
  },
  {
    "street": "Flynwood Drive",
    "housenumber": "1616",
    "city": "Charlotte",
    "postcode": "28205",
    "lat": 35.2168522,
    "lon": -80.7868312
  },
  {
    "street": "Flynwood Drive",
    "housenumber": "1614",
    "city": "Charlotte",
    "postcode": "28205",
    "lat": 35.2168123,
    "lon": -80.7870064
  },
  {
    "street": "Flynwood Drive",
    "housenumber": "1614",
    "city": "Charlotte",
    "postcode": "28205",
    "lat": 35.2169103,
    "lon": -80.7869482
  },
  {
    "street": "Flynwood Drive",
    "housenumber": "1614",
    "city": "Charlotte",
    "postcode": "28205",
    "lat": 35.2169166,
    "lon": -80.7869808
  },
  {
    "street": "Flynwood Drive",
    "housenumber": "1614",
    "city": "Charlotte",
    "postcode": "28205",
    "lat": 35.2169239,
    "lon": -80.7870188
  },
  {
    "street": "Flynwood Drive",
    "housenumber": "1614",
    "city": "Charlotte",
    "postcode": "28205",
    "lat": 35.2169218,
    "lon": -80.7870076
  },
  {
    "street": "Flynwood Drive",
    "housenumber": "1614",
    "city": "Charlotte",
    "postcode": "28205",
    "lat": 35.2168559,
    "lon": -80.7870394
  },
  {
    "street": "Blakeney Professional Drive",
    "housenumber": "8821",
    "city": "Charlotte",
    "postcode": "28277",
    "lat": 35.030662,
    "lon": -80.8076419
  },
  {
    "street": "Riverstone Way",
    "housenumber": "16614",
    "city": "Charlotte",
    "postcode": "28277",
    "lat": 35.0270004,
    "lon": -80.8397487
  },
  {
    "street": "Seventy-Seven Center Drive",
    "housenumber": "5225",
    "city": "Charlotte",
    "postcode": "28217",
    "lat": 35.1686264,
    "lon": -80.8859209
  },
  {
    "street": "Southern Pine Boulevard",
    "housenumber": "9201",
    "city": "Charlotte",
    "postcode": "28273",
    "lat": 35.133912,
    "lon": -80.9127027
  },
  {
    "street": "Statesville Avenue",
    "housenumber": "1824",
    "city": "Charlotte",
    "postcode": "28206",
    "lat": 35.246441,
    "lon": -80.8334473
  },
  {
    "street": "Camp Road",
    "housenumber": "330",
    "city": "Charlotte",
    "postcode": "28206",
    "lat": 35.2463565,
    "lon": -80.8335495
  },
  {
    "street": "Camp Road",
    "housenumber": "301",
    "city": "Charlotte",
    "postcode": "28206",
    "lat": 35.2455128,
    "lon": -80.8340083
  },
  {
    "street": "Camp Road",
    "housenumber": "300",
    "city": "Charlotte",
    "postcode": "28206",
    "lat": 35.2463946,
    "lon": -80.8334284
  },
  {
    "street": "Statesville Avenue",
    "housenumber": "1830",
    "city": "Charlotte",
    "postcode": "28206",
    "lat": 35.2480467,
    "lon": -80.8319104
  },
  {
    "street": "North Sharon Amity Road",
    "housenumber": "5727",
    "city": "Charlotte",
    "postcode": "28215",
    "lat": 35.2353745,
    "lon": -80.739076
  },
  {
    "street": "Queen City Drive",
    "housenumber": "2838 - H",
    "city": "Charlotte",
    "postcode": "28208",
    "lat": 35.2395772,
    "lon": -80.9144954
  },
  {
    "street": "Antlers Lane",
    "housenumber": "7602",
    "city": "Charlotte",
    "postcode": "28210",
    "lat": 35.1290814,
    "lon": -80.873431
  },
  {
    "street": "Antlers Lane",
    "housenumber": "7602",
    "city": "Charlotte",
    "postcode": "28210",
    "lat": 35.1290435,
    "lon": -80.8733052
  },
  {
    "street": "Antlers Lane",
    "housenumber": "7602",
    "city": "Charlotte",
    "postcode": "28210",
    "lat": 35.1289798,
    "lon": -80.8733359
  },
  {
    "street": "Antlers Lane",
    "housenumber": "7602",
    "city": "Charlotte",
    "postcode": "28210",
    "lat": 35.1290194,
    "lon": -80.8734553
  },
  {
    "street": "Antlers Lane",
    "housenumber": "7602",
    "city": "Charlotte",
    "postcode": "28210",
    "lat": 35.1289053,
    "lon": -80.873112
  },
  {
    "street": "Antlers Lane",
    "housenumber": "7602",
    "city": "Charlotte",
    "postcode": "28210",
    "lat": 35.1289481,
    "lon": -80.8732327
  },
  {
    "street": "Antlers Lane",
    "housenumber": "7602",
    "city": "Charlotte",
    "postcode": "28210",
    "lat": 35.1289755,
    "lon": -80.8730731
  },
  {
    "street": "Antlers Lane",
    "housenumber": "7602",
    "city": "Charlotte",
    "postcode": "28210",
    "lat": 35.1290139,
    "lon": -80.8731938
  },
  {
    "street": "South College Street",
    "housenumber": "201",
    "city": "Charlotte",
    "postcode": "28244",
    "lat": 35.2248039,
    "lon": -80.8436326
  },
  {
    "street": "Alleghany Street",
    "housenumber": "1039",
    "city": "Charlotte",
    "postcode": "28208",
    "lat": 35.238986,
    "lon": -80.8864825
  },
  {
    "street": "Statesville Avenue",
    "housenumber": "1824",
    "city": "Charlotte",
    "postcode": "28206",
    "lat": 35.2477256,
    "lon": -80.8334417
  },
  {
    "street": "Camp Road",
    "housenumber": "201",
    "city": "Charlotte",
    "postcode": "28206",
    "lat": 35.2458946,
    "lon": -80.8331318
  },
  {
    "street": "Statesville Avenue",
    "housenumber": "1824",
    "city": "Charlotte",
    "postcode": "28206",
    "lat": 35.2476982,
    "lon": -80.833101
  },
  {
    "street": "Statesville Avenue",
    "housenumber": "1824",
    "city": "Charlotte",
    "postcode": "28206",
    "lat": 35.2477026,
    "lon": -80.8330085
  },
  {
    "street": "Statesville Avenue",
    "housenumber": "1824",
    "city": "Charlotte",
    "postcode": "28206",
    "lat": 35.2476522,
    "lon": -80.8327725
  },
  {
    "street": "Statesville Avenue",
    "housenumber": "1824",
    "city": "Charlotte",
    "postcode": "28206",
    "lat": 35.2476314,
    "lon": -80.8326021
  },
  {
    "street": "Statesville Avenue",
    "housenumber": "1824",
    "city": "Charlotte",
    "postcode": "28206",
    "lat": 35.247594,
    "lon": -80.8322775
  },
  {
    "street": "Statesville Avenue",
    "housenumber": "1824",
    "city": "Charlotte",
    "postcode": "28206",
    "lat": 35.2475924,
    "lon": -80.8322237
  },
  {
    "street": "Statesville Avenue",
    "housenumber": "1824",
    "city": "Charlotte",
    "postcode": "28206",
    "lat": 35.2475899,
    "lon": -80.8321107
  },
  {
    "street": "South Mint Street",
    "housenumber": "599",
    "city": "Charlotte",
    "postcode": "28202",
    "lat": 35.2258025,
    "lon": -80.8505146
  },
  {
    "street": "RiverGate View",
    "housenumber": "14318",
    "city": "Charlotte",
    "postcode": "28273",
    "lat": 35.098868,
    "lon": -80.989033
  },
  {
    "street": "Hoover Creek Boulevard",
    "housenumber": "13540",
    "city": "Charlotte",
    "postcode": "28273",
    "lat": 35.0978673,
    "lon": -80.9887648
  },
  {
    "street": "Hoover Creek Boulevard",
    "housenumber": "13540",
    "city": "Charlotte (Lake Wylie)",
    "postcode": "28273",
    "lat": 35.0978169,
    "lon": -80.9883383
  },
  {
    "street": "Cedar Walk Lane",
    "housenumber": "11042-A",
    "city": "Charlotte",
    "postcode": "28277",
    "lat": 35.0265467,
    "lon": -80.8404949
  },
  {
    "street": "Distribution Street",
    "housenumber": "2503",
    "city": "Charlotte",
    "postcode": "28203",
    "lat": 35.2055198,
    "lon": -80.8670057
  },
  {
    "street": "Conlan Circle",
    "housenumber": "13855",
    "city": "Charlotte",
    "postcode": "28277",
    "lat": 35.0555075,
    "lon": -80.8515889
  },
  {
    "street": "Conlan Circle",
    "housenumber": "13855",
    "city": "Charlotte",
    "postcode": "28277",
    "lat": 35.0552197,
    "lon": -80.851746
  },
  {
    "street": "Conlan Circle",
    "housenumber": "13855",
    "city": "Charlotte",
    "postcode": "28277",
    "lat": 35.0553744,
    "lon": -80.8516523
  },
  {
    "street": "Conlan Circle",
    "housenumber": "14027",
    "city": "Charlotte",
    "postcode": "28277",
    "lat": 35.0563069,
    "lon": -80.8539934
  },
  {
    "street": "Josh Birmingham Parkway",
    "housenumber": "5501",
    "city": "Concourse",
    "postcode": "28208",
    "lat": 35.2184482,
    "lon": -80.945466
  },
  {
    "street": "Josh Birmingham Parkway",
    "housenumber": "5501",
    "city": "Host Marriott/Starbucks Coffee",
    "postcode": "28208",
    "lat": 35.2184632,
    "lon": -80.9451328
  },
  {
    "street": "Birmingham Parkway",
    "housenumber": "5501",
    "city": "Charlotte",
    "postcode": "28208",
    "lat": 35.2203267,
    "lon": -80.9478587
  },
  {
    "street": "Josh Birmingham Parkway",
    "housenumber": "5501",
    "city": "Charlotte",
    "postcode": "28208",
    "lat": 35.2203493,
    "lon": -80.9448932
  },
  {
    "street": "Birmingham Parkway",
    "housenumber": "5501",
    "city": "Charlotte",
    "postcode": "28208",
    "lat": 35.2204723,
    "lon": -80.9443331
  },
  {
    "street": "Josh Birmingham Parkway",
    "housenumber": "5501",
    "city": "Charlotte",
    "postcode": "28208",
    "lat": 35.2208472,
    "lon": -80.9400032
  },
  {
    "street": "North Tryon Street",
    "housenumber": "3427",
    "city": "Charlotte",
    "postcode": "28206",
    "lat": 35.2554771,
    "lon": -80.8056548
  },
  {
    "street": "North Tryon Street",
    "housenumber": "3427",
    "city": "Charlotte",
    "postcode": "28206",
    "lat": 35.255298,
    "lon": -80.804904
  },
  {
    "street": "sharon road",
    "housenumber": "4400",
    "city": "charlotte",
    "postcode": "28210",
    "lat": 35.1523981,
    "lon": -80.8328552
  },
  {
    "street": "sharon road",
    "housenumber": "4400",
    "city": "charlotte",
    "postcode": "28210",
    "lat": 35.1521509,
    "lon": -80.8323297
  },
  {
    "street": "sharon road",
    "housenumber": "4400",
    "city": "charlotte",
    "postcode": "28210",
    "lat": 35.152087,
    "lon": -80.8323998
  },
  {
    "street": "sharon road",
    "housenumber": "4400",
    "city": "charlotte",
    "postcode": "28210",
    "lat": 35.1519708,
    "lon": -80.8324385
  },
  {
    "street": "sharon road",
    "housenumber": "4400",
    "city": "charlotte",
    "postcode": "28210",
    "lat": 35.1517776,
    "lon": -80.8325209
  },
  {
    "street": "Sharon Road",
    "housenumber": "4400",
    "city": "Charlotte",
    "postcode": "28210",
    "lat": 35.151554,
    "lon": -80.8326061
  },
  {
    "street": "sharon road",
    "housenumber": "4400",
    "city": "charlotte",
    "postcode": "28210",
    "lat": 35.1515475,
    "lon": -80.833016
  },
  {
    "street": "sharon road",
    "housenumber": "4400",
    "city": "charlotte",
    "postcode": "28210",
    "lat": 35.1512678,
    "lon": -80.8330956
  },
  {
    "street": "sharon road",
    "housenumber": "4400",
    "city": "charlotte",
    "postcode": "28210",
    "lat": 35.151597,
    "lon": -80.83295
  },
  {
    "street": "sharon road",
    "housenumber": "4400",
    "city": "charlotte",
    "postcode": "28210",
    "lat": 35.1516673,
    "lon": -80.832925
  },
  {
    "street": "sharon rd",
    "housenumber": "4400",
    "city": "charlotte",
    "postcode": "28210",
    "lat": 35.1516901,
    "lon": -80.8325514
  },
  {
    "street": "sharon road",
    "housenumber": "4400",
    "city": "charlotte",
    "postcode": "28210",
    "lat": 35.1514596,
    "lon": -80.832631
  },
  {
    "street": "sharon road",
    "housenumber": "4400",
    "city": "charlotte",
    "postcode": "28210",
    "lat": 35.1510583,
    "lon": -80.8323265
  },
  {
    "street": "Sharon Road",
    "housenumber": "4400",
    "city": "charlotte",
    "postcode": "28210",
    "lat": 35.1514857,
    "lon": -80.8310551
  },
  {
    "street": "sharon road",
    "housenumber": "4400",
    "city": "charlotte",
    "postcode": "28210",
    "lat": 35.151802,
    "lon": -80.8310185
  },
  {
    "street": "sharon road",
    "housenumber": "4400",
    "city": "charlotte",
    "postcode": "28210",
    "lat": 35.1519915,
    "lon": -80.8317468
  },
  {
    "street": "sharon road",
    "housenumber": "4400",
    "city": "charlotte",
    "postcode": "28210",
    "lat": 35.1520479,
    "lon": -80.8320039
  },
  {
    "street": "sharon road",
    "housenumber": "4400",
    "city": "charlotte",
    "postcode": "28210",
    "lat": 35.1515676,
    "lon": -80.8314905
  },
  {
    "street": "sharon road",
    "housenumber": "4400",
    "city": "charlotte",
    "postcode": "28210",
    "lat": 35.1520171,
    "lon": -80.8318513
  },
  {
    "street": "sharon road",
    "housenumber": "4400",
    "city": "charlotte",
    "postcode": "28210",
    "lat": 35.1521624,
    "lon": -80.8321648
  },
  {
    "street": "sharon road",
    "housenumber": "4400",
    "city": "charlotte",
    "postcode": "28210",
    "lat": 35.1521818,
    "lon": -80.8322438
  },
  {
    "street": "sharon road",
    "housenumber": "4400",
    "city": "charlotte",
    "postcode": "28210",
    "lat": 35.152032,
    "lon": -80.831547
  },
  {
    "street": "sharon road",
    "housenumber": "4400",
    "city": "charlotte",
    "postcode": "28210",
    "lat": 35.1519946,
    "lon": -80.8314356
  },
  {
    "street": "sharon road",
    "housenumber": "4400",
    "city": "charlotte",
    "postcode": "28210",
    "lat": 35.1515889,
    "lon": -80.8333422
  },
  {
    "street": "sharon road",
    "housenumber": "4400",
    "city": "charlotte",
    "postcode": "28210",
    "lat": 35.151563,
    "lon": -80.8332334
  },
  {
    "street": "sharon road",
    "housenumber": "4400",
    "city": "charlotte",
    "postcode": "28210",
    "lat": 35.151382,
    "lon": -80.8333204
  },
  {
    "street": "sharon road",
    "housenumber": "4400",
    "city": "charlotte",
    "postcode": "28210",
    "lat": 35.1513529,
    "lon": -80.8332038
  },
  {
    "street": "sharon road",
    "housenumber": "4400",
    "city": "charlotte",
    "postcode": "28210",
    "lat": 35.1511557,
    "lon": -80.833103
  },
  {
    "street": "sharon road",
    "housenumber": "4400",
    "city": "charlotte",
    "postcode": "28210",
    "lat": 35.1510328,
    "lon": -80.8331445
  },
  {
    "street": "sharon road",
    "housenumber": "4400",
    "city": "charlotte",
    "postcode": "28210",
    "lat": 35.1509051,
    "lon": -80.8331504
  },
  {
    "street": "sharon road",
    "housenumber": "4400",
    "city": "charlotte",
    "postcode": "28210",
    "lat": 35.1508404,
    "lon": -80.8331682
  },
  {
    "street": "sharon road",
    "housenumber": "4400",
    "city": "charlotte",
    "postcode": "28210",
    "lat": 35.1508776,
    "lon": -80.8328598
  },
  {
    "street": "sharon road",
    "housenumber": "4400",
    "city": "charlotte",
    "postcode": "28210",
    "lat": 35.1509908,
    "lon": -80.8328222
  },
  {
    "street": "sharon road",
    "housenumber": "4400",
    "city": "charlotte",
    "postcode": "28210",
    "lat": 35.1510732,
    "lon": -80.8327925
  },
  {
    "street": "sharon road",
    "housenumber": "4400",
    "city": "charlotte",
    "postcode": "28210",
    "lat": 35.1511686,
    "lon": -80.832753
  },
  {
    "street": "sharon road",
    "housenumber": "4400",
    "city": "charlotte",
    "postcode": "28210",
    "lat": 35.1511395,
    "lon": -80.8326383
  },
  {
    "street": "sharon road",
    "housenumber": "4400",
    "city": "charlotte",
    "postcode": "28210",
    "lat": 35.1511169,
    "lon": -80.8325395
  },
  {
    "street": "sharon road",
    "housenumber": "4400",
    "city": "charlotte",
    "postcode": "28210",
    "lat": 35.1510894,
    "lon": -80.8324386
  },
  {
    "street": "Sharon Road",
    "housenumber": "4400",
    "city": "Charlotte",
    "postcode": "28210",
    "lat": 35.1510183,
    "lon": -80.8321836
  },
  {
    "street": "sharon road",
    "housenumber": "4400",
    "city": "charlotte",
    "postcode": "28210",
    "lat": 35.1514079,
    "lon": -80.8324169
  },
  {
    "street": "sharon road",
    "housenumber": "4400",
    "city": "charlotte",
    "postcode": "28210",
    "lat": 35.1525588,
    "lon": -80.8311436
  },
  {
    "street": "sharon road",
    "housenumber": "4400",
    "city": "charlotte",
    "postcode": "28210",
    "lat": 35.1516811,
    "lon": -80.8310606
  },
  {
    "street": "sharon road",
    "housenumber": "4400",
    "city": "charlotte",
    "postcode": "28210",
    "lat": 35.1517489,
    "lon": -80.8314164
  },
  {
    "street": "sharon road",
    "housenumber": "4400",
    "city": "Charlotte",
    "lat": 35.1516358,
    "lon": -80.8314659
  },
  {
    "street": "sharon road",
    "housenumber": "4400",
    "city": "charlotte",
    "postcode": "28210",
    "lat": 35.1516972,
    "lon": -80.8314362
  },
  {
    "street": "sharon road",
    "housenumber": "4400",
    "city": "Charlotte",
    "lat": 35.1515129,
    "lon": -80.8315094
  },
  {
    "street": "sharon road",
    "housenumber": "4400",
    "city": "charlotte",
    "postcode": "28210",
    "lat": 35.1518702,
    "lon": -80.8312978
  },
  {
    "street": "sharon road",
    "housenumber": "4400",
    "city": "charlotte",
    "postcode": "28210",
    "lat": 35.1519284,
    "lon": -80.8313729
  },
  {
    "street": "Sharon Road",
    "housenumber": "4400",
    "city": "Charlotte",
    "postcode": "28211",
    "lat": 35.1518055,
    "lon": -80.8313235
  },
  {
    "street": "Central Avenue",
    "housenumber": "1326",
    "city": "Charlotte",
    "postcode": "28205",
    "lat": 35.2204746,
    "lon": -80.8156436
  },
  {
    "street": "E 15th St",
    "housenumber": "512",
    "city": "Charlotte",
    "postcode": "28206",
    "lat": 35.2326085,
    "lon": -80.8257181
  },
  {
    "street": "Northlake Mall Drive",
    "housenumber": "6801",
    "city": "Charlotte",
    "postcode": "28216",
    "lat": 35.3520622,
    "lon": -80.8510367
  },
  {
    "street": "Northlake Mall Drive",
    "housenumber": "6801",
    "city": "Charlotte",
    "postcode": "28216",
    "lat": 35.352168,
    "lon": -80.8494236
  },
  {
    "street": "Northlake Mall Drive",
    "housenumber": "6801",
    "city": "Charlotte",
    "postcode": "28216",
    "lat": 35.3521962,
    "lon": -80.8495621
  },
  {
    "street": "Metropolitan Avenue",
    "housenumber": "1111",
    "city": "Charlotte",
    "postcode": "28204",
    "lat": 35.2123735,
    "lon": -80.8354657
  },
  {
    "street": "May Street",
    "housenumber": "3208",
    "city": "Charlotte",
    "postcode": "28217",
    "lat": 35.1989706,
    "lon": -80.8766008
  },
  {
    "street": "Caldwell Road",
    "housenumber": "12541",
    "city": "Charlotte",
    "postcode": "28213",
    "lat": 35.2871526,
    "lon": -80.6957356
  },
  {
    "street": "South Boulevard",
    "housenumber": "9531",
    "city": "Charlotte",
    "postcode": "28273",
    "lat": 35.1079122,
    "lon": -80.8787172
  },
  {
    "street": "South Boulevard",
    "housenumber": "9515",
    "city": "Charlotte",
    "postcode": "28273",
    "lat": 35.1061311,
    "lon": -80.8799442
  },
  {
    "street": "South Boulevard",
    "housenumber": "9547",
    "city": "Charlotte",
    "postcode": "28273",
    "lat": 35.1069451,
    "lon": -80.8770973
  },
  {
    "street": "South Boulevard",
    "housenumber": "9535",
    "city": "Charlotte",
    "postcode": "28273",
    "lat": 35.1079549,
    "lon": -80.877491
  },
  {
    "street": "Hawkins Street",
    "housenumber": "2173",
    "city": "Charlotte",
    "postcode": "28203",
    "lat": 35.2085683,
    "lon": -80.8633394
  },
  {
    "street": "Camden Road",
    "housenumber": "1616",
    "city": "Charlotte",
    "postcode": "28203",
    "lat": 35.214013,
    "lon": -80.8578496
  },
  {
    "street": "South Boulevard",
    "housenumber": "1800",
    "city": "Charlotte",
    "postcode": "28203",
    "lat": 35.2118124,
    "lon": -80.8581993
  },
  {
    "street": "South Boulevard",
    "housenumber": "2717",
    "city": "Charlotte",
    "postcode": "28209",
    "lat": 35.200839,
    "lon": -80.8660143
  },
  {
    "street": "South Boulevard",
    "housenumber": "3039",
    "city": "Charlotte",
    "postcode": "28209",
    "lat": 35.1975195,
    "lon": -80.8689996
  },
  {
    "street": "South Boulevard",
    "housenumber": "3039",
    "city": "Charlotte",
    "postcode": "28209",
    "lat": 35.1969891,
    "lon": -80.8690372
  },
  {
    "street": "Arrowpoint Boulevard",
    "housenumber": "9300",
    "city": "Charlotte",
    "lat": 35.1372495,
    "lon": -80.9192253
  },
  {
    "street": "South Tryon Street",
    "housenumber": "9107",
    "city": "Charlotte",
    "postcode": "28273",
    "lat": 35.1342473,
    "lon": -80.9389925
  },
  {
    "street": "South Tryon Street",
    "housenumber": "8943-R",
    "city": "Charlotte",
    "lat": 35.1358847,
    "lon": -80.9374254
  },
  {
    "street": "Carowinds Boulevard",
    "housenumber": "13209",
    "city": "Charlotte",
    "postcode": "28273",
    "lat": 35.1168576,
    "lon": -80.9567505
  },
  {
    "street": "South Tryon Street",
    "housenumber": "10720",
    "city": "Charlotte",
    "postcode": "27283",
    "lat": 35.1195076,
    "lon": -80.9571039
  },
  {
    "street": "John Price Road",
    "housenumber": "10823",
    "city": "Charlotte",
    "postcode": "28273",
    "lat": 35.1189829,
    "lon": -80.957332
  },
  {
    "street": "South Tryon Street",
    "housenumber": "11116",
    "city": "Charlotte",
    "postcode": "28273",
    "lat": 35.1167324,
    "lon": -80.9622895
  },
  {
    "street": "South Tryon Street",
    "housenumber": "11112",
    "city": "Charlotte",
    "postcode": "28273",
    "lat": 35.1167768,
    "lon": -80.9621809
  },
  {
    "street": "Northwoods Forest Drive",
    "housenumber": "10201",
    "city": "Charlotte",
    "postcode": "28214",
    "lat": 35.3046064,
    "lon": -80.9614111
  },
  {
    "street": "South Boulevard",
    "housenumber": "2222",
    "city": "Charlotte",
    "postcode": "28203",
    "lat": 35.206503,
    "lon": -80.8618171
  },
  {
    "street": "South Tryon Street",
    "housenumber": "13129",
    "city": "Charlotte",
    "postcode": "28278",
    "lat": 35.1004799,
    "lon": -80.9921162
  },
  {
    "street": "Park Road",
    "housenumber": "4237",
    "city": "Charlotte",
    "postcode": "28209",
    "lat": 35.1744778,
    "lon": -80.8478266
  },
  {
    "street": "Statesville Avenue",
    "housenumber": "1824",
    "city": "Charlotte",
    "postcode": "28206",
    "lat": 35.2476572,
    "lon": -80.8328623
  },
  {
    "street": "Wilkinson Boulevard",
    "housenumber": "3320",
    "city": "Charlotte",
    "postcode": "28208",
    "lat": 35.2248465,
    "lon": -80.893765
  },
  {
    "street": "sharon road",
    "housenumber": "4400",
    "city": "charlotte",
    "postcode": "28210",
    "lat": 35.1524606,
    "lon": -80.8330554
  },
  {
    "street": "South Kings Drive",
    "housenumber": "601",
    "city": "Charlotte",
    "postcode": "28204",
    "lat": 35.2090995,
    "lon": -80.8355455
  },
  {
    "street": "Providence Road",
    "housenumber": "8020",
    "city": "Charlotte",
    "postcode": "28277",
    "lat": 35.0983062,
    "lon": -80.7809221
  },
  {
    "street": "Providence Road",
    "housenumber": "8046",
    "city": "Charlotte",
    "postcode": "28277",
    "lat": 35.0975332,
    "lon": -80.7786874
  },
  {
    "street": "Providence Road",
    "housenumber": "8120",
    "city": "Charlotte",
    "postcode": "28277-9750",
    "lat": 35.0967405,
    "lon": -80.7804871
  },
  {
    "street": "Rea Road",
    "housenumber": "6432",
    "city": "Piper Glen",
    "postcode": "28277",
    "lat": 35.0781057,
    "lon": -80.8170286
  },
  {
    "street": "Rea Road",
    "housenumber": "6420",
    "city": "Charlotte",
    "postcode": "28277",
    "lat": 35.078507,
    "lon": -80.8183138
  },
  {
    "street": "East Independence Expressway",
    "housenumber": "5622",
    "city": "Charlotte",
    "postcode": "28212",
    "lat": 35.1819196,
    "lon": -80.7563002
  },
  {
    "street": "Arrowpoint Boulevard",
    "housenumber": "9300",
    "city": "Charlotte",
    "lat": 35.1379139,
    "lon": -80.9195321
  },
  {
    "street": "Ikea Boulevard",
    "housenumber": "8150",
    "city": "Charlotte",
    "postcode": "28262",
    "lat": 35.2959898,
    "lon": -80.763479
  },
  {
    "street": "North Tryon Street",
    "housenumber": "7747",
    "city": "Charlotte",
    "postcode": "28262",
    "lat": 35.2947608,
    "lon": -80.7558091
  },
  {
    "street": "University Pointe Boulevard",
    "housenumber": "5700",
    "city": "Charlotte",
    "postcode": "28262",
    "lat": 35.2968115,
    "lon": -80.7568879
  },
  {
    "street": "Tyvola Road",
    "housenumber": "413",
    "city": "Charlotte",
    "postcode": "28217",
    "lat": 35.1634243,
    "lon": -80.8875954
  },
  {
    "street": "Eastway Drive",
    "housenumber": "228",
    "city": "Charlotte",
    "postcode": "28215",
    "lat": 35.2573713,
    "lon": -80.7786559
  },
  {
    "street": "University Executive Park Drive",
    "housenumber": "8301",
    "city": "Charlotte",
    "postcode": "28262",
    "lat": 35.3019345,
    "lon": -80.7550119
  },
  {
    "street": "Arco Corporate Drive",
    "housenumber": "3700",
    "city": "Charlotte",
    "postcode": "28273",
    "lat": 35.1513844,
    "lon": -80.9474119
  },
  {
    "street": "North Graham Street",
    "housenumber": "1701",
    "city": "Charlotte",
    "postcode": "28206",
    "lat": 35.2443834,
    "lon": -80.8326832
  },
  {
    "street": "Forney Court",
    "housenumber": "6015",
    "city": "Charlotte",
    "postcode": "28273",
    "lat": 35.1506929,
    "lon": -80.9726464
  },
  {
    "street": "Blue Sky Lane",
    "housenumber": "6500",
    "city": "Charlotte",
    "postcode": "28269",
    "lat": 35.3816728,
    "lon": -80.7746773
  },
  {
    "street": "University City Boulevard",
    "housenumber": "8640",
    "city": "Charlotte",
    "postcode": "28213",
    "lat": 35.2968373,
    "lon": -80.7375661
  },
  {
    "street": "University City Boulevard",
    "housenumber": "8552",
    "city": "Charlotte",
    "postcode": "28213",
    "lat": 35.2961461,
    "lon": -80.7388606
  },
  {
    "street": "University City Boulevard",
    "housenumber": "8536",
    "city": "Charlotte",
    "postcode": "28213",
    "lat": 35.2959147,
    "lon": -80.7392547
  },
  {
    "street": "State Street",
    "housenumber": "378",
    "city": "Charlotte",
    "lat": 42.55745,
    "lon": -84.8517159
  },
  {
    "street": "J M Keynes Drive",
    "housenumber": "8925",
    "city": "Charlotte",
    "postcode": "28262",
    "lat": 35.3091159,
    "lon": -80.7476858
  },
  {
    "street": "J M Keynes Drive",
    "housenumber": "8926",
    "city": "Charlotte",
    "postcode": "28262",
    "lat": 35.3090139,
    "lon": -80.7477779
  },
  {
    "street": "J M Keynes Drive",
    "housenumber": "8927",
    "city": "Charlotte",
    "postcode": "28262",
    "lat": 35.3090975,
    "lon": -80.7493277
  },
  {
    "street": "J M Keynes Drive",
    "housenumber": "8927",
    "city": "Charlotte",
    "postcode": "28262",
    "lat": 35.3098347,
    "lon": -80.7493179
  },
  {
    "street": "East W T Harris Boulevard",
    "housenumber": "101",
    "city": "Charlotte",
    "postcode": "28262",
    "lat": 35.3051997,
    "lon": -80.7479814
  },
  {
    "street": "East McCullough Drive",
    "housenumber": "350",
    "city": "Charlotte",
    "postcode": "28262",
    "lat": 35.301815,
    "lon": -80.7491882
  },
  {
    "street": "South McDowell Street",
    "housenumber": "301",
    "city": "Charlotte",
    "postcode": "28204",
    "lat": 35.2181425,
    "lon": -80.8374415
  },
  {
    "street": "Park Road",
    "housenumber": "4012",
    "city": "Charlotte",
    "postcode": "28209",
    "lat": 35.1756575,
    "lon": -80.8514264
  },
  {
    "street": "The Plaza",
    "housenumber": "2902",
    "city": "Charlotte",
    "postcode": "28205",
    "lat": 35.2370221,
    "lon": -80.8007721
  },
  {
    "street": "Statesville Avenue",
    "housenumber": "3807",
    "city": "Charlotte",
    "postcode": "28206",
    "lat": 35.270406,
    "lon": -80.8378399
  },
  {
    "street": "Statesville Avenue",
    "housenumber": "3807",
    "city": "Charlotte",
    "postcode": "28206",
    "lat": 35.2703827,
    "lon": -80.8380502
  },
  {
    "street": "Statesville Road",
    "housenumber": "4601",
    "city": "Charlotte",
    "postcode": "28269",
    "lat": 35.2833699,
    "lon": -80.8354775
  },
  {
    "street": "South Boulevard",
    "housenumber": "2725",
    "city": "Charlotte",
    "postcode": "28209",
    "lat": 35.2001835,
    "lon": -80.866423
  },
  {
    "street": "Mount Holly-huntersville Road",
    "housenumber": "3530",
    "city": "Charlotte",
    "postcode": "28216",
    "lat": 35.3233442,
    "lon": -80.9461933
  },
  {
    "street": "East Independence Expressway",
    "housenumber": "5704",
    "city": "Charlotte",
    "postcode": "28212",
    "lat": 35.1811095,
    "lon": -80.755559
  },
  {
    "street": "East Boulevard",
    "housenumber": "1409",
    "city": "Charlotte",
    "postcode": "28203",
    "lat": 35.2011789,
    "lon": -80.842985
  },
  {
    "street": "East 36th Street",
    "housenumber": "501",
    "city": "Charlotte",
    "lat": 35.2476807,
    "lon": -80.8042851
  },
  {
    "street": "East Park Avenue",
    "housenumber": "128",
    "city": "Charlotte",
    "postcode": "28203",
    "lat": 35.2138866,
    "lon": -80.85615
  },
  {
    "street": "Elizabeth Avenue",
    "housenumber": "1530",
    "city": "Charlotte",
    "postcode": "28204",
    "lat": 35.21388,
    "lon": -80.827141
  },
  {
    "street": "West Wt Harris Boulevard",
    "housenumber": "3716",
    "city": "Charlotte",
    "postcode": "28269",
    "lat": 35.334723,
    "lon": -80.7942833
  },
  {
    "street": "West Wt Harris Boulevard",
    "housenumber": "3716",
    "city": "Charlotte",
    "postcode": "28269",
    "lat": 35.3347289,
    "lon": -80.7944582
  },
  {
    "street": "Johnston Road",
    "housenumber": "12194",
    "city": "Charlotte",
    "postcode": "28277",
    "lat": 35.0722542,
    "lon": -80.8424471
  },
  {
    "street": "West Worthington Avenue",
    "housenumber": "101",
    "city": "Charlotte",
    "postcode": "28203",
    "lat": 35.2117739,
    "lon": -80.8603349
  },
  {
    "street": "Camden Road",
    "housenumber": "1800",
    "city": "Charlotte",
    "postcode": "28203",
    "lat": 35.2126435,
    "lon": -80.8593854
  },
  {
    "street": "Ibm Drive",
    "housenumber": "8505",
    "city": "Charlotte",
    "postcode": "28262",
    "lat": 35.308618,
    "lon": -80.7682425
  },
  {
    "street": "IBM Drive",
    "housenumber": "8501",
    "city": "Charlotte",
    "postcode": "28262",
    "lat": 35.3085037,
    "lon": -80.7701511
  },
  {
    "street": "East Independence Boulevard",
    "housenumber": "6432",
    "city": "Charlotte",
    "postcode": "28212",
    "lat": 35.1721963,
    "lon": -80.746691
  },
  {
    "street": "East Independence Boulevard",
    "housenumber": "6600",
    "city": "Charlotte",
    "postcode": "28212",
    "lat": 35.1709744,
    "lon": -80.7455971
  },
  {
    "street": "El Verano Circle",
    "housenumber": "2101",
    "city": "Charlotte",
    "postcode": "28210",
    "lat": 35.1264578,
    "lon": -80.8717711
  },
  {
    "street": "Mount Philo Road",
    "housenumber": "2766",
    "city": "Charlotte",
    "postcode": "05445",
    "lat": 44.3162678,
    "lon": -73.2240983
  },
  {
    "street": "Glenwood Drive",
    "housenumber": "4127",
    "city": "Charlotte",
    "postcode": "28208",
    "lat": 35.2531784,
    "lon": -80.8884167
  },
  {
    "street": "Andrew Carnegie Boulevard",
    "housenumber": "8500",
    "city": "Charlotte",
    "postcode": "28262",
    "lat": 35.3234284,
    "lon": -80.7514919
  },
  {
    "street": "North Tryon Street",
    "housenumber": "5736",
    "city": "Charlotte",
    "postcode": "28213",
    "lat": 35.2641176,
    "lon": -80.7695831
  },
  {
    "street": "West Morehead Street",
    "housenumber": "1601",
    "city": "Charlotte",
    "postcode": "28208",
    "lat": 35.2286336,
    "lon": -80.8670726
  },
  {
    "street": "Wilkinson Boulevard",
    "housenumber": "5104",
    "city": "Charlotte",
    "lat": 35.2326537,
    "lon": -80.9241293
  },
  {
    "street": "Baxter Street",
    "housenumber": "1300",
    "city": "Charlotte",
    "postcode": "28204",
    "lat": 35.2104155,
    "lon": -80.8355158
  },
  {
    "street": "Queens Road",
    "housenumber": "438",
    "city": "Charlotte",
    "postcode": "28207",
    "lat": 35.2075263,
    "lon": -80.8279639
  },
  {
    "street": "East Lansing Road",
    "housenumber": "503",
    "city": "Charlotte",
    "postcode": "48813",
    "lat": 42.5703781,
    "lon": -84.8258634
  },
  {
    "street": "Lansing Road",
    "housenumber": "310",
    "city": "Charlotte",
    "postcode": "48813",
    "lat": 42.5681395,
    "lon": -84.8269944
  },
  {
    "street": "Lansing Road",
    "housenumber": "222",
    "city": "Charlotte",
    "postcode": "48813",
    "lat": 42.5671308,
    "lon": -84.8278339
  },
  {
    "street": "Lansing Road",
    "housenumber": "214",
    "city": "Charlotte",
    "postcode": "48813",
    "lat": 42.5663727,
    "lon": -84.8286821
  },
  {
    "street": "East Trade Street",
    "housenumber": "220",
    "city": "Charlotte",
    "postcode": "28202",
    "lat": 35.2257161,
    "lon": -80.8409032
  },
  {
    "street": "The Plaza",
    "housenumber": "7401",
    "city": "Charlotte",
    "postcode": "28215",
    "lat": 35.258759,
    "lon": -80.7343062
  },
  {
    "street": "N Tryon St",
    "housenumber": "5015",
    "city": "Charlotte",
    "postcode": "28213",
    "lat": 35.2584791,
    "lon": -80.7827995
  },
  {
    "street": "Sharon Road",
    "housenumber": "4717-1B",
    "city": "Charlotte",
    "postcode": "28211",
    "lat": 35.1475487,
    "lon": -80.830804
  },
  {
    "street": "Washburn Avenue",
    "housenumber": "3325",
    "city": "Charlotte",
    "postcode": "28205",
    "lat": 35.2038052,
    "lon": -80.7996167
  },
  {
    "street": "South Boulevard",
    "housenumber": "9523",
    "city": "Charlotte",
    "postcode": "28273",
    "lat": 35.108761,
    "lon": -80.8799092
  },
  {
    "street": "J M Keynes Drive",
    "housenumber": "9009",
    "city": "Charlotte",
    "postcode": "28262",
    "lat": 35.3105409,
    "lon": -80.7483946
  },
  {
    "street": "sharon road",
    "housenumber": "4400",
    "city": "charlotte",
    "postcode": "28211",
    "lat": 35.1532471,
    "lon": -80.8330609
  },
  {
    "street": "Yorkmont Road",
    "housenumber": "2901",
    "city": "Charlotte",
    "postcode": "28208",
    "lat": 35.1898433,
    "lon": -80.9298255
  },
  {
    "street": "Yorkmont Road",
    "housenumber": "2904",
    "city": "Charlotte",
    "postcode": "28208",
    "lat": 35.19027,
    "lon": -80.928623
  },
  {
    "street": "North Graham Street",
    "housenumber": "516",
    "city": "Charlotte",
    "postcode": "28202",
    "lat": 35.2340551,
    "lon": -80.8418634
  },
  {
    "street": "Arlington Avenue",
    "housenumber": "325",
    "city": "Charlotte",
    "postcode": "28203",
    "lat": 35.2168455,
    "lon": -80.8521736
  },
  {
    "street": "Camp Road",
    "housenumber": "300",
    "city": "Charlotte",
    "postcode": "28206",
    "lat": 35.2463974,
    "lon": -80.833506
  },
  {
    "street": "Josh Birmingham Parkway",
    "housenumber": "5501",
    "city": "Charlotte",
    "postcode": "28208",
    "lat": 35.2225021,
    "lon": -80.9467337
  },
  {
    "street": "West Hill Street",
    "housenumber": "809",
    "city": "Charlotte",
    "postcode": "28208",
    "lat": 35.2279508,
    "lon": -80.8568342
  },
  {
    "street": "Ferry Road",
    "housenumber": "818",
    "city": "Charlotte",
    "postcode": "05445",
    "lat": 44.3109438,
    "lon": -73.2610988
  },
  {
    "street": "Little Rock Road",
    "housenumber": "2504",
    "city": "Charlotte",
    "postcode": "28214",
    "lat": 35.2460228,
    "lon": -80.9380268
  },
  {
    "street": "South Mint Street #106",
    "housenumber": "1430",
    "city": "Charlotte",
    "postcode": "28203",
    "lat": 35.2196714,
    "lon": -80.8603345
  },
  {
    "street": "S Sharon Amity Rd",
    "housenumber": "415",
    "city": "Charlotte",
    "postcode": "28211",
    "lat": 35.1733796,
    "lon": -80.8033412
  },
  {
    "street": "N Wendover Road",
    "housenumber": "435",
    "city": "Charlotte",
    "postcode": "28211",
    "lat": 35.1900007,
    "lon": -80.8052985
  },
  {
    "street": "New Fashion Way",
    "housenumber": "5506",
    "city": "Charlotte",
    "postcode": "28278",
    "lat": 35.1705241,
    "lon": -80.9711329
  },
  {
    "street": "Ballancroft Parkway",
    "housenumber": "15127",
    "city": "Charlotte",
    "postcode": "28277",
    "lat": 35.039801,
    "lon": -80.8467591
  },
  {
    "street": "Camp Road",
    "housenumber": "301",
    "city": "Charlotte",
    "postcode": "28206",
    "lat": 35.2460731,
    "lon": -80.8338912
  },
  {
    "street": "Camp Road",
    "housenumber": "301",
    "city": "Charlotte",
    "postcode": "28206",
    "lat": 35.2461853,
    "lon": -80.834073
  },
  {
    "street": "South Tryon Street",
    "housenumber": "11108",
    "city": "Charlotte",
    "postcode": "28273",
    "lat": 35.1173196,
    "lon": -80.9613486
  },
  {
    "street": "East Trade Street",
    "housenumber": "210",
    "city": "Charlotte",
    "postcode": "28202",
    "lat": 35.2255009,
    "lon": -80.8420447
  },
  {
    "street": "Old Pineville Road",
    "housenumber": "6260",
    "city": "Charlotte",
    "postcode": "28217",
    "lat": 35.1543236,
    "lon": -80.8781991
  },
  {
    "street": "Baxter Street",
    "housenumber": "1300",
    "city": "Charlotte",
    "lat": 35.2104003,
    "lon": -80.8354163
  },
  {
    "street": "Lancaster Highway",
    "housenumber": "16131",
    "city": "Charlotte",
    "postcode": "28277",
    "lat": 35.0284474,
    "lon": -80.8510389
  },
  {
    "street": "South College Street",
    "housenumber": "501",
    "city": "Charlotte",
    "postcode": "28202",
    "lat": 35.2222397,
    "lon": -80.8451394
  },
  {
    "street": "South College Street",
    "housenumber": "501",
    "city": "Charlotte",
    "postcode": "28202",
    "lat": 35.222129,
    "lon": -80.845008
  },
  {
    "street": "South College Street",
    "housenumber": "501",
    "city": "Charlotte",
    "postcode": "28202",
    "lat": 35.2220436,
    "lon": -80.8449075
  },
  {
    "street": "Albemarle Road",
    "housenumber": "6424",
    "city": "Charlotte",
    "postcode": "28212",
    "lat": 35.2025194,
    "lon": -80.735302
  },
  {
    "street": "Albemarle Road",
    "housenumber": "6512",
    "city": "Charlotte",
    "postcode": "28212",
    "lat": 35.2024257,
    "lon": -80.7339467
  },
  {
    "street": "West 10th Street",
    "housenumber": "514",
    "city": "Charlotte",
    "postcode": "28202",
    "lat": 35.2358708,
    "lon": -80.8410614
  },
  {
    "street": "West 10th Street",
    "housenumber": "528",
    "city": "Charlotte",
    "postcode": "28202",
    "lat": 35.2359327,
    "lon": -80.8411045
  },
  {
    "street": "South Cochran Avenue",
    "housenumber": "214",
    "city": "Charlotte",
    "lat": 42.5619413,
    "lon": -84.8361191
  },
  {
    "street": "Ballantyne Village Way",
    "housenumber": "14825",
    "city": "Charlotte",
    "postcode": "28277",
    "lat": 35.054139,
    "lon": -80.8522732
  },
  {
    "street": "University City Boulevard",
    "housenumber": "10900",
    "city": "Charlotte",
    "postcode": "28213",
    "lat": 35.314341,
    "lon": -80.7022143
  },
  {
    "street": "University City Boulevard",
    "housenumber": "9510",
    "city": "Charlotte",
    "postcode": "28213",
    "lat": 35.3056859,
    "lon": -80.7235393
  },
  {
    "street": "University City Boulevard",
    "housenumber": "9510",
    "city": "Charlotte",
    "postcode": "28213",
    "lat": 35.3057634,
    "lon": -80.7234596
  },
  {
    "street": "University City Boulevard",
    "housenumber": "9608",
    "city": "Charlotte",
    "postcode": "28213",
    "lat": 35.3067601,
    "lon": -80.7219326
  },
  {
    "street": "University City Boulevard",
    "housenumber": "9630",
    "city": "Charlotte",
    "postcode": "28213",
    "lat": 35.3073275,
    "lon": -80.7207789
  },
  {
    "street": "Statesville Avenue",
    "housenumber": "1824",
    "city": "Charlotte",
    "postcode": "28206",
    "lat": 35.2476044,
    "lon": -80.8323298
  },
  {
    "street": "Statesville Ave",
    "housenumber": "1824",
    "city": "Charlotte",
    "postcode": "28206",
    "lat": 35.2476159,
    "lon": -80.8324257
  },
  {
    "street": "University City Boulevard",
    "housenumber": "6925",
    "city": "Charlotte",
    "postcode": "28262",
    "lat": 35.2905144,
    "lon": -80.7659013
  },
  {
    "street": "University City Boulevard",
    "housenumber": "6925",
    "city": "Charlotte",
    "postcode": "28262",
    "lat": 35.2904028,
    "lon": -80.7653756
  },
  {
    "street": "University City Boulevard",
    "housenumber": "9620",
    "city": "Charlotte",
    "postcode": "28213",
    "lat": 35.3062543,
    "lon": -80.721781
  },
  {
    "street": "Lamar Avenue",
    "housenumber": "830",
    "city": "Charlotte",
    "postcode": "28204",
    "lat": 35.2205734,
    "lon": -80.8169848
  },
  {
    "street": "East 7th Street",
    "housenumber": "224",
    "city": "Charlotte",
    "postcode": "28202",
    "lat": 35.2275039,
    "lon": -80.838117
  },
  {
    "street": "Colwick Road",
    "housenumber": "4390",
    "city": "Charlotte",
    "postcode": "28211",
    "lat": 35.1771891,
    "lon": -80.7983078
  },
  {
    "street": "Providence Road",
    "housenumber": "8035",
    "city": "Charlotte",
    "postcode": "28277",
    "lat": 35.0988743,
    "lon": -80.7762787
  },
  {
    "street": "East Clinton Trail",
    "housenumber": "1085",
    "city": "Charlotte",
    "postcode": "48813",
    "lat": 42.5535957,
    "lon": -84.8156764
  },
  {
    "street": "Little Rock Road",
    "housenumber": "2504",
    "city": "Charlotte",
    "postcode": "28214",
    "lat": 35.2459619,
    "lon": -80.9380445
  },
  {
    "street": "Carrowinds Boulevard",
    "housenumber": "14523",
    "city": "Charlotte",
    "postcode": "28273",
    "lat": 35.1041748,
    "lon": -80.9404337
  },
  {
    "street": "West Sugar Creek Road",
    "housenumber": "2806",
    "city": "Charlotte",
    "postcode": "28262",
    "lat": 35.3018793,
    "lon": -80.8013486
  },
  {
    "street": "West Sugar Creek Road",
    "housenumber": "2810",
    "city": "Charlotte",
    "postcode": "28262",
    "lat": 35.3018461,
    "lon": -80.8015291
  },
  {
    "street": "West Sugar Creek Road",
    "housenumber": "2818",
    "city": "Charlotte",
    "postcode": "28262",
    "lat": 35.3018001,
    "lon": -80.8018899
  },
  {
    "street": "West Sugar Creek Road",
    "housenumber": "2807",
    "city": "Charlotte",
    "postcode": "28269",
    "lat": 35.3001267,
    "lon": -80.802079
  },
  {
    "street": "West Sugar Creek Road",
    "housenumber": "2813",
    "city": "Charlotte",
    "postcode": "28269",
    "lat": 35.3003401,
    "lon": -80.8022766
  },
  {
    "street": "North Graham Street",
    "housenumber": "309",
    "city": "Charlotte",
    "lat": 35.2327905,
    "lon": -80.8442939
  },
  {
    "street": "South Tryon Street",
    "housenumber": "3100",
    "city": "Charlotte",
    "postcode": "28217",
    "lat": 35.2002172,
    "lon": -80.8742847
  },
  {
    "street": "South Tryon Street",
    "housenumber": "3501",
    "city": "Charlotte",
    "postcode": "28217",
    "lat": 35.1953827,
    "lon": -80.8770065
  },
  {
    "street": "South Tryon Street",
    "housenumber": "9033",
    "city": "Charlotte",
    "postcode": "28273",
    "lat": 35.1346624,
    "lon": -80.9387451
  },
  {
    "street": "South Tryon Street",
    "housenumber": "9100",
    "city": "Charlotte",
    "postcode": "28273",
    "lat": 35.1347261,
    "lon": -80.9403785
  },
  {
    "street": "Freedom Drive",
    "housenumber": "2701",
    "city": "Charlotte",
    "postcode": "28208",
    "lat": 35.237016,
    "lon": -80.8858425
  },
  {
    "street": "Freedom Drive",
    "housenumber": "2701",
    "city": "Charlotte",
    "postcode": "28208",
    "lat": 35.2367563,
    "lon": -80.8854576
  },
  {
    "street": "South Boulevard",
    "housenumber": "1501",
    "city": "Charlotte",
    "postcode": "28203",
    "lat": 35.2141684,
    "lon": -80.8545533
  },
  {
    "street": "North Caldwell Street",
    "housenumber": "321",
    "city": "Charlotte",
    "lat": 35.2261341,
    "lon": -80.8360898
  },
  {
    "street": "North Tryon Street",
    "housenumber": "4050",
    "city": "Charlotte",
    "postcode": "28206",
    "lat": 35.256581,
    "lon": -80.7971833
  },
  {
    "street": "East W T Harris Boulevard",
    "housenumber": "230",
    "city": "Charlotte",
    "postcode": "28262",
    "lat": 35.3042293,
    "lon": -80.7500084
  },
  {
    "street": "J. M. Keynes Drive",
    "housenumber": "8944",
    "city": "Charlotte",
    "postcode": "28262",
    "lat": 35.3101498,
    "lon": -80.746702
  },
  {
    "street": "Tyvola Road",
    "housenumber": "624",
    "city": "Charlotte",
    "postcode": "28217",
    "lat": 35.163648,
    "lon": -80.8849177
  },
  {
    "street": "Josh Birmingham Parkway",
    "housenumber": "5489",
    "city": "Charlotte",
    "postcode": "28208",
    "lat": 35.2215355,
    "lon": -80.9444415
  },
  {
    "street": "Josh Birmingham Parkway",
    "housenumber": "5489",
    "city": "Charlotte",
    "postcode": "28208",
    "lat": 35.2215413,
    "lon": -80.9443586
  },
  {
    "street": "Josh Birmingham Parkway",
    "housenumber": "5489",
    "city": "Charlotte",
    "postcode": "28208",
    "lat": 35.2215455,
    "lon": -80.9442768
  },
  {
    "street": "Josh Birmingham Parkway",
    "housenumber": "5489",
    "city": "Charlotte",
    "postcode": "28208",
    "lat": 35.221554,
    "lon": -80.9440849
  },
  {
    "street": "Josh Birmingham Parkway",
    "housenumber": "5489",
    "city": "Charlotte",
    "postcode": "28208",
    "lat": 35.2215582,
    "lon": -80.9439941
  },
  {
    "street": "Josh Birmingham Parkway",
    "housenumber": "5489",
    "city": "Charlotte",
    "postcode": "28208",
    "lat": 35.2215622,
    "lon": -80.9439068
  },
  {
    "street": "Josh Birmingham Parkway",
    "housenumber": "5489",
    "city": "Charlotte",
    "postcode": "28208",
    "lat": 35.2215667,
    "lon": -80.9438162
  },
  {
    "street": "Josh Birmingham Parkway",
    "housenumber": "5489",
    "city": "Charlotte",
    "postcode": "28208",
    "lat": 35.2215502,
    "lon": -80.9441861
  },
  {
    "street": "RC Josh Birmingham Parkway",
    "housenumber": "5501",
    "city": "Charlotte",
    "postcode": "28208",
    "lat": 35.220454,
    "lon": -80.9462639
  },
  {
    "street": "Tipton Drive",
    "housenumber": "2330",
    "city": "Charlotte",
    "postcode": "28206",
    "lat": 35.2711941,
    "lon": -80.8428755
  },
  {
    "street": "Tipton Drive",
    "housenumber": "2330",
    "city": "Charlotte",
    "postcode": "28206",
    "lat": 35.2709393,
    "lon": -80.8432411
  },
  {
    "street": "Camp Road",
    "housenumber": "301",
    "city": "Charlotte",
    "postcode": "28206",
    "lat": 35.2458715,
    "lon": -80.833598
  },
  {
    "street": "Camp Road",
    "housenumber": "301",
    "city": "Charlotte",
    "postcode": "28206",
    "lat": 35.2459838,
    "lon": -80.833776
  },
  {
    "street": "West Tyvola Road",
    "housenumber": "2220",
    "city": "Charlotte",
    "postcode": "28217",
    "lat": 35.1814576,
    "lon": -80.913743
  },
  {
    "street": "West Tyvola Road",
    "housenumber": "2220",
    "city": "Charlotte",
    "postcode": "28217",
    "lat": 35.1816602,
    "lon": -80.9141472
  },
  {
    "street": "Potomac River Parkway",
    "housenumber": "3320",
    "city": "Charlotte",
    "postcode": "28217",
    "lat": 35.1815218,
    "lon": -80.9155627
  },
  {
    "street": "North Church Street",
    "housenumber": "834",
    "city": "Charlotte",
    "postcode": "28206",
    "lat": 35.2341835,
    "lon": -80.835114
  },
  {
    "street": "North Tryon Street",
    "housenumber": "901",
    "city": "Charlotte",
    "postcode": "28206",
    "lat": 35.2338545,
    "lon": -80.8346147
  },
  {
    "street": "North Tryon Street",
    "housenumber": "901",
    "city": "Charlotte",
    "postcode": "28206",
    "lat": 35.2335836,
    "lon": -80.8344367
  },
  {
    "street": "North Graham Street",
    "housenumber": "2050",
    "city": "Charlotte",
    "postcode": "28206",
    "lat": 35.2471716,
    "lon": -80.8292532
  },
  {
    "street": "Bancroft Street",
    "housenumber": "1941",
    "city": "Charlotte",
    "postcode": "28206",
    "lat": 35.2460782,
    "lon": -80.8283403
  },
  {
    "street": "Camp Road",
    "housenumber": "301",
    "city": "Charlotte",
    "postcode": "28206",
    "lat": 35.2459264,
    "lon": -80.8336928
  },
  {
    "street": "North Tryon Street",
    "housenumber": "100",
    "city": "Charlotte",
    "postcode": "28202",
    "lat": 35.2274294,
    "lon": -80.8422014
  },
  {
    "street": "West Trade Street",
    "housenumber": "801",
    "city": "Charlotte",
    "postcode": "28202",
    "lat": 35.2334208,
    "lon": -80.8502056
  },
  {
    "street": "Levine Avenue of the Arts",
    "housenumber": "135",
    "city": "Charlotte",
    "postcode": "28202",
    "lat": 35.22487,
    "lon": -80.8485584
  },
  {
    "street": "East Park Avenue",
    "housenumber": "211",
    "city": "Charlotte",
    "postcode": "28203",
    "lat": 35.2133487,
    "lon": -80.8549175
  },
  {
    "street": "East Park Avenue",
    "housenumber": "215",
    "city": "Charlotte",
    "postcode": "28203",
    "lat": 35.2133216,
    "lon": -80.8548748
  },
  {
    "street": "East Park Avenue",
    "housenumber": "223",
    "city": "Charlotte",
    "postcode": "28203",
    "lat": 35.2132551,
    "lon": -80.854781
  },
  {
    "street": "East Park Avenue",
    "housenumber": "227",
    "city": "Charlotte",
    "postcode": "28203",
    "lat": 35.2132226,
    "lon": -80.854726
  },
  {
    "street": "East Park Avenue",
    "housenumber": "231",
    "city": "Charlotte",
    "postcode": "28203",
    "lat": 35.2131955,
    "lon": -80.8546843
  },
  {
    "street": "East Park Avenue",
    "housenumber": "235",
    "city": "Charlotte",
    "postcode": "28203",
    "lat": 35.213166,
    "lon": -80.8546369
  },
  {
    "street": "East Park Avenue",
    "housenumber": "239",
    "city": "Charlotte",
    "postcode": "28203",
    "lat": 35.2131366,
    "lon": -80.8546008
  },
  {
    "street": "East Park Avenue",
    "housenumber": "251",
    "city": "Charlotte",
    "postcode": "28203",
    "lat": 35.2130072,
    "lon": -80.8544576
  },
  {
    "street": "East Park Avenue",
    "housenumber": "247",
    "city": "Charlotte",
    "postcode": "28203",
    "lat": 35.2130444,
    "lon": -80.8545088
  },
  {
    "street": "East Park Avenue",
    "housenumber": "219",
    "city": "Charlotte",
    "postcode": "28203",
    "lat": 35.2132854,
    "lon": -80.8548322
  },
  {
    "street": "East Park Avenue",
    "housenumber": "243",
    "city": "Charlotte",
    "postcode": "28203",
    "lat": 35.2131017,
    "lon": -80.8545514
  },
  {
    "street": "Providence Road",
    "housenumber": "8022",
    "city": "Charlotte",
    "lat": 35.0981038,
    "lon": -80.7800986
  },
  {
    "street": "The Plaza",
    "housenumber": "1204",
    "city": "Charlotte",
    "postcode": "28205",
    "lat": 35.2183787,
    "lon": -80.8106179
  },
  {
    "street": "Rea Road",
    "housenumber": "6418",
    "city": "Charlotte",
    "postcode": "28277",
    "lat": 35.0787316,
    "lon": -80.8178677
  },
  {
    "street": "Pressley Road",
    "housenumber": "900",
    "city": "Charlotte",
    "postcode": "28217",
    "lat": 35.1904796,
    "lon": -80.8934921
  },
  {
    "street": "Camp Road",
    "housenumber": "270",
    "city": "Charlotte",
    "postcode": "28206",
    "lat": 35.2463566,
    "lon": -80.8331484
  },
  {
    "street": "North Graham Street",
    "housenumber": "1801",
    "city": "Charlotte",
    "postcode": "28206",
    "lat": 35.2453725,
    "lon": -80.8323553
  },
  {
    "street": "North Graham Street",
    "housenumber": "1801",
    "city": "Charlotte",
    "postcode": "28206",
    "lat": 35.2452717,
    "lon": -80.8321917
  },
  {
    "street": "North Graham Street",
    "housenumber": "1701",
    "city": "Charlotte",
    "postcode": "28206",
    "lat": 35.245092,
    "lon": -80.8323529
  },
  {
    "street": "Riverbend Village Drive",
    "housenumber": "9515",
    "city": "Charlotte",
    "postcode": "28216",
    "lat": 35.3267376,
    "lon": -80.9422437
  },
  {
    "street": "Riverbend Village Drive",
    "housenumber": "9511",
    "city": "Charlotte",
    "postcode": "28216",
    "lat": 35.3262772,
    "lon": -80.9415185
  },
  {
    "street": "Corning Place",
    "housenumber": "4009",
    "city": "Charlotte",
    "postcode": "28216",
    "lat": 35.3286233,
    "lon": -80.9415809
  },
  {
    "street": "Corning Place",
    "housenumber": "4009",
    "city": "Charlotte",
    "postcode": "28216",
    "lat": 35.328689,
    "lon": -80.9415116
  },
  {
    "street": "Northlake Centre Parkway",
    "housenumber": "9821",
    "city": "Charlotte",
    "postcode": "28216",
    "lat": 35.3493085,
    "lon": -80.857647
  },
  {
    "street": "Northlake Centre Parkway",
    "housenumber": "9821",
    "city": "Charlotte",
    "postcode": "28216",
    "lat": 35.3492166,
    "lon": -80.8576685
  },
  {
    "street": "Northlake West Drive",
    "housenumber": "9402",
    "city": "Charlotte",
    "postcode": "28216",
    "lat": 35.346833,
    "lon": -80.8606444
  },
  {
    "street": "Northlake West Drive",
    "housenumber": "9304",
    "city": "Charlotte",
    "postcode": "28216",
    "lat": 35.346592,
    "lon": -80.8597048
  },
  {
    "street": "Northlake w Dr",
    "housenumber": "9304",
    "city": "Charlotte",
    "postcode": "28216",
    "lat": 35.3465674,
    "lon": -80.8595172
  },
  {
    "street": "Northlake Centre Parkway",
    "housenumber": "9739",
    "city": "Charlotte",
    "postcode": "28216",
    "lat": 35.3481216,
    "lon": -80.8591347
  },
  {
    "street": "Northlake Centre Parkway",
    "housenumber": "9717",
    "city": "Charlotte",
    "postcode": "28216",
    "lat": 35.3476553,
    "lon": -80.8592563
  },
  {
    "street": "Northlake Centre Parkway",
    "housenumber": "9717",
    "city": "Charlotte",
    "postcode": "28216",
    "lat": 35.3478049,
    "lon": -80.8598774
  },
  {
    "street": "Northlake Centre Parkway",
    "housenumber": "9821",
    "city": "Charlotte",
    "postcode": "28216",
    "lat": 35.3487966,
    "lon": -80.8578321
  },
  {
    "street": "East McCullough Drive",
    "housenumber": "440",
    "city": "Charlotte",
    "postcode": "28262",
    "lat": 35.3018679,
    "lon": -80.7476252
  },
  {
    "street": "East McCullough Drive",
    "housenumber": "440",
    "city": "Charlotte",
    "postcode": "28262",
    "lat": 35.3021857,
    "lon": -80.7477455
  },
  {
    "street": "Smith Corners Boulevard",
    "housenumber": "7240",
    "city": "Charlotte",
    "postcode": "28269",
    "lat": 35.351241,
    "lon": -80.8417201
  },
  {
    "street": "Smith Corners Boulevard",
    "housenumber": "7010",
    "city": "Charlotte",
    "postcode": "28269",
    "lat": 35.349966,
    "lon": -80.8430374
  },
  {
    "street": "South Boulevard",
    "housenumber": "5245",
    "city": "Charlotte",
    "postcode": "28217",
    "lat": 35.1629866,
    "lon": -80.8751709
  },
  {
    "street": "South Boulevard",
    "housenumber": "5331",
    "city": "Charlotte",
    "postcode": "28217",
    "lat": 35.1637643,
    "lon": -80.8751989
  },
  {
    "street": "South Boulevard",
    "housenumber": "5335",
    "city": "Charlotte",
    "postcode": "28217",
    "lat": 35.1634254,
    "lon": -80.875201
  },
  {
    "street": "South Boulevard",
    "housenumber": "5335",
    "city": "Charlotte",
    "postcode": "28217",
    "lat": 35.1632942,
    "lon": -80.875211
  },
  {
    "street": "South Boulevard",
    "housenumber": "5401",
    "city": "Charlotte",
    "postcode": "28217",
    "lat": 35.1626913,
    "lon": -80.875201
  },
  {
    "street": "South Boulevard",
    "housenumber": "5407",
    "city": "Charlotte",
    "postcode": "28217",
    "lat": 35.1625453,
    "lon": -80.8752387
  },
  {
    "street": "South Boulevard",
    "housenumber": "5409",
    "city": "Charlotte",
    "postcode": "28217",
    "lat": 35.1617111,
    "lon": -80.875196
  },
  {
    "street": "South Boulevard",
    "housenumber": "5335",
    "city": "Charlotte",
    "postcode": "28217",
    "lat": 35.1622279,
    "lon": -80.8752462
  },
  {
    "street": "South Boulevard",
    "housenumber": "5335",
    "city": "Charlotte",
    "postcode": "28217",
    "lat": 35.1623714,
    "lon": -80.8752462
  },
  {
    "street": "South Boulevard",
    "housenumber": "5335",
    "city": "Charlotte",
    "postcode": "28217",
    "lat": 35.1624985,
    "lon": -80.875211
  },
  {
    "street": "Station Road",
    "housenumber": "1186",
    "city": "Charlotte",
    "lat": 45.0161325,
    "lon": -67.22675
  },
  {
    "street": "Ayers Junction Road",
    "housenumber": "1257",
    "city": "Charlotte",
    "lat": 45.020983,
    "lon": -67.29943
  },
  {
    "street": "Oscar Brown Lane",
    "housenumber": "17",
    "city": "Charlotte",
    "lat": 45.026438,
    "lon": -67.2629453
  },
  {
    "street": "Ayers Junction Road",
    "housenumber": "1036",
    "city": "Charlotte",
    "lat": 45.0007927,
    "lon": -67.2662773
  },
  {
    "street": "Sherrard Lane",
    "housenumber": "20",
    "city": "Charlotte",
    "lat": 45.0141859,
    "lon": -67.283742
  },
  {
    "street": "Ayers Junction Road",
    "housenumber": "1029",
    "city": "Charlotte",
    "lat": 45.0005324,
    "lon": -67.2651432
  },
  {
    "street": "Ayers Junction Road",
    "housenumber": "1060",
    "city": "Charlotte",
    "lat": 45.0025848,
    "lon": -67.2698838
  },
  {
    "street": "Station Road",
    "housenumber": "1322",
    "city": "Charlotte",
    "lat": 45.0106713,
    "lon": -67.2021853
  },
  {
    "street": "Oscar Brown Lane",
    "housenumber": "13",
    "city": "Charlotte",
    "lat": 45.0262067,
    "lon": -67.2622414
  },
  {
    "street": "Ayers Junction Road",
    "housenumber": "1002",
    "city": "Charlotte",
    "lat": 44.9979567,
    "lon": -67.2615162
  },
  {
    "street": "Damon Ridge Road",
    "housenumber": "135",
    "city": "Charlotte",
    "lat": 45.0097707,
    "lon": -67.3167158
  },
  {
    "street": "Charlotte Road",
    "housenumber": "209",
    "city": "Charlotte",
    "lat": 45.0262084,
    "lon": -67.2599883
  },
  {
    "street": "Tree Farm Lane",
    "housenumber": "17",
    "city": "Charlotte",
    "lat": 44.9995832,
    "lon": -67.2419278
  },
  {
    "street": "Smith Ridge Road",
    "housenumber": "113",
    "city": "Charlotte",
    "lat": 44.9969609,
    "lon": -67.2933659
  },
  {
    "street": "Charlotte Road",
    "housenumber": "20",
    "city": "Charlotte",
    "lat": 45.0060485,
    "lon": -67.2727234
  },
  {
    "street": "Ayers Junction Road",
    "housenumber": "1098",
    "city": "Pembroke",
    "postcode": "04666",
    "lat": 45.005699,
    "lon": -67.2764011
  },
  {
    "street": "Ayers Junction Road",
    "housenumber": "1254",
    "city": "Charlotte",
    "lat": 45.020437,
    "lon": -67.2990336
  },
  {
    "street": "Hatton Lane",
    "housenumber": "11",
    "city": "Charlotte",
    "lat": 45.0283595,
    "lon": -67.31579
  },
  {
    "street": "Ayers Junction Road",
    "housenumber": "1343",
    "city": "Charlotte",
    "lat": 45.0267398,
    "lon": -67.314308
  },
  {
    "street": "Hillside Lane",
    "housenumber": "13",
    "city": "Charlotte",
    "lat": 45.0096074,
    "lon": -67.2129734
  },
  {
    "street": "Charlotte Road",
    "housenumber": "176",
    "city": "Charlotte",
    "lat": 45.0216061,
    "lon": -67.2580652
  },
  {
    "street": "Maple Tree Drive",
    "housenumber": "1",
    "city": "Charlotte",
    "lat": 44.9980996,
    "lon": -67.2295141
  },
  {
    "street": "Station Road",
    "housenumber": "1250",
    "city": "Charlotte",
    "lat": 45.0106571,
    "lon": -67.216494
  },
  {
    "street": "Hilltop Lane",
    "housenumber": "12",
    "city": "Charlotte",
    "lat": 45.0250976,
    "lon": -67.3149654
  },
  {
    "street": "Round Pond Lane",
    "housenumber": "21",
    "city": "Charlotte",
    "lat": 45.0127824,
    "lon": -67.2641514
  },
  {
    "street": "Ayers Junction Road",
    "housenumber": "1100",
    "city": "Pembroke",
    "postcode": "04666",
    "lat": 45.0059554,
    "lon": -67.2769582
  },
  {
    "street": "Ayers Junction Road",
    "housenumber": "1065",
    "city": "Charlotte",
    "lat": 45.0032569,
    "lon": -67.2705741
  },
  {
    "street": "Wildlife Lane",
    "housenumber": "1",
    "city": "Charlotte",
    "lat": 45.010589,
    "lon": -67.2075432
  },
  {
    "street": "Charlotte Road",
    "housenumber": "172",
    "city": "Charlotte",
    "lat": 45.0211457,
    "lon": -67.2576856
  },
  {
    "street": "Ayers Junction Road",
    "housenumber": "1383",
    "city": "Charlotte",
    "lat": 45.0289919,
    "lon": -67.3211412
  },
  {
    "street": "Ayers Junction Road",
    "housenumber": "1088",
    "city": "Pembroke",
    "postcode": "04666",
    "lat": 45.0048587,
    "lon": -67.2747383
  },
  {
    "street": "Station Road",
    "housenumber": "1178",
    "city": "Charlotte",
    "lat": 45.0169438,
    "lon": -67.2279814
  },
  {
    "street": "Ayers Junction Road",
    "housenumber": "1210",
    "city": "Charlotte",
    "lat": 45.0163645,
    "lon": -67.292764
  },
  {
    "street": "Ayers Junction Road",
    "housenumber": "1345",
    "city": "Charlotte",
    "lat": 45.0268576,
    "lon": -67.3146663
  },
  {
    "street": "Ayers Junction Road",
    "housenumber": "1165",
    "city": "Charlotte",
    "lat": 45.0121873,
    "lon": -67.2858322
  },
  {
    "street": "Oscar Brown Lane",
    "housenumber": "21",
    "city": "Charlotte",
    "lat": 45.0265662,
    "lon": -67.263684
  },
  {
    "street": "Ayers Junction Road",
    "housenumber": "1096",
    "city": "Pembroke",
    "postcode": "04666",
    "lat": 45.0054221,
    "lon": -67.275722
  },
  {
    "street": "Tree Farm Lane",
    "housenumber": "21",
    "city": "Charlotte",
    "lat": 44.9999024,
    "lon": -67.242489
  },
  {
    "street": "Shore Lane",
    "housenumber": "12",
    "city": "Charlotte",
    "lat": 45.0089702,
    "lon": -67.2188623
  },
  {
    "street": "Station Road",
    "housenumber": "1291",
    "city": "Charlotte",
    "lat": 45.0104691,
    "lon": -67.2079339
  },
  {
    "street": "Charlotte Road",
    "housenumber": "232",
    "city": "Charlotte",
    "lat": 45.0291184,
    "lon": -67.2616201
  },
  {
    "street": "Railway Road",
    "housenumber": "18",
    "city": "Charlotte",
    "lat": 45.0002751,
    "lon": -67.2398068
  },
  {
    "street": "Charlotte Road",
    "housenumber": "182",
    "city": "Charlotte",
    "lat": 45.0222991,
    "lon": -67.258647
  },
  {
    "street": "Sherrard Lane",
    "housenumber": "10",
    "city": "Charlotte",
    "lat": 45.0134726,
    "lon": -67.2854005
  },
  {
    "street": "Damon Ridge Road",
    "housenumber": "144",
    "city": "Charlotte",
    "lat": 45.0090121,
    "lon": -67.315634
  },
  {
    "street": "Saw Whet Lane",
    "housenumber": "13",
    "city": "Charlotte",
    "lat": 44.992394,
    "lon": -67.2532925
  },
  {
    "street": "Fisher Pound Road",
    "housenumber": "19",
    "city": "Charlotte",
    "lat": 45.0072732,
    "lon": -67.2730482
  },
  {
    "street": "Round Pond Lane",
    "housenumber": "19",
    "city": "Charlotte",
    "lat": 45.0126918,
    "lon": -67.2638115
  },
  {
    "street": "Charlotte Road",
    "housenumber": "15",
    "city": "Charlotte",
    "lat": 45.0056288,
    "lon": -67.2729454
  },
  {
    "street": "Brooks Drive",
    "housenumber": "19",
    "city": "Charlotte",
    "lat": 44.9998309,
    "lon": -67.2381456
  },
  {
    "street": "Ayers Junction Road",
    "housenumber": "1264",
    "city": "Charlotte",
    "lat": 45.0213897,
    "lon": -67.3007506
  },
  {
    "street": "Ayers Junction Road",
    "housenumber": "1149",
    "city": "Charlotte",
    "lat": 45.010772,
    "lon": -67.2836029
  },
  {
    "street": "Ayers Junction Road",
    "housenumber": "1127",
    "city": "Charlotte",
    "lat": 45.0088576,
    "lon": -67.280513
  },
  {
    "street": "Smith Ridge Road",
    "housenumber": "12",
    "city": "Charlotte",
    "lat": 45.0040792,
    "lon": -67.276437
  },
  {
    "street": "Charlotte Road",
    "housenumber": "155",
    "city": "Charlotte",
    "lat": 45.0193677,
    "lon": -67.2559056
  },
  {
    "street": "Round Pond Lane",
    "housenumber": "15",
    "city": "Charlotte",
    "lat": 45.0125501,
    "lon": -67.2630797
  },
  {
    "street": "Sherrard Lane",
    "housenumber": "14",
    "city": "Charlotte",
    "lat": 45.0137597,
    "lon": -67.2847383
  },
  {
    "street": "Ayers Junction Road",
    "housenumber": "1263",
    "city": "Charlotte",
    "lat": 45.0215976,
    "lon": -67.3005033
  },
  {
    "street": "Ayers Junction Road",
    "housenumber": "1107",
    "city": "Charlotte",
    "lat": 45.0071315,
    "lon": -67.2776715
  },
  {
    "street": "Station Road",
    "housenumber": "1188",
    "city": "Charlotte",
    "lat": 45.0158609,
    "lon": -67.2263586
  },
  {
    "street": "Ayers Junction Road",
    "housenumber": "1379",
    "city": "Charlotte",
    "lat": 45.0287659,
    "lon": -67.3204623
  },
  {
    "street": "Oscar Brown Lane",
    "housenumber": "11",
    "city": "Charlotte",
    "lat": 45.026076,
    "lon": -67.2619344
  },
  {
    "street": "Ayers Junction Road",
    "housenumber": "1172",
    "city": "Charlotte",
    "lat": 45.0126525,
    "lon": -67.2871382
  },
  {
    "street": "Sand Dike Lane",
    "housenumber": "23",
    "city": "Charlotte",
    "lat": 45.0119743,
    "lon": -67.2530716
  },
  {
    "street": "Ayers Junction Road",
    "housenumber": "1195",
    "city": "Charlotte",
    "lat": 45.0151902,
    "lon": -67.2903876
  },
  {
    "street": "Ayers Junction Road",
    "housenumber": "1078",
    "city": "Charlotte",
    "lat": 45.0042062,
    "lon": -67.2732229
  },
  {
    "street": "Ayers Junction Road",
    "housenumber": "1072",
    "city": "Charlotte",
    "lat": 45.003695,
    "lon": -67.2721597
  },
  {
    "street": "Ayers Junction Road",
    "housenumber": "1085",
    "city": "Charlotte",
    "lat": 45.0051111,
    "lon": -67.2744329
  },
  {
    "street": "Cone Road",
    "housenumber": "14",
    "city": "Charlotte",
    "lat": 44.9893374,
    "lon": -67.2506136
  },
  {
    "street": "Hawks Lane",
    "housenumber": "12",
    "city": "Charlotte",
    "lat": 45.0143235,
    "lon": -67.2273516
  },
  {
    "street": "Ayers Junction Road",
    "housenumber": "1369",
    "city": "Charlotte",
    "lat": 45.0282009,
    "lon": -67.3187715
  },
  {
    "street": "Ayers Junction Road",
    "housenumber": "1380",
    "city": "Charlotte",
    "lat": 45.0285163,
    "lon": -67.3206283
  },
  {
    "street": "Maple Tree Drive",
    "housenumber": "21",
    "city": "Charlotte",
    "lat": 44.9997243,
    "lon": -67.2268948
  },
  {
    "street": "Ayers Junction Road",
    "housenumber": "1092",
    "city": "Pembroke",
    "postcode": "04666",
    "lat": 45.0052442,
    "lon": -67.2752013
  },
  {
    "street": "Station Road",
    "housenumber": "1181",
    "city": "Charlotte",
    "lat": 45.0162524,
    "lon": -67.2275141
  },
  {
    "street": "Hawks Lane",
    "housenumber": "18",
    "city": "Charlotte",
    "lat": 45.0138428,
    "lon": -67.2282802
  },
  {
    "street": "Smith Ridge Road",
    "housenumber": "16",
    "city": "Charlotte",
    "lat": 45.0037922,
    "lon": -67.2771054
  },
  {
    "street": "Damon Ridge Road",
    "housenumber": "2",
    "city": "Pembroke",
    "postcode": "04666",
    "lat": 45.0209613,
    "lon": -67.299786
  },
  {
    "street": "Alder Lane",
    "housenumber": "8",
    "city": "Pembroke",
    "postcode": "04666",
    "lat": 44.9890368,
    "lon": -67.2545045
  },
  {
    "street": "Oak Lane",
    "housenumber": "8",
    "city": "Pembroke",
    "postcode": "04666",
    "lat": 45.0099836,
    "lon": -67.2108424
  },
  {
    "street": "Shore Lane",
    "housenumber": "10",
    "city": "Pembroke",
    "postcode": "04666",
    "lat": 45.0091998,
    "lon": -67.218576
  },
  {
    "street": "Rice Road",
    "housenumber": "12",
    "city": "Pembroke",
    "postcode": "04666",
    "lat": 45.0000013,
    "lon": -67.2821102
  },
  {
    "street": "Sawyer Lane",
    "housenumber": "12",
    "city": "Pembroke",
    "postcode": "04666",
    "lat": 44.9899938,
    "lon": -67.2538031
  },
  {
    "street": "Ever Green Lane",
    "housenumber": "16",
    "city": "Pembroke",
    "postcode": "04666",
    "lat": 44.9993627,
    "lon": -67.2244825
  },
  {
    "street": "Chickadee Lane",
    "housenumber": "24",
    "city": "Pembroke",
    "postcode": "04666",
    "lat": 45.0118224,
    "lon": -67.2038308
  },
  {
    "street": "Sandy Beach Lane",
    "housenumber": "32",
    "city": "Pembroke",
    "postcode": "04666",
    "lat": 45.0005674,
    "lon": -67.218317
  },
  {
    "street": "Bowen Extension",
    "housenumber": "34",
    "city": "Pembroke",
    "postcode": "04666",
    "lat": 45.0109657,
    "lon": -67.2250313
  },
  {
    "street": "Goodeill Road",
    "housenumber": "36",
    "city": "Pembroke",
    "postcode": "04666",
    "lat": 45.0271618,
    "lon": -67.2385067
  },
  {
    "street": "Damon Ridge Road",
    "housenumber": "38",
    "city": "Pembroke",
    "postcode": "04666",
    "lat": 45.0183059,
    "lon": -67.3061598
  },
  {
    "street": "Carlisle Lane",
    "housenumber": "46",
    "city": "Pembroke",
    "postcode": "04666",
    "lat": 45.0079558,
    "lon": -67.2003859
  },
  {
    "street": "Smith Ridge Road",
    "housenumber": "52",
    "city": "Pembroke",
    "postcode": "04666",
    "lat": 45.0010404,
    "lon": -67.2832655
  },
  {
    "street": "Charlotte Road",
    "housenumber": "56",
    "city": "Pembroke",
    "postcode": "04666",
    "lat": 45.0088615,
    "lon": -67.2661861
  },
  {
    "street": "Charlotte Road",
    "housenumber": "64",
    "city": "Pembroke",
    "postcode": "04666",
    "lat": 45.0095574,
    "lon": -67.2645852
  },
  {
    "street": "Goodeill Road",
    "housenumber": "64",
    "city": "Pembroke",
    "postcode": "04666",
    "lat": 45.0306314,
    "lon": -67.239638
  },
  {
    "street": "Charlotte Road",
    "housenumber": "70",
    "city": "Pembroke",
    "postcode": "04666",
    "lat": 45.0100793,
    "lon": -67.2633892
  },
  {
    "street": "Round Pond Lane",
    "housenumber": "70",
    "city": "Pembroke",
    "postcode": "04666",
    "lat": 45.0140986,
    "lon": -67.2728811
  },
  {
    "street": "Arthur Damon Road",
    "housenumber": "72",
    "city": "Pembroke",
    "postcode": "04666",
    "lat": 45.0254208,
    "lon": -67.3042617
  },
  {
    "street": "Charlotte Road",
    "housenumber": "80",
    "city": "Pembroke",
    "postcode": "04666",
    "lat": 45.010775,
    "lon": -67.2617819
  },
  {
    "street": "Damon Ridge Road",
    "housenumber": "88",
    "city": "Pembroke",
    "postcode": "04666",
    "lat": 45.0145222,
    "lon": -67.3144762
  },
  {
    "street": "Charlotte Road",
    "housenumber": "178",
    "city": "Pembroke",
    "postcode": "04666",
    "lat": 45.0219236,
    "lon": -67.2582205
  },
  {
    "street": "Smith Ridge Road",
    "housenumber": "346",
    "city": "Pembroke",
    "postcode": "04666",
    "lat": 44.9707918,
    "lon": -67.2813341
  },
  {
    "street": "Charlotte Road",
    "housenumber": "380",
    "city": "Pembroke",
    "postcode": "04666",
    "lat": 45.0490935,
    "lon": -67.2654659
  },
  {
    "street": "Charlotte Road",
    "housenumber": "388",
    "city": "Pembroke",
    "postcode": "04666",
    "lat": 45.0502228,
    "lon": -67.2660286
  },
  {
    "street": "Ayers Junction Road",
    "housenumber": "898",
    "city": "Pembroke",
    "postcode": "04666",
    "lat": 44.9894562,
    "lon": -67.2445716
  },
  {
    "street": "Ayers Junction Road",
    "housenumber": "988",
    "city": "Pembroke",
    "postcode": "04666",
    "lat": 44.9967091,
    "lon": -67.2593908
  },
  {
    "street": "Charlotte Road",
    "housenumber": "5",
    "city": "Pembroke",
    "postcode": "04666",
    "lat": 45.0051874,
    "lon": -67.2741197
  },
  {
    "street": "Ever Green Lane",
    "housenumber": "5",
    "city": "Pembroke",
    "postcode": "04666",
    "lat": 44.9982539,
    "lon": -67.2255381
  },
  {
    "street": "Mitchell Drive",
    "housenumber": "7",
    "city": "Pembroke",
    "postcode": "04666",
    "lat": 45.008944,
    "lon": -67.2174672
  },
  {
    "street": "Annas Drive",
    "housenumber": "9",
    "city": "Pembroke",
    "postcode": "04666",
    "lat": 45.0107666,
    "lon": -67.2582796
  },
  {
    "street": "Baptist Camp Road",
    "housenumber": "9",
    "city": "Pembroke",
    "postcode": "04666",
    "lat": 44.9998214,
    "lon": -67.2343268
  },
  {
    "street": "Pine Knoll Drive",
    "housenumber": "9",
    "city": "Pembroke",
    "postcode": "04666",
    "lat": 45.0320842,
    "lon": -67.2604195
  },
  {
    "street": "Arthur Damon Road",
    "housenumber": "33",
    "city": "Pembroke",
    "postcode": "04666",
    "lat": 45.0233465,
    "lon": -67.3021905
  },
  {
    "street": "Bowen Extension",
    "housenumber": "35",
    "city": "Pembroke",
    "postcode": "04666",
    "lat": 45.0111513,
    "lon": -67.2253873
  },
  {
    "street": "Sandy Beach Lane",
    "housenumber": "35",
    "city": "Pembroke",
    "postcode": "04666",
    "lat": 45.001033,
    "lon": -67.2178648
  },
  {
    "street": "Round Pond Lane",
    "housenumber": "37",
    "city": "Pembroke",
    "postcode": "04666",
    "lat": 45.0127648,
    "lon": -67.2671406
  },
  {
    "street": "Annas Drive",
    "housenumber": "43",
    "city": "Pembroke",
    "postcode": "04666",
    "lat": 45.0086569,
    "lon": -67.2524682
  },
  {
    "street": "Cedar Lane",
    "housenumber": "43",
    "city": "Pembroke",
    "postcode": "04666",
    "lat": 45.0147144,
    "lon": -67.2304996
  },
  {
    "street": "Charlotte Road",
    "housenumber": "45",
    "city": "Pembroke",
    "postcode": "04666",
    "lat": 45.0078641,
    "lon": -67.2680815
  },
  {
    "street": "Annas Drive",
    "housenumber": "47",
    "city": "Pembroke",
    "postcode": "04666",
    "lat": 45.0083499,
    "lon": -67.2518177
  },
  {
    "street": "Round Pond Lane",
    "housenumber": "47",
    "city": "Pembroke",
    "postcode": "04666",
    "lat": 45.0131507,
    "lon": -67.2688422
  },
  {
    "street": "Sherrard Lane",
    "housenumber": "47",
    "city": "Pembroke",
    "postcode": "04666",
    "lat": 45.0165203,
    "lon": -67.2794523
  },
  {
    "street": "Smith Ridge Road",
    "housenumber": "49",
    "city": "Pembroke",
    "postcode": "04666",
    "lat": 45.0013344,
    "lon": -67.2830601
  },
  {
    "street": "Round Pond Lane",
    "housenumber": "51",
    "city": "Pembroke",
    "postcode": "04666",
    "lat": 45.013405,
    "lon": -67.2695833
  },
  {
    "street": "Round Pond Lane",
    "housenumber": "53",
    "city": "Pembroke",
    "postcode": "04666",
    "lat": 45.01342,
    "lon": -67.2699763
  },
  {
    "street": "Sherrard Lane",
    "housenumber": "53",
    "city": "Pembroke",
    "postcode": "04666",
    "lat": 45.017008,
    "lon": -67.27926
  },
  {
    "street": "Charlotte Road",
    "housenumber": "57",
    "city": "Pembroke",
    "postcode": "04666",
    "lat": 45.0089169,
    "lon": -67.2656831
  },
  {
    "street": "Carlisle Lane",
    "housenumber": "61",
    "city": "Pembroke",
    "postcode": "04666",
    "lat": 45.0071229,
    "lon": -67.199511
  },
  {
    "street": "Charlotte Road",
    "housenumber": "61",
    "city": "Pembroke",
    "postcode": "04666",
    "lat": 45.0092649,
    "lon": -67.2648859
  },
  {
    "street": "Round Pond Lane",
    "housenumber": "67",
    "city": "Pembroke",
    "postcode": "04666",
    "lat": 45.01411,
    "lon": -67.272443
  },
  {
    "street": "Carlisle Lane",
    "housenumber": "69",
    "city": "Pembroke",
    "postcode": "04666",
    "lat": 45.0066829,
    "lon": -67.1990109
  },
  {
    "street": "Damon Ridge Road",
    "housenumber": "73",
    "city": "Pembroke",
    "postcode": "04666",
    "lat": 45.0156727,
    "lon": -67.3122278
  },
  {
    "street": "Charlotte Road",
    "housenumber": "83",
    "city": "Pembroke",
    "postcode": "04666",
    "lat": 45.010982,
    "lon": -67.2608937
  },
  {
    "street": "Smith Ridge Road",
    "housenumber": "269",
    "city": "Pembroke",
    "postcode": "04666",
    "lat": 44.9794182,
    "lon": -67.2895932
  },
  {
    "street": "Charlotte Road",
    "housenumber": "240",
    "city": "Charlotte",
    "lat": 45.0302186,
    "lon": -67.2617519
  },
  {
    "street": "Oscar Brown Lane",
    "housenumber": "31",
    "city": "Charlotte",
    "lat": 45.0267649,
    "lon": -67.2654995
  },
  {
    "street": "Sandy Beach Lane",
    "housenumber": "28",
    "city": "Charlotte",
    "lat": 45.0001547,
    "lon": -67.2189832
  },
  {
    "street": "Mt Tom Road",
    "housenumber": "311",
    "city": "Charlotte",
    "lat": 44.9980982,
    "lon": -67.2279789
  },
  {
    "street": "Carlisle Lane",
    "housenumber": "27",
    "city": "Charlotte",
    "lat": 45.0090226,
    "lon": -67.2012471
  },
  {
    "street": "Cone Road",
    "housenumber": "26",
    "city": "Charlotte",
    "lat": 44.9884779,
    "lon": -67.2523903
  },
  {
    "street": "Smith Ridge Road",
    "housenumber": "311",
    "city": "Charlotte",
    "lat": 44.9745996,
    "lon": -67.2852216
  },
  {
    "street": "Goodeill Road",
    "housenumber": "26",
    "city": "Charlotte",
    "lat": 45.0259096,
    "lon": -67.2393258
  },
  {
    "street": "Smith Ridge Road",
    "housenumber": "301",
    "city": "Charlotte",
    "lat": 44.9756769,
    "lon": -67.2862231
  },
  {
    "street": "Mt Tom Road",
    "housenumber": "255",
    "city": "Charlotte",
    "lat": 44.9964024,
    "lon": -67.2167714
  },
  {
    "street": "Sherrard Lane",
    "housenumber": "24",
    "city": "Charlotte",
    "lat": 45.014473,
    "lon": -67.2830799
  },
  {
    "street": "Sandy Beach Lane",
    "housenumber": "26",
    "city": "Charlotte",
    "lat": 44.9999654,
    "lon": -67.2192556
  },
  {
    "street": "Grand View Road",
    "housenumber": "29",
    "city": "Charlotte",
    "lat": 44.9972736,
    "lon": -67.2471622
  },
  {
    "street": "Windy Ridge Lane",
    "housenumber": "26",
    "city": "Charlotte",
    "lat": 44.9799963,
    "lon": -67.2948396
  },
  {
    "street": "Bowen Extension",
    "housenumber": "26",
    "city": "Charlotte",
    "lat": 45.0100559,
    "lon": -67.2241204
  },
  {
    "street": "Tree Farm Lane",
    "housenumber": "29",
    "city": "Charlotte",
    "lat": 45.0007174,
    "lon": -67.2433903
  },
  {
    "street": "Smith Ridge Road",
    "housenumber": "337",
    "city": "Pembroke",
    "postcode": "04666",
    "lat": 44.9716308,
    "lon": -67.2823489
  },
  {
    "street": "Charlotte Road",
    "housenumber": "371",
    "city": "Pembroke",
    "postcode": "04666",
    "lat": 45.0481195,
    "lon": -67.2644604
  },
  {
    "street": "Charlotte Road",
    "housenumber": "379",
    "city": "Pembroke",
    "postcode": "04666",
    "lat": 45.0491402,
    "lon": -67.2652804
  },
  {
    "street": "Mt Tom Road",
    "housenumber": "441",
    "city": "Pembroke",
    "postcode": "04666",
    "lat": 44.9898639,
    "lon": -67.2426944
  },
  {
    "street": "Ayers Junction Road",
    "housenumber": "861",
    "city": "Pembroke",
    "postcode": "04666",
    "lat": 44.9876901,
    "lon": -67.2383274
  },
  {
    "street": "Ayers Junction Road",
    "housenumber": "885",
    "city": "Pembroke",
    "postcode": "04666",
    "lat": 44.9890152,
    "lon": -67.2425301
  },
  {
    "street": "Ayers Junction Road",
    "housenumber": "915",
    "city": "Pembroke",
    "postcode": "04666",
    "lat": 44.9906629,
    "lon": -67.2481185
  },
  {
    "street": "Ayers Junction Road",
    "housenumber": "997",
    "city": "Pembroke",
    "postcode": "04666",
    "lat": 44.9977331,
    "lon": -67.2607237
  },
  {
    "street": "Ayers Junction Road",
    "housenumber": "1205",
    "city": "Pembroke",
    "postcode": "04666",
    "lat": 45.0160078,
    "lon": -67.2917847
  },
  {
    "street": "Ayers Junction Road",
    "housenumber": "1237",
    "city": "Pembroke",
    "postcode": "04666",
    "lat": 45.0191682,
    "lon": -67.2966533
  },
  {
    "street": "Carriage Lane",
    "housenumber": "6",
    "city": "Pembroke",
    "postcode": "04666",
    "lat": 44.9797788,
    "lon": -67.2968564
  },
  {
    "street": "Shore Lane",
    "housenumber": "17",
    "city": "Pembroke",
    "postcode": "04666",
    "lat": 45.0085517,
    "lon": -67.2200173
  },
  {
    "street": "Carlisle Lane",
    "housenumber": "35",
    "city": "Pembroke",
    "postcode": "04666",
    "lat": 45.008593,
    "lon": -67.2008291
  },
  {
    "street": "Damon Ridge Road",
    "housenumber": "40",
    "city": "Pembroke",
    "postcode": "04666",
    "lat": 45.0181578,
    "lon": -67.3064878
  },
  {
    "street": "Strause Drive",
    "housenumber": "9309",
    "city": "Charlotte",
    "postcode": "28214",
    "lat": 35.2732593,
    "lon": -80.9617319
  },
  {
    "street": "Kendall Drive",
    "housenumber": "9308",
    "city": "Charlotte",
    "postcode": "28214",
    "lat": 35.2734473,
    "lon": -80.9606854
  },
  {
    "street": "Northlake Centre Parkway",
    "housenumber": "9711",
    "city": "Charlotte",
    "postcode": "28216",
    "lat": 35.3475967,
    "lon": -80.8587594
  },
  {
    "street": "Providence Road",
    "housenumber": "8035",
    "city": "Charlotte",
    "postcode": "28277",
    "lat": 35.0983945,
    "lon": -80.7765687
  },
  {
    "street": "Davis Lake Parkway",
    "housenumber": "8505",
    "city": "Charlotte",
    "postcode": "28269",
    "lat": 35.3350533,
    "lon": -80.814255
  },
  {
    "street": "New Fashion Way",
    "housenumber": "5422",
    "city": "Charlotte",
    "postcode": "28278",
    "lat": 35.1682435,
    "lon": -80.9697886
  },
  {
    "street": "Lancaster Highway",
    "housenumber": "16015",
    "city": "Charlotte",
    "postcode": "28277",
    "lat": 35.0308978,
    "lon": -80.8523499
  },
  {
    "street": "Lancaster Highway",
    "housenumber": "16015",
    "city": "Charlotte",
    "postcode": "28277",
    "lat": 35.0307439,
    "lon": -80.8521024
  },
  {
    "street": "Jay St",
    "housenumber": "1026",
    "city": "Charlotte",
    "postcode": "28208",
    "lat": 35.2353073,
    "lon": -80.872579
  },
  {
    "street": "Caramel Road",
    "housenumber": "4100",
    "city": "Charlotte",
    "postcode": "28226",
    "lat": 35.1169999,
    "lon": -80.8236441
  },
  {
    "street": "Sandy Rock Place",
    "housenumber": "9805",
    "city": "Charlotte",
    "postcode": "28277",
    "lat": 35.0540665,
    "lon": -80.7729902
  },
  {
    "street": "West Hebron Street",
    "housenumber": "315",
    "city": "Charlotte",
    "postcode": "28273",
    "lat": 35.1289977,
    "lon": -80.894242
  },
  {
    "street": "Nations Ford Road",
    "housenumber": "8925",
    "city": "Charlotte",
    "postcode": "28217",
    "lat": 35.1358806,
    "lon": -80.891539
  },
  {
    "street": "Berewick Town Center Drive",
    "housenumber": "4830",
    "city": "Charlotte",
    "postcode": "28273",
    "lat": 35.1616309,
    "lon": -80.9718557
  },
  {
    "street": "Berewick Town Center Drive",
    "housenumber": "4830",
    "city": "Charlotte",
    "postcode": "28278",
    "lat": 35.1616983,
    "lon": -80.9717809
  },
  {
    "street": "Statesville Ave",
    "housenumber": "1824",
    "city": "Charlotte",
    "postcode": "28206",
    "lat": 35.2475419,
    "lon": -80.8333437
  },
  {
    "street": "Camp Road",
    "housenumber": "270",
    "city": "Charlotte",
    "postcode": "28206",
    "lat": 35.2462683,
    "lon": -80.8332309
  },
  {
    "street": "Camp Road",
    "housenumber": "270",
    "city": "Charlotte",
    "postcode": "28206",
    "lat": 35.2463074,
    "lon": -80.8331904
  },
  {
    "street": "Camp Road",
    "housenumber": "330",
    "city": "Charlotte",
    "postcode": "28207",
    "lat": 35.2463046,
    "lon": -80.8335599
  },
  {
    "street": "North Graham Street",
    "housenumber": "1801",
    "city": "Charlotte",
    "postcode": "28206",
    "lat": 35.2452346,
    "lon": -80.8321403
  },
  {
    "street": "North Graham Street",
    "housenumber": "1701",
    "city": "Charlotte",
    "postcode": "28206",
    "lat": 35.2448143,
    "lon": -80.8322974
  },
  {
    "street": "East McCullough Drive",
    "housenumber": "350",
    "city": "Charlotte",
    "postcode": "28262",
    "lat": 35.3019478,
    "lon": -80.749064
  },
  {
    "street": "East WT Harris Boulevard",
    "housenumber": "230",
    "city": "Charlotte",
    "postcode": "28262",
    "lat": 35.3038437,
    "lon": -80.7494335
  },
  {
    "street": "East W T Harris Boulevard",
    "housenumber": "230",
    "city": "Charlotte",
    "postcode": "28262",
    "lat": 35.3037555,
    "lon": -80.7492116
  },
  {
    "street": "Camp Road",
    "housenumber": "301",
    "city": "Charlotte",
    "postcode": "28206",
    "lat": 35.2461401,
    "lon": -80.8339959
  },
  {
    "street": "Camp Road",
    "housenumber": "301",
    "city": "Charlotte",
    "postcode": "28206",
    "lat": 35.2456845,
    "lon": -80.8338355
  },
  {
    "street": "Camp Road",
    "housenumber": "270",
    "city": "Charlotte",
    "postcode": "28206",
    "lat": 35.2463643,
    "lon": -80.8333079
  },
  {
    "street": "Camp Road",
    "housenumber": "270",
    "city": "Charlotte",
    "postcode": "28206",
    "lat": 35.246198,
    "lon": -80.8333689
  },
  {
    "street": "Bellhaven Boulevard",
    "housenumber": "8400",
    "city": "Charlotte",
    "postcode": "28216",
    "lat": 35.3038065,
    "lon": -80.9369007
  },
  {
    "street": "IKEA Boulevard",
    "housenumber": "8300",
    "city": "Charlotte",
    "postcode": "28262",
    "lat": 35.2934147,
    "lon": -80.7651605
  },
  {
    "street": "University City Boulevard",
    "housenumber": "8215",
    "city": "Charlotte",
    "postcode": "28213",
    "lat": 35.2973953,
    "lon": -80.7467888
  },
  {
    "street": "North Tryon Street",
    "housenumber": "9605",
    "city": "Charlotte",
    "postcode": "28262",
    "lat": 35.3170224,
    "lon": -80.7402445
  },
  {
    "street": "Metropolitan Avenue",
    "housenumber": "900",
    "city": "Charlotte",
    "postcode": "28204",
    "lat": 35.2147067,
    "lon": -80.8350939
  },
  {
    "street": "Metropolitan Avenue",
    "housenumber": "900",
    "city": "Charlotte",
    "postcode": "28204",
    "lat": 35.2144967,
    "lon": -80.8343096
  },
  {
    "street": "South Kings Drive",
    "housenumber": "239",
    "city": "Charlotte",
    "postcode": "28204",
    "lat": 35.2137207,
    "lon": -80.8334734
  },
  {
    "street": "South Kings Drive",
    "housenumber": "311",
    "city": "Charlotte",
    "postcode": "28204",
    "lat": 35.2125868,
    "lon": -80.8335906
  },
  {
    "street": "South Kings Drive",
    "housenumber": "709",
    "city": "Charlotte",
    "postcode": "28204",
    "lat": 35.2087101,
    "lon": -80.8355982
  },
  {
    "street": "North Graham Street",
    "housenumber": "1701",
    "city": "Charlotte",
    "postcode": "28206",
    "lat": 35.245198,
    "lon": -80.8325016
  },
  {
    "street": "North Wendover",
    "housenumber": "1035",
    "city": "Charlotte",
    "postcode": "28211",
    "lat": 35.1928736,
    "lon": -80.7956771
  },
  {
    "street": "North Wendover Road",
    "housenumber": "1101",
    "city": "Charlotte",
    "postcode": "28211",
    "lat": 35.1934994,
    "lon": -80.7952003
  },
  {
    "street": "South Boulevard",
    "housenumber": "1620",
    "city": "Charlotte",
    "postcode": "28203",
    "lat": 35.2131003,
    "lon": -80.8566176
  },
  {
    "street": "South Boulevard",
    "housenumber": "2317",
    "city": "Charlotte",
    "postcode": "28203",
    "lat": 35.2046222,
    "lon": -80.8624583
  },
  {
    "street": "South Boulevard",
    "housenumber": "2222",
    "city": "Charlotte",
    "postcode": "28203",
    "lat": 35.206608,
    "lon": -80.8623296
  },
  {
    "street": "South Boulevard",
    "housenumber": "2317",
    "city": "Charlotte",
    "postcode": "28203",
    "lat": 35.2103125,
    "lon": -80.8585862
  },
  {
    "street": "South Boulevard",
    "housenumber": "2109",
    "city": "Charlotte",
    "postcode": "28203",
    "lat": 35.2074202,
    "lon": -80.8602452
  },
  {
    "street": "Iverson Way",
    "housenumber": "217",
    "city": "Charlotte",
    "postcode": "28203",
    "lat": 35.2052891,
    "lon": -80.8609905
  },
  {
    "street": "South Boulevard",
    "housenumber": "2717",
    "city": "Charlotte",
    "postcode": "28209",
    "lat": 35.2006718,
    "lon": -80.8656497
  },
  {
    "street": "South Boulevard",
    "housenumber": "3015",
    "city": "Charlotte",
    "postcode": "28209",
    "lat": 35.1981115,
    "lon": -80.8680496
  },
  {
    "street": "South Boulevard",
    "housenumber": "2901",
    "city": "Charlotte",
    "postcode": "28209",
    "lat": 35.1984041,
    "lon": -80.8676414
  },
  {
    "street": "South Boulevard",
    "housenumber": "7051",
    "city": "Charlotte",
    "postcode": "28210",
    "lat": 35.1381301,
    "lon": -80.8759704
  },
  {
    "street": "South Boulevard",
    "housenumber": "7047",
    "city": "Charlotte",
    "postcode": "28217",
    "lat": 35.138604,
    "lon": -80.8761053
  },
  {
    "street": "Fairview Road",
    "housenumber": "6428",
    "city": "Charlotte",
    "postcode": "28210",
    "lat": 35.1486882,
    "lon": -80.8330185
  },
  {
    "street": "Ballantyne Commons Parkway",
    "housenumber": "5369",
    "city": "Charlotte",
    "postcode": "28277",
    "lat": 35.0636837,
    "lon": -80.7740265
  },
  {
    "street": "Golf Links Drive",
    "housenumber": "11135",
    "city": "Charlotte",
    "postcode": "28277",
    "lat": 35.0518162,
    "lon": -80.7725146
  },
  {
    "street": "Sandy Rock Place",
    "housenumber": "9923",
    "city": "Charlotte",
    "postcode": "28277",
    "lat": 35.0510091,
    "lon": -80.7726646
  },
  {
    "street": "City Park Drive",
    "housenumber": "3625",
    "city": "Charlotte",
    "postcode": "28217",
    "lat": 35.1819046,
    "lon": -80.9160687
  },
  {
    "street": "Pineville Matthews Road",
    "housenumber": "7721",
    "city": "Charlotte",
    "postcode": "28226",
    "lat": 35.0872405,
    "lon": -80.8495849
  },
  {
    "street": "South Sharon Amity Road",
    "housenumber": "309",
    "city": "Charlotte",
    "postcode": "28211",
    "lat": 35.1744565,
    "lon": -80.8016605
  },
  {
    "street": "IKEA Boulevard",
    "housenumber": "8334",
    "city": "Charlotte",
    "postcode": "28262",
    "lat": 35.2904334,
    "lon": -80.7639141
  },
  {
    "street": "Freedom Drive",
    "housenumber": "3215",
    "city": "Charlotte",
    "postcode": "28208",
    "lat": 35.2440634,
    "lon": -80.8919889
  },
  {
    "street": "Alleghany Street",
    "housenumber": "1024",
    "city": "Charlotte",
    "postcode": "28208",
    "lat": 35.2394468,
    "lon": -80.8871871
  },
  {
    "street": "Freedom Drive",
    "housenumber": "2801",
    "city": "Charlotte",
    "postcode": "28208",
    "lat": 35.2387878,
    "lon": -80.8848934
  },
  {
    "street": "Freedom Drive",
    "housenumber": "2745",
    "city": "Charlotte",
    "postcode": "28208",
    "lat": 35.2383079,
    "lon": -80.8844926
  },
  {
    "street": "Wilkinson Boulevard",
    "housenumber": "3318",
    "city": "Charlotte",
    "postcode": "28208",
    "lat": 35.2248481,
    "lon": -80.8962301
  },
  {
    "street": "Boyer Street",
    "housenumber": "2801",
    "city": "Charlotte",
    "postcode": "28208",
    "lat": 35.2298815,
    "lon": -80.9236833
  },
  {
    "street": "Little Rock Road",
    "housenumber": "2526",
    "city": "Charlotte",
    "postcode": "28214",
    "lat": 35.2452949,
    "lon": -80.9384801
  },
  {
    "street": "Arco Corporate Drive",
    "housenumber": "3700",
    "city": "Charlotte",
    "postcode": "28273",
    "lat": 35.1513663,
    "lon": -80.9473263
  },
  {
    "street": "Hutchison McDonald Road",
    "housenumber": "2730",
    "city": "Charlotte",
    "postcode": "28269",
    "lat": 35.280454,
    "lon": -80.843166
  },
  {
    "street": "Mount Holly-Huntersville Road",
    "housenumber": "9548",
    "city": "Huntersville",
    "postcode": "28078",
    "lat": 35.3567907,
    "lon": -80.8675625
  },
  {
    "street": "Mount Holly-Huntersville Road",
    "housenumber": "9432",
    "city": "Huntersville",
    "postcode": "28078",
    "lat": 35.3564,
    "lon": -80.8698
  },
  {
    "street": "Steele Creek Road",
    "housenumber": "9308",
    "city": "Charlotte",
    "postcode": "28273",
    "lat": 35.1637578,
    "lon": -80.96937
  },
  {
    "street": "Beatties Ford Road",
    "housenumber": "2630",
    "city": "Charlotte",
    "postcode": "28216",
    "lat": 35.2701809,
    "lon": -80.8536494
  },
  {
    "street": "LaSalle Street",
    "housenumber": "1312",
    "city": "Charlotte",
    "postcode": "28206",
    "lat": 35.26121,
    "lon": -80.843157
  },
  {
    "street": "Beatties Ford Road",
    "housenumber": "2519",
    "city": "Charlotte",
    "postcode": "28216",
    "lat": 35.2689766,
    "lon": -80.854349
  },
  {
    "street": "East 7th Street",
    "housenumber": "1961",
    "city": "Charlotte",
    "postcode": "28204",
    "lat": 35.2125097,
    "lon": -80.8179219
  },
  {
    "street": "North Graham Street",
    "housenumber": "1701",
    "city": "Charlotte",
    "postcode": "28206",
    "lat": 35.2447868,
    "lon": -80.8325223
  },
  {
    "street": "North Graham Street",
    "housenumber": "1801",
    "city": "Charlotte",
    "postcode": "20206",
    "lat": 35.2452929,
    "lon": -80.8322261
  },
  {
    "street": "Beam Road",
    "housenumber": "2801",
    "city": "Charlotte",
    "postcode": "28217",
    "lat": 35.165356,
    "lon": -80.9242837
  },
  {
    "street": "Northlake Centre Parkway",
    "housenumber": "9905",
    "city": "Charlotte",
    "postcode": "28216",
    "lat": 35.3499968,
    "lon": -80.8577174
  },
  {
    "street": "Boyer Street",
    "housenumber": "2834",
    "city": "Charlotte",
    "postcode": "28208",
    "lat": 35.2284314,
    "lon": -80.9239808
  },
  {
    "street": "Connection Point Boulevard",
    "housenumber": "4404",
    "city": "Charlotte",
    "lat": 35.1844132,
    "lon": -80.7586303
  },
  {
    "street": "Connection Point Boulevard",
    "housenumber": "4404",
    "city": "Charlotte",
    "postcode": "28212",
    "lat": 35.1844389,
    "lon": -80.7588359
  },
  {
    "street": "Lansing Road",
    "housenumber": "1035",
    "city": "Charlotte",
    "postcode": "48813",
    "lat": 42.5776353,
    "lon": -84.8166887
  },
  {
    "street": "Lansing Road",
    "housenumber": "1035",
    "city": "Charlotte",
    "postcode": "48813",
    "lat": 42.5777874,
    "lon": -84.816438
  },
  {
    "street": "South Cochran Avenue",
    "housenumber": "702",
    "city": "Charlotte",
    "postcode": "48813",
    "lat": 42.5533638,
    "lon": -84.8360235
  },
  {
    "street": "South Cochran Avenue",
    "housenumber": "702",
    "city": "Charlotte",
    "postcode": "48813",
    "lat": 42.5533391,
    "lon": -84.8361468
  },
  {
    "street": "South Cochran Avenue",
    "housenumber": "302",
    "city": "Charlotte",
    "postcode": "48813",
    "lat": 42.5603836,
    "lon": -84.8361737
  },
  {
    "street": "South Cochran Avenue",
    "housenumber": "301",
    "city": "Charlotte",
    "postcode": "48813",
    "lat": 42.5605235,
    "lon": -84.8355415
  },
  {
    "street": "South Cochran Avenue",
    "housenumber": "302",
    "city": "Charlotte",
    "postcode": "48813",
    "lat": 42.5603829,
    "lon": -84.8363645
  },
  {
    "street": "West Lawrence Avenue",
    "housenumber": "509",
    "city": "Charlotte",
    "postcode": "48813",
    "lat": 42.5637598,
    "lon": -84.8420222
  },
  {
    "street": "West Lawrence Avenue",
    "housenumber": "509",
    "city": "Charlotte",
    "postcode": "48813",
    "lat": 42.5636581,
    "lon": -84.8420249
  },
  {
    "street": "West Lawrence Avenue",
    "housenumber": "705",
    "city": "Charlotte",
    "postcode": "48813",
    "lat": 42.5637124,
    "lon": -84.846012
  },
  {
    "street": "West Lawrence Avenue",
    "housenumber": "705",
    "city": "Charlotte",
    "postcode": "48813",
    "lat": 42.5636117,
    "lon": -84.8461032
  },
  {
    "street": "Packard Highway",
    "housenumber": "1650",
    "city": "Charlotte",
    "postcode": "48813",
    "lat": 42.579318,
    "lon": -84.8059157
  },
  {
    "street": "Packard Highway",
    "housenumber": "1654",
    "city": "Charlotte",
    "postcode": "48813",
    "lat": 42.579324,
    "lon": -84.8055562
  },
  {
    "street": "Packard Highway",
    "housenumber": "1686",
    "city": "Charlotte",
    "postcode": "48813",
    "lat": 42.5817038,
    "lon": -84.8039147
  },
  {
    "street": "Packard Highway",
    "housenumber": "1686",
    "city": "Charlotte",
    "postcode": "48813",
    "lat": 42.5817265,
    "lon": -84.8037981
  },
  {
    "street": "East Clinton Trail",
    "housenumber": "1085",
    "city": "Charlotte",
    "postcode": "48813",
    "lat": 42.553762,
    "lon": -84.8156695
  },
  {
    "street": "Lansing Street",
    "housenumber": "687",
    "city": "Charlotte",
    "postcode": "48813",
    "lat": 42.5738806,
    "lon": -84.8223643
  },
  {
    "street": "Lansing Street",
    "housenumber": "687",
    "city": "Charlotte",
    "postcode": "48813",
    "lat": 42.5740188,
    "lon": -84.8225896
  },
  {
    "street": "North Wendover Road",
    "housenumber": "1133",
    "city": "Charlotte",
    "postcode": "28211",
    "lat": 35.1945084,
    "lon": -80.7951361
  },
  {
    "street": "North Wendover Road",
    "housenumber": "1133",
    "city": "Charlotte",
    "postcode": "28211",
    "lat": 35.1942045,
    "lon": -80.7953161
  },
  {
    "street": "East Independence Boulevard",
    "housenumber": "7520",
    "city": "Charlotte",
    "postcode": "28227",
    "lat": 35.1596814,
    "lon": -80.7372874
  },
  {
    "street": "Eastway Drive",
    "housenumber": "3036",
    "city": "Charlotte",
    "postcode": "28205",
    "lat": 35.2144954,
    "lon": -80.7818955
  },
  {
    "street": "Providence Road",
    "housenumber": "3115",
    "city": "Charlotte",
    "postcode": "28211",
    "lat": 35.1694598,
    "lon": -80.8029531
  },
  {
    "street": "Latrobe Drive",
    "housenumber": "3815",
    "city": "Charlotte",
    "postcode": "28211",
    "lat": 35.1943007,
    "lon": -80.7956702
  },
  {
    "street": "McAlpine Park Drive",
    "housenumber": "8510",
    "city": "Charlotte",
    "postcode": "28211",
    "lat": 35.1526171,
    "lon": -80.7504104
  },
  {
    "street": "Colwick Road",
    "housenumber": "4340",
    "city": "Charlotte",
    "postcode": "28211",
    "lat": 35.1774674,
    "lon": -80.7986182
  },
  {
    "street": "East 7th Street",
    "housenumber": "2001",
    "city": "Charlotte",
    "postcode": "28204",
    "lat": 35.2123122,
    "lon": -80.817233
  },
  {
    "street": "North Sharon Amity Road",
    "housenumber": "3121",
    "city": "Charlotte",
    "postcode": "28205",
    "lat": 35.2032027,
    "lon": -80.7607497
  },
  {
    "street": "East Independence Expressway",
    "housenumber": "4801",
    "city": "Charlotte",
    "postcode": "28212",
    "lat": 35.1923503,
    "lon": -80.7632275
  },
  {
    "street": "East Morehead Street",
    "housenumber": "1000",
    "city": "Charlotte",
    "postcode": "28204",
    "lat": 35.2119487,
    "lon": -80.8436122
  },
  {
    "street": "Ballancroft Parkway",
    "housenumber": "15127",
    "city": "Charlotte",
    "postcode": "28277",
    "lat": 35.0398475,
    "lon": -80.8465287
  },
  {
    "street": "Silabert Avenue",
    "housenumber": "4927",
    "city": "Charlotte",
    "postcode": "28205",
    "lat": 35.1893675,
    "lon": -80.7808573
  },
  {
    "street": "Margaret Wallace Road",
    "housenumber": "2033",
    "city": "Matthews",
    "postcode": "28227",
    "lat": 35.1647141,
    "lon": -80.7393338
  },
  {
    "street": "Monroe Road",
    "housenumber": "3927",
    "city": "Charlotte",
    "postcode": "28211",
    "lat": 35.197801,
    "lon": -80.792589
  },
  {
    "street": "Monroe Road",
    "housenumber": "2937",
    "city": "Charlotte",
    "postcode": "28211",
    "lat": 35.1977439,
    "lon": -80.7925102
  },
  {
    "street": "North Sharon Amity Road",
    "housenumber": "200",
    "city": "Charlotte",
    "postcode": "28211",
    "lat": 35.1760457,
    "lon": -80.7965858
  },
  {
    "street": "North Sharon Amity Road",
    "housenumber": "200",
    "city": "Charlotte",
    "postcode": "28211",
    "lat": 35.1762759,
    "lon": -80.7964034
  },
  {
    "street": "Greenwich Road",
    "housenumber": "121",
    "city": "Charlotte",
    "postcode": "28211",
    "lat": 35.1787987,
    "lon": -80.8001382
  },
  {
    "street": "Northlake Court",
    "housenumber": "4300",
    "city": "Charlotte",
    "postcode": "28216",
    "lat": 35.3122878,
    "lon": -80.8561495
  },
  {
    "street": "Wilkinson Boulevard",
    "housenumber": "3326",
    "city": "Charlotte",
    "postcode": "28208",
    "lat": 35.2257887,
    "lon": -80.8959318
  },
  {
    "street": "Cleveland Avenue",
    "housenumber": "1540",
    "city": "Charlotte",
    "postcode": "28203",
    "lat": 35.2132188,
    "lon": -80.8542137
  },
  {
    "street": "Cleveland Avenue",
    "housenumber": "1544",
    "city": "Charlotte",
    "postcode": "28203",
    "lat": 35.2132565,
    "lon": -80.8542647
  },
  {
    "street": "Cleveland Avenue",
    "housenumber": "1548",
    "city": "Charlotte",
    "postcode": "28203",
    "lat": 35.2132924,
    "lon": -80.8542996
  },
  {
    "street": "Cleveland Avenue",
    "housenumber": "1512",
    "city": "Charlotte",
    "postcode": "28203",
    "lat": 35.2133418,
    "lon": -80.8540669
  },
  {
    "street": "Cleveland Avenue",
    "housenumber": "1516",
    "city": "Charlotte",
    "postcode": "28203",
    "lat": 35.2133735,
    "lon": -80.8541114
  },
  {
    "street": "Cleveland Avenue",
    "housenumber": "1520",
    "city": "Charlotte",
    "postcode": "28203",
    "lat": 35.2134045,
    "lon": -80.854155
  },
  {
    "street": "Cleveland Avenue",
    "housenumber": "1524",
    "city": "Charlotte",
    "postcode": "28203",
    "lat": 35.2134392,
    "lon": -80.8541926
  },
  {
    "street": "Cleveland Avenue",
    "housenumber": "1528",
    "city": "Charlotte",
    "postcode": "28203",
    "lat": 35.213468,
    "lon": -80.8542301
  },
  {
    "street": "Cleveland Avenue",
    "housenumber": "1536",
    "city": "Charlotte",
    "postcode": "28203",
    "lat": 35.2135244,
    "lon": -80.8543075
  },
  {
    "street": "Cleveland Avenue",
    "housenumber": "1532",
    "city": "Charlotte",
    "postcode": "28203",
    "lat": 35.2135008,
    "lon": -80.8542692
  },
  {
    "street": "Cleveland Avenue",
    "housenumber": "1552",
    "city": "Charlotte",
    "postcode": "28203",
    "lat": 35.2133231,
    "lon": -80.8543366
  },
  {
    "street": "Cleveland Avenue",
    "housenumber": "1556",
    "city": "Charlotte",
    "postcode": "28203",
    "lat": 35.2133472,
    "lon": -80.8543789
  },
  {
    "street": "Cleveland Avenue",
    "housenumber": "1560",
    "city": "Charlotte",
    "postcode": "28203",
    "lat": 35.2133783,
    "lon": -80.8544186
  },
  {
    "street": "Cleveland Avenue",
    "housenumber": "1564",
    "city": "Charlotte",
    "postcode": "28203",
    "lat": 35.2134103,
    "lon": -80.8544551
  },
  {
    "street": "Cleveland Avenue",
    "housenumber": "1568",
    "city": "Charlotte",
    "postcode": "28203",
    "lat": 35.213437,
    "lon": -80.8545002
  },
  {
    "street": "Cleveland Avenue",
    "housenumber": "1572",
    "city": "Charlotte",
    "postcode": "28203",
    "lat": 35.2134664,
    "lon": -80.8545383
  },
  {
    "street": "Cleveland Avenue",
    "housenumber": "1576",
    "city": "Charlotte",
    "postcode": "28203",
    "lat": 35.213501,
    "lon": -80.8545849
  },
  {
    "street": "Louise Avenue",
    "housenumber": "933",
    "city": "Charlotte",
    "postcode": "28204",
    "lat": 35.2245809,
    "lon": -80.820365
  },
  {
    "street": "Steele Creek Road",
    "housenumber": "14154",
    "city": "Charlotte",
    "postcode": "28273",
    "lat": 35.100079,
    "lon": -80.9891981
  },
  {
    "street": "Hoover Creek Boulevard",
    "housenumber": "13425",
    "city": "Charlotte",
    "postcode": "28273",
    "lat": 35.1001382,
    "lon": -80.9901657
  }
]