[
  {
    "street": "Majestic Street",
    "housenumber": "916",
    "city": "Houston",
    "lat": 29.7718941,
    "lon": -95.3024363
  },
  {
    "street": "Pech Road",
    "housenumber": "1516",
    "city": "Houston",
    "lat": 29.7974497,
    "lon": -95.494386
  },
  {
    "street": "Brinkman Street",
    "housenumber": "3600",
    "city": "Houston",
    "lat": 29.8199487,
    "lon": -95.4152169
  },
  {
    "street": "Thomas Street",
    "housenumber": "2015",
    "city": "Houston",
    "postcode": "77009",
    "lat": 29.7767798,
    "lon": -95.3654605
  },
  {
    "street": "Gregg Street",
    "housenumber": "1700",
    "city": "Houston",
    "lat": 29.7770716,
    "lon": -95.3344605
  },
  {
    "street": "Sherman Street",
    "housenumber": "5617",
    "city": "Houston",
    "lat": 29.7430062,
    "lon": -95.3179925
  },
  {
    "street": "Stanford Street",
    "housenumber": "4001",
    "city": "Houston",
    "postcode": "77006",
    "lat": 29.7369586,
    "lon": -95.3884265
  },
  {
    "street": "Dashwood Drive",
    "housenumber": "5314",
    "city": "Houston",
    "postcode": "77081",
    "lat": 29.70801,
    "lon": -95.47327
  },
  {
    "street": "Gessner Road",
    "housenumber": "3043",
    "city": "Houston",
    "postcode": "77080",
    "lat": 29.8280879,
    "lon": -95.5458845
  },
  {
    "street": "Binz Street",
    "housenumber": "1300",
    "city": "Houston",
    "postcode": "77004",
    "lat": 29.7233769,
    "lon": -95.386876
  },
  {
    "street": "Irvington Boulevard",
    "housenumber": "6615",
    "city": "Houston",
    "lat": 29.8186114,
    "lon": -95.3616322
  },
  {
    "street": "Green Meadow Lane",
    "housenumber": "777",
    "city": "Houston",
    "lat": 29.8657335,
    "lon": -95.4181868
  },
  {
    "street": "Helmers Street",
    "housenumber": "7721",
    "city": "Houston",
    "lat": 29.8322508,
    "lon": -95.3662035
  },
  {
    "street": "Beechnut Street",
    "housenumber": "7887",
    "city": "Houston",
    "postcode": "77074",
    "lat": 29.6912455,
    "lon": -95.5251245
  },
  {
    "street": "Fulton Street",
    "housenumber": "9722",
    "city": "Houston",
    "postcode": "77076",
    "lat": 29.8477026,
    "lon": -95.3782799
  },
  {
    "street": "Hardy Street",
    "housenumber": "4820",
    "city": "Houston",
    "lat": 29.8041613,
    "lon": -95.3522625
  },
  {
    "street": "Tidwell Road",
    "housenumber": "501",
    "city": "Houston",
    "lat": 29.8478085,
    "lon": -95.368906
  },
  {
    "street": "Brinkman Street",
    "housenumber": "3600",
    "city": "Houston",
    "lat": 29.8207448,
    "lon": -95.4151438
  },
  {
    "street": "West Little York Road",
    "housenumber": "111",
    "city": "Houston",
    "lat": 29.8696041,
    "lon": -95.3991847
  },
  {
    "street": "Sunset Boulevard",
    "housenumber": "1500",
    "city": "Houston",
    "postcode": "77005",
    "lat": 29.7233673,
    "lon": -95.3983045
  },
  {
    "street": "Westview Drive",
    "housenumber": "8393",
    "city": "Houston",
    "postcode": "77055",
    "lat": 29.7987296,
    "lon": -95.5102551
  },
  {
    "street": "Tidwell Road",
    "housenumber": "912",
    "city": "Houston",
    "lat": 29.8460587,
    "lon": -95.3641041
  },
  {
    "street": "Chapman Street",
    "housenumber": "4206",
    "city": "Houston",
    "lat": 29.7993129,
    "lon": -95.3540342
  },
  {
    "street": "Kempwood Drive",
    "housenumber": "9611",
    "city": "Houston",
    "postcode": "77080",
    "lat": 29.8214771,
    "lon": -95.5304034
  },
  {
    "street": "Fannin Street",
    "housenumber": "3401",
    "city": "Houston",
    "lat": 29.7397838,
    "lon": -95.3775694
  },
  {
    "street": "Elysian Street",
    "housenumber": "4106",
    "city": "Houston",
    "lat": 29.7974084,
    "lon": -95.350954
  },
  {
    "street": "East 34th Street",
    "housenumber": "1317",
    "city": "Houston",
    "lat": 29.8174742,
    "lon": -95.3815562
  },
  {
    "street": "West 34th Street",
    "housenumber": "5999",
    "city": "Houston",
    "lat": 29.8189891,
    "lon": -95.4771186
  },
  {
    "street": "Texas Avenue",
    "housenumber": "1117",
    "city": "Houston",
    "lat": 29.7595071,
    "lon": -95.3608164
  },
  {
    "street": "East Parker Road",
    "housenumber": "610",
    "city": "Houston",
    "lat": 29.8593558,
    "lon": -95.3904023
  },
  {
    "street": "Bellaire Boulevard",
    "housenumber": "7000",
    "city": "Houston",
    "lat": 29.7048793,
    "lon": -95.507843
  },
  {
    "street": "Pech Road",
    "housenumber": "2202",
    "city": "Houston",
    "postcode": "77055",
    "lat": 29.8138105,
    "lon": -95.4955217
  },
  {
    "street": "Fuqua Street",
    "housenumber": "10050",
    "city": "Houston",
    "lat": 29.6109,
    "lon": -95.2352
  },
  {
    "street": "Bingle Road",
    "housenumber": "1706",
    "city": "Houston",
    "postcode": "77055",
    "lat": 29.8004,
    "lon": -95.5008
  },
  {
    "street": "East 32Â½ Street",
    "housenumber": "908",
    "city": "Houston",
    "lat": 29.8158192,
    "lon": -95.3870885
  },
  {
    "street": "Gramercy Street",
    "housenumber": "2727",
    "city": "Houston",
    "postcode": "77025",
    "lat": 29.7039432,
    "lon": -95.4214091
  },
  {
    "street": "Fannin Street",
    "housenumber": "7000",
    "city": "Houston",
    "postcode": "77030",
    "lat": 29.7029914,
    "lon": -95.4031517
  },
  {
    "street": "Bunker Hill Road",
    "housenumber": "1375",
    "city": "Houston",
    "postcode": "77055",
    "lat": 29.7943814,
    "lon": -95.5339474
  },
  {
    "street": "Westbranch Drive",
    "housenumber": "6969",
    "city": "Houston",
    "postcode": "77072",
    "lat": 29.7013844,
    "lon": -95.607323
  },
  {
    "street": "Wirt Road",
    "housenumber": "1504",
    "city": "Houston",
    "postcode": "77055",
    "lat": 29.7969,
    "lon": -95.4847
  },
  {
    "street": "South Post Oak Road",
    "housenumber": "13913",
    "city": "Houston",
    "postcode": "77045",
    "lat": 29.6256,
    "lon": -95.465
  },
  {
    "street": "Beechnut Street",
    "housenumber": "7887",
    "city": "Houston",
    "lat": 29.6912464,
    "lon": -95.524657
  },
  {
    "street": "Main Street",
    "housenumber": "905",
    "city": "Houston",
    "postcode": "77002",
    "lat": 29.7573653,
    "lon": -95.3644083
  },
  {
    "street": "Radio Road",
    "housenumber": "8727",
    "city": "Houston",
    "postcode": "77075",
    "lat": 29.6423494,
    "lon": -95.2562197
  },
  {
    "street": "Long Point Road",
    "housenumber": "7003",
    "city": "Houston",
    "lat": 29.8026139,
    "lon": -95.4713743
  },
  {
    "street": "Central Parkway",
    "housenumber": "2501",
    "city": "Houston",
    "lat": 29.8113906,
    "lon": -95.4659268
  },
  {
    "street": "Washington Avenue",
    "housenumber": "3402",
    "city": "Houston",
    "postcode": "77007",
    "lat": 29.7695805,
    "lon": -95.3942605
  },
  {
    "street": "Caroline Street",
    "housenumber": "5300",
    "city": "Houston",
    "postcode": "77004",
    "lat": 29.7255398,
    "lon": -95.3865811
  },
  {
    "street": "Fondren Road",
    "housenumber": "7502",
    "city": "Houston",
    "postcode": "77074",
    "lat": 29.6930202,
    "lon": -95.5147976
  },
  {
    "street": "Main Street",
    "housenumber": "6100",
    "city": "Houston",
    "lat": 29.7180438,
    "lon": -95.401918
  },
  {
    "street": "Milam Street",
    "housenumber": "2603",
    "city": "Houston",
    "postcode": "77006",
    "lat": 29.7462259,
    "lon": -95.3758404
  },
  {
    "street": "Milam Street",
    "housenumber": "2403",
    "city": "Houston",
    "postcode": "77006",
    "lat": 29.7474414,
    "lon": -95.3747871
  },
  {
    "street": "Wilchester Boulevard",
    "housenumber": "440",
    "city": "Houston",
    "postcode": "77079",
    "lat": 29.7710976,
    "lon": -95.5702937
  },
  {
    "street": "Richmond Avenue",
    "housenumber": "5509",
    "city": "Houston",
    "postcode": "77056",
    "lat": 29.7311039,
    "lon": -95.4741826
  },
  {
    "street": "Richmond Avenue",
    "housenumber": "5513",
    "city": "Houston",
    "postcode": "77056",
    "lat": 29.7310965,
    "lon": -95.4743972
  },
  {
    "street": "Richmond Avenue",
    "housenumber": "5551",
    "city": "Houston",
    "postcode": "77056",
    "lat": 29.7308557,
    "lon": -95.4762668
  },
  {
    "street": "West Bellfort Street",
    "housenumber": "4040",
    "city": "Houston",
    "lat": 29.6735272,
    "lon": -95.4439223
  },
  {
    "street": "Bissonnet Street",
    "housenumber": "7433",
    "city": "Houston",
    "postcode": "77074",
    "lat": 29.6841587,
    "lon": -95.5125031
  },
  {
    "street": "Texas Avenue",
    "housenumber": "502",
    "city": "Houston",
    "postcode": "77002",
    "lat": 29.7626286,
    "lon": -95.3672993
  },
  {
    "street": "Post Oak Boulevard",
    "housenumber": "2521",
    "city": "Houston",
    "postcode": "77056",
    "lat": 29.74123,
    "lon": -95.460606
  },
  {
    "street": "Texas Avenue",
    "housenumber": "520",
    "city": "Houston",
    "postcode": "77002",
    "lat": 29.7624308,
    "lon": -95.3671894
  },
  {
    "street": "Texas Avenue",
    "housenumber": "510",
    "city": "Houston",
    "postcode": "77002",
    "lat": 29.7617813,
    "lon": -95.3668957
  },
  {
    "street": "Louisiana Street",
    "housenumber": "500",
    "city": "Houston",
    "postcode": "77002",
    "lat": 29.7622468,
    "lon": -95.364836
  },
  {
    "street": "McGowen Street",
    "housenumber": "1006",
    "city": "Houston",
    "postcode": "77002",
    "lat": 29.7449197,
    "lon": -95.3736234
  },
  {
    "street": "Louisiana Street",
    "housenumber": "3201",
    "city": "Houston",
    "postcode": "77006",
    "lat": 29.7427972,
    "lon": -95.3797685
  },
  {
    "street": "Westheimer Road",
    "housenumber": "322",
    "city": "Houston",
    "postcode": "77006",
    "lat": 29.744737,
    "lon": -95.385631
  },
  {
    "street": "Fannin Street",
    "housenumber": "6001",
    "city": "Houston",
    "postcode": "77030",
    "lat": 29.7215907,
    "lon": -95.3909695
  },
  {
    "street": "West Gray Street",
    "housenumber": "1422",
    "city": "Houston",
    "lat": 29.7534482,
    "lon": -95.3995168
  },
  {
    "street": "West Gray Street",
    "housenumber": "2029",
    "city": "Houston",
    "lat": 29.7527739,
    "lon": -95.4099096
  },
  {
    "street": "West Gray Street",
    "housenumber": "2009",
    "city": "Houston",
    "postcode": "77019",
    "lat": 29.7526802,
    "lon": -95.4091407
  },
  {
    "street": "Peden Street",
    "housenumber": "2006",
    "city": "Houston",
    "postcode": "77019",
    "lat": 29.7524549,
    "lon": -95.4087884
  },
  {
    "street": "West Gray Street",
    "housenumber": "2047",
    "city": "Houston",
    "postcode": "77019",
    "lat": 29.7523537,
    "lon": -95.4104227
  },
  {
    "street": "West Gray Street",
    "housenumber": "2002",
    "city": "Houston",
    "postcode": "77019",
    "lat": 29.7534156,
    "lon": -95.4086256
  },
  {
    "street": "Gulf Freeway",
    "housenumber": "11695",
    "city": "Houston",
    "postcode": "77034",
    "lat": 29.6289712,
    "lon": -95.2291271
  },
  {
    "street": "South Sam Houston Parkway East",
    "housenumber": "11791",
    "city": "Houston",
    "postcode": "77089",
    "lat": 29.6021414,
    "lon": -95.2144017
  },
  {
    "street": "South Sam Houston Parkway East",
    "housenumber": "11605",
    "city": "Houston",
    "postcode": "77089",
    "lat": 29.6020201,
    "lon": -95.2151796
  },
  {
    "street": "Memorial Drive",
    "housenumber": "12448",
    "city": "Houston",
    "postcode": "77024",
    "lat": 29.7666846,
    "lon": -95.5491108
  },
  {
    "street": "Memorial Drive",
    "housenumber": "12500",
    "city": "Lantern Lane",
    "postcode": "77024",
    "lat": 29.7664913,
    "lon": -95.550248
  },
  {
    "street": "Memorial Drive",
    "housenumber": "12516",
    "city": "Houston",
    "postcode": "77024",
    "lat": 29.7670296,
    "lon": -95.5515031
  },
  {
    "street": "Chimney Rock Road",
    "housenumber": "3111",
    "city": "Houston",
    "postcode": "77056",
    "lat": 29.7328,
    "lon": -95.476196
  },
  {
    "street": "Westheimer Road",
    "housenumber": "9600",
    "city": "Houston",
    "lat": 29.7382774,
    "lon": -95.5353501
  },
  {
    "street": "Bissonnet",
    "housenumber": "4040",
    "city": "Houston",
    "postcode": "77005",
    "lat": 29.7211902,
    "lon": -95.4425282
  },
  {
    "street": "Richmond Avenue",
    "housenumber": "3836",
    "city": "Houston",
    "postcode": "77027-5802",
    "lat": 29.734115,
    "lon": -95.4396153
  },
  {
    "street": "Bissonnet Street",
    "housenumber": "4080",
    "city": "Houston",
    "postcode": "77005",
    "lat": 29.7210491,
    "lon": -95.4427831
  },
  {
    "street": "Richmond Avenue",
    "housenumber": "9369",
    "city": "Houston",
    "postcode": "77063",
    "lat": 29.7281533,
    "lon": -95.5297137
  },
  {
    "street": "Westheimer Road",
    "housenumber": "12225",
    "city": "Houston",
    "postcode": "77077",
    "lat": 29.735632,
    "lon": -95.6074374
  },
  {
    "street": "Vollmer Road",
    "housenumber": "2954",
    "city": "Houston",
    "postcode": "77092",
    "lat": 29.815491,
    "lon": -95.4499485
  },
  {
    "street": "Vollmer Road",
    "housenumber": "2955",
    "city": "Houston",
    "postcode": "77092",
    "lat": 29.8154811,
    "lon": -95.4525287
  },
  {
    "street": "Graustark Street",
    "housenumber": "5404",
    "city": "Houston",
    "postcode": "77006",
    "lat": 29.7324188,
    "lon": -95.3950126
  },
  {
    "street": "Woodway Drive",
    "housenumber": "5767",
    "city": "Houston",
    "postcode": "77057",
    "lat": 29.7601049,
    "lon": -95.4824123
  },
  {
    "street": "Memorial Drive",
    "housenumber": "5818",
    "city": "Houston",
    "lat": 29.7617952,
    "lon": -95.4207773
  },
  {
    "street": "Memorial Drive",
    "housenumber": "5535",
    "city": "Houston",
    "postcode": "77007",
    "lat": 29.7610851,
    "lon": -95.4172699
  },
  {
    "street": "Memorial Drive",
    "housenumber": "5814",
    "city": "Houston",
    "lat": 29.7617945,
    "lon": -95.4206458
  },
  {
    "street": "East 11th Street",
    "housenumber": "645",
    "city": "Houston",
    "lat": 29.7910034,
    "lon": -95.3902683
  },
  {
    "street": "Studewood Street",
    "housenumber": "933",
    "city": "Houston",
    "postcode": "77009",
    "lat": 29.7887188,
    "lon": -95.3880842
  },
  {
    "street": "East 11th Street",
    "housenumber": "643",
    "city": "Houston",
    "lat": 29.7909987,
    "lon": -95.3901234
  },
  {
    "street": "Waugh Drive",
    "housenumber": "570",
    "city": "Houston",
    "postcode": "77019",
    "lat": 29.7597835,
    "lon": -95.3989269
  },
  {
    "street": "Main Street",
    "housenumber": "705",
    "city": "Houston",
    "postcode": "77002",
    "lat": 29.7589071,
    "lon": -95.3629581
  },
  {
    "street": "Main Street",
    "housenumber": "705",
    "city": "Houston",
    "postcode": "77002",
    "lat": 29.7589677,
    "lon": -95.3631083
  },
  {
    "street": "Hillcroft Avenue",
    "housenumber": "10424",
    "city": "Houston",
    "postcode": "77096",
    "lat": 29.6677042,
    "lon": -95.4933838
  },
  {
    "street": "Waugh Drive",
    "housenumber": "2010",
    "city": "Houston",
    "postcode": "77006",
    "lat": 29.7500407,
    "lon": -95.3965998
  },
  {
    "street": "6th Street",
    "housenumber": "3337",
    "city": "Houston",
    "lat": 54.4016156,
    "lon": -126.6490764
  },
  {
    "street": "Town & Country Boulevard",
    "housenumber": "818",
    "city": "Houston",
    "lat": 29.7816673,
    "lon": -95.5601511
  },
  {
    "street": "San Felipe Street",
    "housenumber": "5016",
    "city": "Houston",
    "postcode": "77056",
    "lat": 29.751148,
    "lon": -95.4624535
  },
  {
    "street": "Westheimer Road",
    "housenumber": "3747",
    "city": "Houston",
    "postcode": "77027",
    "lat": 29.741028,
    "lon": -95.441208
  },
  {
    "street": "Weslayan Street",
    "housenumber": "5330",
    "city": "Houston",
    "postcode": "77005",
    "lat": 29.7240405,
    "lon": -95.4426878
  },
  {
    "street": "Westheimer Road",
    "housenumber": "3641",
    "city": "Houston",
    "postcode": "77027",
    "lat": 29.7413721,
    "lon": -95.4371654
  },
  {
    "street": "Westheimer Road",
    "housenumber": "3703",
    "city": "Houston",
    "postcode": "77027",
    "lat": 29.7414233,
    "lon": -95.4377581
  },
  {
    "street": "Westheimer Road",
    "housenumber": "3747",
    "city": "Houston",
    "postcode": "77027",
    "lat": 29.7411601,
    "lon": -95.4412154
  },
  {
    "street": "Fannin Street",
    "housenumber": "6600",
    "city": "Houston",
    "postcode": "77030",
    "lat": 29.7097296,
    "lon": -95.4011622
  },
  {
    "street": "Main Street",
    "housenumber": "6605",
    "city": "Houston",
    "postcode": "77030",
    "lat": 29.7099195,
    "lon": -95.4018918
  },
  {
    "street": "Dryden Road",
    "housenumber": "1709",
    "city": "Houston",
    "postcode": "77030",
    "lat": 29.7098624,
    "lon": -95.4013459
  },
  {
    "street": "Fannin Street",
    "housenumber": "6622",
    "city": "Houston",
    "postcode": "77030",
    "lat": 29.7093604,
    "lon": -95.4014478
  },
  {
    "street": "Main Street",
    "housenumber": "6609",
    "city": "Houston",
    "postcode": "77030",
    "lat": 29.7098205,
    "lon": -95.4019776
  },
  {
    "street": "Fannin Street",
    "housenumber": "6600",
    "city": "Houston",
    "postcode": "77030",
    "lat": 29.7096388,
    "lon": -95.4012266
  },
  {
    "street": "Main Street",
    "housenumber": "6601",
    "city": "Houston",
    "postcode": "77030",
    "lat": 29.7100977,
    "lon": -95.4017536
  },
  {
    "street": "Bertner Avenue",
    "housenumber": "6770",
    "city": "Houston",
    "postcode": "77030",
    "lat": 29.7079305,
    "lon": -95.399419
  },
  {
    "street": "Kirby Drive",
    "housenumber": "8130",
    "city": "Houston",
    "postcode": "77054",
    "lat": 29.6902257,
    "lon": -95.4151183
  },
  {
    "street": "Kirby Drive",
    "housenumber": "8202",
    "city": "Houston",
    "postcode": "77054",
    "lat": 29.6913698,
    "lon": -95.4136404
  },
  {
    "street": "West Holcombe Boulevard",
    "housenumber": "2116",
    "city": "Houston",
    "postcode": "77030-3304",
    "lat": 29.7065501,
    "lon": -95.4059359
  },
  {
    "street": "Holcombe Boulevard",
    "housenumber": "1600",
    "city": "Houston",
    "postcode": "77030",
    "lat": 29.7065646,
    "lon": -95.4053495
  },
  {
    "street": "John Freeman Boulevard",
    "housenumber": "1133",
    "city": "Houston",
    "postcode": "77030",
    "lat": 29.711878,
    "lon": -95.3968178
  },
  {
    "street": "Whittington Drive",
    "housenumber": "12655",
    "city": "Houston",
    "postcode": "77077",
    "lat": 29.7460019,
    "lon": -95.6080363
  },
  {
    "street": "Lakes of Parkway",
    "housenumber": "1495",
    "city": "Houston",
    "postcode": "77077",
    "lat": 29.7552174,
    "lon": -95.6329265
  },
  {
    "street": "Imogene Street",
    "housenumber": "4814",
    "city": "Houston",
    "postcode": "77096",
    "lat": 29.6835555,
    "lon": -95.4618559
  },
  {
    "street": "Meyerland Plaza",
    "housenumber": "710",
    "city": "Houston",
    "postcode": "77096",
    "lat": 29.6888717,
    "lon": -95.4621141
  },
  {
    "street": "Meyerland Plaza",
    "housenumber": "708",
    "city": "Houston",
    "postcode": "77096",
    "lat": 29.6888694,
    "lon": -95.4619612
  },
  {
    "street": "Jason Street",
    "housenumber": "4807",
    "city": "Houston",
    "postcode": "77096",
    "lat": 29.684213,
    "lon": -95.4614715
  },
  {
    "street": "Sager Drive",
    "housenumber": "8926",
    "city": "Houston",
    "postcode": "77096",
    "lat": 29.6809972,
    "lon": -95.4670242
  },
  {
    "street": "Braesvalley Drive",
    "housenumber": "4827",
    "city": "Houston",
    "postcode": "77096",
    "lat": 29.6814117,
    "lon": -95.4624475
  },
  {
    "street": "Sager Drive",
    "housenumber": "8918",
    "city": "Houston",
    "postcode": "77096",
    "lat": 29.681463,
    "lon": -95.467108
  },
  {
    "street": "Braesvalley Drive",
    "housenumber": "4815",
    "city": "Houston",
    "postcode": "77096",
    "lat": 29.6819641,
    "lon": -95.461785
  },
  {
    "street": "Braesvalley Drive",
    "housenumber": "4707",
    "city": "Houston",
    "postcode": "77096",
    "lat": 29.6827682,
    "lon": -95.4597172
  },
  {
    "street": "Braesvalley Drive",
    "housenumber": "5002",
    "city": "Houston",
    "postcode": "77096",
    "lat": 29.6811041,
    "lon": -95.4653712
  },
  {
    "street": "Braesvalley Drive",
    "housenumber": "5015",
    "city": "Houston",
    "postcode": "77096",
    "lat": 29.6805495,
    "lon": -95.4662375
  },
  {
    "street": "Braesvalley Drive",
    "housenumber": "5031",
    "city": "Houston",
    "postcode": "77096",
    "lat": 29.6804706,
    "lon": -95.4674741
  },
  {
    "street": "West Loop South",
    "housenumber": "8715",
    "city": "Houston",
    "postcode": "77096",
    "lat": 29.6862395,
    "lon": -95.4566508
  },
  {
    "street": "Beechnut Street",
    "housenumber": "4672",
    "city": "Houston",
    "lat": 29.6895343,
    "lon": -95.4576486
  },
  {
    "street": "Tomball Parkway",
    "housenumber": "21143",
    "city": "Houston",
    "postcode": "77070",
    "lat": 29.9970974,
    "lon": -95.5818835
  },
  {
    "street": "Birch Bough Court",
    "housenumber": "4918",
    "city": "Kingwood",
    "lat": 30.0782203,
    "lon": -95.1676384
  },
  {
    "street": "Hollister Street",
    "housenumber": "5770",
    "city": "Houston",
    "postcode": "77040",
    "lat": 29.8511742,
    "lon": -95.5043856
  },
  {
    "street": "Tuam Street",
    "housenumber": "202",
    "city": "Houston",
    "postcode": "77006",
    "lat": 29.7473922,
    "lon": -95.3823847
  },
  {
    "street": "West Gray Street",
    "housenumber": "1953",
    "city": "Houston",
    "postcode": "77019",
    "lat": 29.752875,
    "lon": -95.406604
  },
  {
    "street": "Jackwood Street",
    "housenumber": "5034",
    "city": "Houston",
    "postcode": "77096",
    "lat": 29.685047,
    "lon": -95.467206
  },
  {
    "street": "Saint James Place",
    "housenumber": "1770",
    "city": "Houston",
    "postcode": "77056",
    "lat": 29.7481252,
    "lon": -95.473443
  },
  {
    "street": "South Shepherd Drive",
    "housenumber": "2922",
    "city": "Houston",
    "postcode": "77098",
    "lat": 29.7392004,
    "lon": -95.4111693
  },
  {
    "street": "Montrose Boulevard",
    "housenumber": "5020",
    "city": "Houston",
    "lat": 29.7280253,
    "lon": -95.3914063
  },
  {
    "street": "Franklin Street",
    "housenumber": "917",
    "city": "Houston",
    "lat": 29.7633158,
    "lon": -95.3602521
  },
  {
    "street": "Airline Drive",
    "housenumber": "6741",
    "city": "Houston",
    "postcode": "77076",
    "lat": 29.8601663,
    "lon": -95.3857075
  },
  {
    "street": "Tomball Parkway",
    "housenumber": "17739",
    "city": "Houston",
    "postcode": "77064",
    "lat": 29.9594209,
    "lon": -95.547023
  },
  {
    "street": "Tomball Parkway",
    "housenumber": "17731",
    "city": "Houston",
    "postcode": "77064",
    "lat": 29.9593409,
    "lon": -95.5471202
  },
  {
    "street": "South Shepherd Drive",
    "housenumber": "2902",
    "city": "Houston",
    "postcode": "77098",
    "lat": 29.739609,
    "lon": -95.411149
  },
  {
    "street": "South Shepherd Drive",
    "housenumber": "2934",
    "city": "Houston",
    "postcode": "77098",
    "lat": 29.738834,
    "lon": -95.411154
  },
  {
    "street": "West Gray Street",
    "housenumber": "1946",
    "city": "Houston",
    "lat": 29.753808,
    "lon": -95.4061817
  },
  {
    "street": "Westheimer Road",
    "housenumber": "2071",
    "city": "Houston",
    "postcode": "77098",
    "lat": 29.742229,
    "lon": -95.410432
  },
  {
    "street": "Westheimer Road",
    "housenumber": "2810",
    "city": "Houston",
    "postcode": "77098",
    "lat": 29.742563,
    "lon": -95.421236
  },
  {
    "street": "Bissonnet Street",
    "housenumber": "3902",
    "city": "Houston",
    "lat": 29.722736,
    "lon": -95.439776
  },
  {
    "street": "Bissonnet Street",
    "housenumber": "3900",
    "city": "Houston",
    "lat": 29.722627,
    "lon": -95.439482
  },
  {
    "street": "Northwest Freeway",
    "housenumber": "14604",
    "city": "Houston",
    "postcode": "77040",
    "lat": 29.8665083,
    "lon": -95.5378558
  },
  {
    "street": "East Tidwell Road",
    "housenumber": "906",
    "city": "Houston",
    "lat": 29.8450281,
    "lon": -95.3861183
  },
  {
    "street": "Westheimer Road",
    "housenumber": "4715",
    "city": "Houston",
    "lat": 29.740553,
    "lon": -95.456784
  },
  {
    "street": "Sterrett Street",
    "housenumber": "1305",
    "city": "Houston",
    "postcode": "77002",
    "lat": 29.7675227,
    "lon": -95.3541221
  },
  {
    "street": "Eastside Street",
    "housenumber": "3131",
    "city": "Houston",
    "lat": 29.737335,
    "lon": -95.424517
  },
  {
    "street": "Eastside Street",
    "housenumber": "3310",
    "city": "Houston",
    "lat": 29.736231,
    "lon": -95.42501
  },
  {
    "street": "Richmond Avenue",
    "housenumber": "3302",
    "city": "Houston",
    "postcode": "77098",
    "lat": 29.73442,
    "lon": -95.426643
  },
  {
    "street": "Beechnut Street",
    "housenumber": "4738",
    "city": "Houston",
    "lat": 29.689606,
    "lon": -95.460311
  },
  {
    "street": "Beechnut Street",
    "housenumber": "4946",
    "city": "Houston",
    "lat": 29.6895768,
    "lon": -95.4647808
  },
  {
    "street": "West Loop South",
    "housenumber": "5475",
    "city": "Houston",
    "postcode": "77081",
    "lat": 29.722989,
    "lon": -95.458715
  },
  {
    "street": "Beechnut Street",
    "housenumber": "4668",
    "city": "Houston",
    "postcode": "77096",
    "lat": 29.689483,
    "lon": -95.45718
  },
  {
    "street": "Meyerland Plaza Mall",
    "housenumber": "700",
    "city": "Houston",
    "postcode": "77096",
    "lat": 29.687295,
    "lon": -95.46062
  },
  {
    "street": "Southwest Freeway",
    "housenumber": "3900",
    "city": "Houston",
    "postcode": "77046",
    "lat": 29.730123,
    "lon": -95.439471
  },
  {
    "street": "Weslayan",
    "housenumber": "3651",
    "city": "Houston",
    "postcode": "77046",
    "lat": 29.7338,
    "lon": -95.441069
  },
  {
    "street": "Richmond Avenue",
    "housenumber": "4001",
    "city": "Houston",
    "postcode": "77027",
    "lat": 29.73224,
    "lon": -95.441793
  },
  {
    "street": "Richmond Avenue",
    "housenumber": "3995",
    "city": "Houston",
    "lat": 29.732151,
    "lon": -95.441158
  },
  {
    "street": "Jason Street",
    "housenumber": "4831",
    "city": "Houston",
    "postcode": "77096",
    "lat": 29.6836725,
    "lon": -95.4627666
  },
  {
    "street": "Uptown Park Boulevard",
    "housenumber": "1151",
    "city": "Houston",
    "postcode": "77056",
    "lat": 29.7543327,
    "lon": -95.4572648
  },
  {
    "street": "West Loop South",
    "housenumber": "1001",
    "city": "Houston",
    "lat": 29.7590372,
    "lon": -95.4545818
  },
  {
    "street": "Post Oak Boulevard",
    "housenumber": "2515",
    "city": "Houston",
    "postcode": "77056",
    "lat": 29.741228,
    "lon": -95.460457
  },
  {
    "street": "Memorial Drive",
    "housenumber": "5710",
    "city": "Houston",
    "lat": 29.7617671,
    "lon": -95.4195366
  },
  {
    "street": "Memorial Drive",
    "housenumber": "5710",
    "city": "Houston",
    "lat": 29.7617676,
    "lon": -95.419459
  },
  {
    "street": "Uptown Park Boulevard",
    "housenumber": "1131",
    "city": "Houston",
    "lat": 29.7558482,
    "lon": -95.4564987
  },
  {
    "street": "Uptown Park Boulevard",
    "housenumber": "1101",
    "city": "Houston",
    "lat": 29.756166,
    "lon": -95.4570241
  },
  {
    "street": "Scotland Street",
    "housenumber": "4326B",
    "city": "Houston",
    "postcode": "77007",
    "lat": 29.7640771,
    "lon": -95.4042403
  },
  {
    "street": "Scotland Street",
    "housenumber": "4326A",
    "city": "Houston",
    "postcode": "77007",
    "lat": 29.7640747,
    "lon": -95.4043287
  },
  {
    "street": "Memorial Drive",
    "housenumber": "6028",
    "city": "Houston",
    "lat": 29.762773,
    "lon": -95.423955
  },
  {
    "street": "Uptown Park Boulevard",
    "housenumber": "1121",
    "city": "Houston",
    "lat": 29.7570434,
    "lon": -95.4566572
  },
  {
    "street": "Richmond Avenue",
    "housenumber": "2900",
    "city": "Houston",
    "lat": 29.734488,
    "lon": -95.422512
  },
  {
    "street": "North Braeswood Boulevard",
    "housenumber": "5022",
    "city": "Houston",
    "postcode": "77096",
    "lat": 29.680036,
    "lon": -95.466733
  },
  {
    "street": "North Braeswood Boulevard",
    "housenumber": "5130",
    "city": "Houston",
    "lat": 29.679464,
    "lon": -95.469943
  },
  {
    "street": "North Braeswood Boulevard",
    "housenumber": "5230",
    "city": "Houston",
    "postcode": "77096",
    "lat": 29.678704,
    "lon": -95.474119
  },
  {
    "street": "North Braeswood Boulevard",
    "housenumber": "5202",
    "city": "Houston",
    "postcode": "77096",
    "lat": 29.6790678,
    "lon": -95.4721497
  },
  {
    "street": "North Braeswood Boulevard",
    "housenumber": "5258",
    "city": "Houston",
    "postcode": "77096",
    "lat": 29.678371,
    "lon": -95.476216
  },
  {
    "street": "Craighead Drive",
    "housenumber": "10825",
    "city": "Houston",
    "lat": 29.663951,
    "lon": -95.445391
  },
  {
    "street": "North Braeswood Boulevard",
    "housenumber": "5014",
    "city": "Houston",
    "postcode": "77096",
    "lat": 29.680172,
    "lon": -95.4661433
  },
  {
    "street": "North Braeswood Boulevard",
    "housenumber": "4910",
    "city": "Houston",
    "postcode": "77096",
    "lat": 29.6805495,
    "lon": -95.4631231
  },
  {
    "street": "North Braeswood Boulevard",
    "housenumber": "4906",
    "city": "Houston",
    "postcode": "77096",
    "lat": 29.680652,
    "lon": -95.4628066
  },
  {
    "street": "Beechnut Street",
    "housenumber": "4774",
    "city": "Houston",
    "lat": 29.6896008,
    "lon": -95.4608348
  },
  {
    "street": "Beechnut Street",
    "housenumber": "4782",
    "city": "Houston",
    "lat": 29.6895981,
    "lon": -95.4611147
  },
  {
    "street": "Beechnut Street",
    "housenumber": "4834",
    "city": "Houston",
    "lat": 29.6895924,
    "lon": -95.4616888
  },
  {
    "street": "Beechnut Street",
    "housenumber": "4798",
    "city": "Houston",
    "lat": 29.6895974,
    "lon": -95.4611861
  },
  {
    "street": "Beechnut Street",
    "housenumber": "4934",
    "city": "Houston",
    "lat": 29.6895689,
    "lon": -95.4640859
  },
  {
    "street": "Beechnut Street",
    "housenumber": "4990",
    "city": "Houston",
    "lat": 29.689558,
    "lon": -95.46519
  },
  {
    "street": "Westheimer Road",
    "housenumber": "5006",
    "city": "Houston",
    "lat": 29.741507,
    "lon": -95.4614663
  },
  {
    "street": "Bissonnet Street",
    "housenumber": "11880",
    "city": "Houston",
    "postcode": "77099",
    "lat": 29.6755752,
    "lon": -95.5869874
  },
  {
    "street": "Richmond Avenue",
    "housenumber": "5070",
    "city": "Houston",
    "postcode": "77056",
    "lat": 29.7328731,
    "lon": -95.4629351
  },
  {
    "street": "Westheimer Road",
    "housenumber": "8401",
    "city": "Houston",
    "postcode": "77063",
    "lat": 29.7365456,
    "lon": -95.5145013
  },
  {
    "street": "Hillcroft Avenue",
    "housenumber": "6001",
    "city": "Houston",
    "postcode": "77081",
    "lat": 29.7165914,
    "lon": -95.4982746
  },
  {
    "street": "Hillcroft Avenue",
    "housenumber": "5902",
    "city": "Houston",
    "postcode": "77036",
    "lat": 29.7183116,
    "lon": -95.5011142
  },
  {
    "street": "Tomball Parkway",
    "housenumber": "17190",
    "city": "Houston",
    "postcode": "77064",
    "lat": 29.9552135,
    "lon": -95.5386338
  },
  {
    "street": "Stella Link Road",
    "housenumber": "9123",
    "city": "Houston",
    "postcode": "77025",
    "lat": 29.682824,
    "lon": -95.439176
  },
  {
    "street": "White Oak Drive",
    "housenumber": "2912",
    "city": "Houston",
    "postcode": "77007",
    "lat": 29.7819002,
    "lon": -95.3898742
  },
  {
    "street": "Milam Street",
    "housenumber": "301",
    "city": "Houston",
    "postcode": "77002",
    "lat": 29.7627074,
    "lon": -95.3621281
  },
  {
    "street": "Gulfton Street",
    "housenumber": "5550",
    "city": "Houston",
    "postcode": "77081",
    "lat": 29.716874,
    "lon": -95.476899
  },
  {
    "street": "Richmond Avenue",
    "housenumber": "5587",
    "city": "Houston",
    "postcode": "77056",
    "lat": 29.7308721,
    "lon": -95.4760679
  },
  {
    "street": "Richmond Avenue",
    "housenumber": "5216",
    "city": "Houston",
    "postcode": "77056",
    "lat": 29.73199,
    "lon": -95.467852
  },
  {
    "street": "Buffalo Speedway",
    "housenumber": "5115",
    "city": "Houston",
    "postcode": "77005",
    "lat": 29.728194,
    "lon": -95.427617
  },
  {
    "street": "Kirby Drive",
    "housenumber": "3963",
    "city": "Houston",
    "lat": 29.731283,
    "lon": -95.418191
  },
  {
    "street": "Greenbriar Drive",
    "housenumber": "3745",
    "city": "Houston",
    "postcode": "77098",
    "lat": 29.732781,
    "lon": -95.412748
  },
  {
    "street": "West Holcombe Boulevard",
    "housenumber": "3191",
    "city": "Houston",
    "lat": 29.705819,
    "lon": -95.426676
  },
  {
    "street": "Tomball Parkway",
    "housenumber": "17735",
    "city": "Houston",
    "postcode": "77064",
    "lat": 29.9593809,
    "lon": -95.5470716
  },
  {
    "street": "Thompson Street",
    "housenumber": "1816",
    "city": "Houston",
    "postcode": "77007",
    "lat": 29.7763705,
    "lon": -95.4041468
  },
  {
    "street": "West Gray Street",
    "housenumber": "1996",
    "city": "Houston",
    "postcode": "77019",
    "lat": 29.753388,
    "lon": -95.408209
  },
  {
    "street": "West Gray Street",
    "housenumber": "1997",
    "city": "Houston",
    "lat": 29.752735,
    "lon": -95.408213
  },
  {
    "street": "Katy Freeway",
    "housenumber": "9774",
    "city": "Houston",
    "postcode": "77055",
    "lat": 29.7857504,
    "lon": -95.5366658
  },
  {
    "street": "Kingwood Drive",
    "housenumber": "1714",
    "city": "Kingwood",
    "postcode": "77339",
    "lat": 30.0501052,
    "lon": -95.2298502
  },
  {
    "street": "Northpark Drive",
    "housenumber": "330",
    "city": "Kingwood",
    "postcode": "77339",
    "lat": 30.0682243,
    "lon": -95.2429249
  },
  {
    "street": "Richmond Avenue",
    "housenumber": "3821",
    "city": "Houston",
    "lat": 29.732293,
    "lon": -95.439316
  },
  {
    "street": "Richmond Avenue",
    "housenumber": "3819",
    "city": "Houston",
    "postcode": "77027",
    "lat": 29.732283,
    "lon": -95.439119
  },
  {
    "street": "South Shepherd Drive",
    "housenumber": "2646",
    "city": "Houston",
    "lat": 29.740914,
    "lon": -95.410956
  },
  {
    "street": "South Shepherd Drive",
    "housenumber": "2621",
    "city": "Houston",
    "lat": 29.7410985,
    "lon": -95.4103737
  },
  {
    "street": "South Shepherd Drive",
    "housenumber": "2621",
    "city": "Houston",
    "lat": 29.7410213,
    "lon": -95.4103762
  },
  {
    "street": "South Shepherd Drive",
    "housenumber": "2621",
    "city": "Houston",
    "lat": 29.7409007,
    "lon": -95.41038
  },
  {
    "street": "Braesmain Drive",
    "housenumber": "8205",
    "city": "Houston",
    "postcode": "77025",
    "lat": 29.6937443,
    "lon": -95.4184274
  },
  {
    "street": "Chatterton Drive",
    "housenumber": "10511",
    "city": "Houston",
    "postcode": "77043",
    "lat": 29.7991672,
    "lon": -95.5558405
  },
  {
    "street": "West Gray Street",
    "housenumber": "1963",
    "city": "Houston",
    "lat": 29.752761,
    "lon": -95.406863
  },
  {
    "street": "West Gray Street",
    "housenumber": "1992",
    "city": "Houston",
    "postcode": "77019",
    "lat": 29.753435,
    "lon": -95.407888
  },
  {
    "street": "West Gray Street",
    "housenumber": "1984",
    "city": "Houston",
    "postcode": "77019",
    "lat": 29.75344,
    "lon": -95.407765
  },
  {
    "street": "North Terminal Road",
    "housenumber": "2899",
    "city": "Houston",
    "postcode": "77032",
    "lat": 29.9854602,
    "lon": -95.3353196
  },
  {
    "street": "East Crosstimbers Street",
    "housenumber": "103A",
    "city": "Houston",
    "postcode": "77022",
    "lat": 29.8287428,
    "lon": -95.3758397
  },
  {
    "street": "Reid Street",
    "housenumber": "1412",
    "city": "Houston",
    "lat": 29.814712,
    "lon": -95.3563275
  },
  {
    "street": "Post Oak Boulevard",
    "housenumber": "2501",
    "city": "Houston",
    "lat": 29.7419234,
    "lon": -95.460148
  },
  {
    "street": "Moore Street",
    "housenumber": "3822",
    "city": "Houston",
    "postcode": "77009",
    "lat": 29.7956664,
    "lon": -95.3599485
  },
  {
    "street": "Southwest Freeway",
    "housenumber": "10150",
    "city": "Houston",
    "postcode": "77074",
    "lat": 29.6687081,
    "lon": -95.5509792
  },
  {
    "street": "Southwest Freeway",
    "housenumber": "10002",
    "city": "Houston",
    "postcode": "77074",
    "lat": 29.6692694,
    "lon": -95.5502649
  },
  {
    "street": "Memorial Drive",
    "housenumber": "5900",
    "city": "Houston",
    "lat": 29.7617739,
    "lon": -95.4212785
  },
  {
    "street": "South Loop West",
    "housenumber": "3440",
    "city": "Houston",
    "postcode": "77025",
    "lat": 29.6790768,
    "lon": -95.4305635
  },
  {
    "street": "South Loop West",
    "housenumber": "3440",
    "city": "Houston",
    "postcode": "77025",
    "lat": 29.6792347,
    "lon": -95.4297181
  },
  {
    "street": "South Loop West",
    "housenumber": "2990",
    "city": "Houston",
    "postcode": "77054",
    "lat": 29.6785256,
    "lon": -95.4228643
  },
  {
    "street": "West 43rd Street",
    "housenumber": "6421",
    "city": "Houston",
    "postcode": "77092",
    "lat": 29.8320302,
    "lon": -95.4856151
  },
  {
    "street": "Gessner Road",
    "housenumber": "929",
    "city": "Houston",
    "postcode": "77024",
    "lat": 29.7823372,
    "lon": -95.5453664
  },
  {
    "street": "Westheimer Road",
    "housenumber": "2630",
    "city": "Houston",
    "lat": 29.742409,
    "lon": -95.41975
  },
  {
    "street": "Westheimer Road",
    "housenumber": "2407",
    "city": "Houston",
    "lat": 29.741935,
    "lon": -95.416601
  },
  {
    "street": "South Shepherd Drive",
    "housenumber": "2611",
    "city": "Houston",
    "postcode": "77098",
    "lat": 29.742016,
    "lon": -95.410482
  },
  {
    "street": "Westheimer Road",
    "housenumber": "2071",
    "city": "Houston",
    "lat": 29.742248,
    "lon": -95.410227
  },
  {
    "street": "Westheimer Road",
    "housenumber": "1665",
    "city": "Houston",
    "lat": 29.742644,
    "lon": -95.401782
  },
  {
    "street": "South Shepherd Drive",
    "housenumber": "3518",
    "city": "Houston",
    "postcode": "77098",
    "lat": 29.734463,
    "lon": -95.410989
  },
  {
    "street": "South Shepherd Drive",
    "housenumber": "3514",
    "city": "Houston",
    "lat": 29.734532,
    "lon": -95.410981
  },
  {
    "street": "Richmond Avenue",
    "housenumber": "2107",
    "city": "Houston",
    "postcode": "77098",
    "lat": 29.733986,
    "lon": -95.411029
  },
  {
    "street": "Westheimer Road",
    "housenumber": "9630",
    "city": "Houston",
    "postcode": "77063",
    "lat": 29.7386122,
    "lon": -95.5359184
  },
  {
    "street": "Loch Lomond Drive",
    "housenumber": "5003",
    "city": "Houston",
    "postcode": "77096",
    "lat": 29.681589,
    "lon": -95.4654936
  },
  {
    "street": "Loch Lomond Drive",
    "housenumber": "5014",
    "city": "Houston",
    "postcode": "77096",
    "lat": 29.6819992,
    "lon": -95.4663063
  },
  {
    "street": "Kirby Drive",
    "housenumber": "8230",
    "city": "Houston",
    "postcode": "77054",
    "lat": 29.6894322,
    "lon": -95.4134327
  },
  {
    "street": "South Loop West",
    "housenumber": "3246",
    "city": "Houston",
    "postcode": "77025",
    "lat": 29.6785259,
    "lon": -95.4276225
  },
  {
    "street": "Louetta Road",
    "housenumber": "13040",
    "city": "Cypress",
    "postcode": "77429",
    "lat": 29.9962624,
    "lon": -95.6212834
  },
  {
    "street": "Louetta Road",
    "housenumber": "13140",
    "city": "Cypress",
    "postcode": "77429-5756",
    "lat": 29.9961648,
    "lon": -95.6239173
  },
  {
    "street": "Louetta Road",
    "housenumber": "13050",
    "city": "Cypress",
    "postcode": "77429",
    "lat": 29.9960254,
    "lon": -95.6220022
  },
  {
    "street": "Tomball Parkway",
    "housenumber": "22511",
    "city": "Houston",
    "postcode": "77070-1532",
    "lat": 30.0101868,
    "lon": -95.5906129
  },
  {
    "street": "Tomball Parkway",
    "housenumber": "22509",
    "city": "Houston",
    "lat": 30.009846,
    "lon": -95.5904165
  },
  {
    "street": "Tomball Parkway",
    "housenumber": "22503",
    "city": "Houston",
    "lat": 30.0095643,
    "lon": -95.5894757
  },
  {
    "street": "Spring Cypress Road",
    "housenumber": "11022",
    "city": "Tomball",
    "postcode": "77375",
    "lat": 30.0134,
    "lon": -95.5924677
  },
  {
    "street": "Louetta Road",
    "housenumber": "13050",
    "city": "Cypress",
    "postcode": "77429",
    "lat": 29.996194,
    "lon": -95.6215941
  },
  {
    "street": "Grant Road",
    "housenumber": "13230",
    "city": "Cypress",
    "postcode": "77429",
    "lat": 29.9956371,
    "lon": -95.6241576
  },
  {
    "street": "Grant Road",
    "housenumber": "13230",
    "city": "Cypress",
    "postcode": "77429",
    "lat": 29.9956707,
    "lon": -95.6241965
  },
  {
    "street": "Louetta",
    "housenumber": "13135",
    "city": "Cypress",
    "postcode": "77429",
    "lat": 29.9943774,
    "lon": -95.6215914
  },
  {
    "street": "Cypress Creek Parkway",
    "housenumber": "7532",
    "city": "Houston",
    "lat": 29.9660298,
    "lon": -95.5410891
  },
  {
    "street": "Cypress Creek Parkway",
    "housenumber": "7606",
    "city": "Houston",
    "postcode": "77070",
    "lat": 29.9641186,
    "lon": -95.5437566
  },
  {
    "street": "Cypress Creek Parkway",
    "housenumber": "7600",
    "city": "Houston",
    "postcode": "77070",
    "lat": 29.9642162,
    "lon": -95.5435634
  },
  {
    "street": "North Braeswood Boulevard",
    "housenumber": "4814",
    "city": "Houston",
    "postcode": "77096",
    "lat": 29.6813753,
    "lon": -95.4617662
  },
  {
    "street": "Jason Street",
    "housenumber": "4903",
    "city": "Houston",
    "postcode": "77096",
    "lat": 29.6834084,
    "lon": -95.4637272
  },
  {
    "street": "Jason Street",
    "housenumber": "4907",
    "city": "Houston",
    "postcode": "77096",
    "lat": 29.6833527,
    "lon": -95.4639924
  },
  {
    "street": "Jason Street",
    "housenumber": "4922",
    "city": "Houston",
    "postcode": "77096",
    "lat": 29.6837908,
    "lon": -95.4651146
  },
  {
    "street": "Jason Street",
    "housenumber": "5006",
    "city": "Houston",
    "postcode": "77096",
    "lat": 29.6837883,
    "lon": -95.4658375
  },
  {
    "street": "Grape Street",
    "housenumber": "5015",
    "city": "Houston",
    "postcode": "77096",
    "lat": 29.6857572,
    "lon": -95.4656959
  },
  {
    "street": "Jason Street",
    "housenumber": "5022",
    "city": "Houston",
    "postcode": "77096",
    "lat": 29.6839757,
    "lon": -95.4667993
  },
  {
    "street": "Tomball Parkway",
    "housenumber": "22517",
    "city": "Houston",
    "lat": 30.0110027,
    "lon": -95.5910562
  },
  {
    "street": "Tomball Parkway",
    "housenumber": "22513",
    "city": "Houston",
    "lat": 30.0097206,
    "lon": -95.5903159
  },
  {
    "street": "Jackson Hill Street",
    "housenumber": "403",
    "city": "Houston",
    "postcode": "77007",
    "lat": 29.7648629,
    "lon": -95.4019492
  },
  {
    "street": "Jackson Hill Street",
    "housenumber": "405",
    "city": "Houston",
    "postcode": "77007",
    "lat": 29.7649332,
    "lon": -95.4019494
  },
  {
    "street": "Jackson Hill Street",
    "housenumber": "407",
    "city": "Houston",
    "postcode": "77007",
    "lat": 29.7650023,
    "lon": -95.4019494
  },
  {
    "street": "Jackson Hill Street",
    "housenumber": "409",
    "city": "Houston",
    "postcode": "77007",
    "lat": 29.7650781,
    "lon": -95.4019468
  },
  {
    "street": "Jackson Hill Street",
    "housenumber": "411",
    "city": "Houston",
    "postcode": "77007",
    "lat": 29.7651471,
    "lon": -95.4019521
  },
  {
    "street": "Jackson Hill Street",
    "housenumber": "413",
    "city": "Houston",
    "postcode": "77007",
    "lat": 29.7652258,
    "lon": -95.401955
  },
  {
    "street": "Jason Street",
    "housenumber": "5025",
    "city": "Houston",
    "postcode": "77096",
    "lat": 29.683534,
    "lon": -95.467027
  },
  {
    "street": "South Rice Avenue",
    "housenumber": "8823",
    "city": "Houston",
    "postcode": "77096",
    "lat": 29.6825001,
    "lon": -95.4675376
  },
  {
    "street": "South Braeswood Boulevard",
    "housenumber": "5747",
    "city": "Houston",
    "lat": 29.6748707,
    "lon": -95.4887943
  },
  {
    "street": "Braesheather Drive",
    "housenumber": "5879",
    "city": "Houston",
    "lat": 29.6757968,
    "lon": -95.4934412
  },
  {
    "street": "North Braeswood Boulevard",
    "housenumber": "5234",
    "city": "Houston",
    "postcode": "77096",
    "lat": 29.6786788,
    "lon": -95.474427
  },
  {
    "street": "North Braeswood Boulevard",
    "housenumber": "5238",
    "city": "Houston",
    "postcode": "77096",
    "lat": 29.6786412,
    "lon": -95.4747099
  },
  {
    "street": "North Braeswood Boulevard",
    "housenumber": "5242",
    "city": "Houston",
    "postcode": "77096",
    "lat": 29.6785917,
    "lon": -95.4750144
  },
  {
    "street": "North Braeswood Boulevard",
    "housenumber": "5246",
    "city": "Houston",
    "postcode": "77096",
    "lat": 29.6785234,
    "lon": -95.4753288
  },
  {
    "street": "North Braeswood Boulevard",
    "housenumber": "5250",
    "city": "Houston",
    "postcode": "77096",
    "lat": 29.6784654,
    "lon": -95.4756254
  },
  {
    "street": "North Braeswood Boulevard",
    "housenumber": "5254",
    "city": "Houston",
    "postcode": "77096",
    "lat": 29.6784552,
    "lon": -95.47593
  },
  {
    "street": "Jackwood Street",
    "housenumber": "5142",
    "city": "Houston",
    "postcode": "77096",
    "lat": 29.685103,
    "lon": -95.47055
  },
  {
    "street": "Jackwood Street",
    "housenumber": "5035",
    "city": "Houston",
    "postcode": "77096",
    "lat": 29.684673,
    "lon": -95.467284
  },
  {
    "street": "Jackwood Street",
    "housenumber": "5106",
    "city": "Houston",
    "postcode": "77096",
    "lat": 29.6851333,
    "lon": -95.4683915
  },
  {
    "street": "Indigo Street",
    "housenumber": "5119",
    "city": "Houston",
    "postcode": "77096",
    "lat": 29.6863654,
    "lon": -95.4691202
  },
  {
    "street": "Indigo Street",
    "housenumber": "5127",
    "city": "Houston",
    "postcode": "77096",
    "lat": 29.6863483,
    "lon": -95.4695882
  },
  {
    "street": "Indigo Street",
    "housenumber": "5102",
    "city": "Houston",
    "postcode": "77096",
    "lat": 29.6867672,
    "lon": -95.4681486
  },
  {
    "street": "Jackwood Street",
    "housenumber": "5007",
    "city": "Houston",
    "postcode": "77096",
    "lat": 29.6842503,
    "lon": -95.4657697
  },
  {
    "street": "Jackwood Street",
    "housenumber": "5154",
    "city": "Houston",
    "postcode": "77096",
    "lat": 29.6850529,
    "lon": -95.4712452
  },
  {
    "street": "North Braeswood Boulevard",
    "housenumber": "4802",
    "city": "Houston",
    "postcode": "77096",
    "lat": 29.6819319,
    "lon": -95.4609615
  },
  {
    "street": "Richmond Avenue",
    "housenumber": "900",
    "city": "Houston",
    "lat": 29.734751,
    "lon": -95.3901559
  },
  {
    "street": "Southwest Freeway",
    "housenumber": "2120",
    "city": "Houston",
    "lat": 29.731483,
    "lon": -95.41251
  },
  {
    "street": "Southwest Freeway",
    "housenumber": "3120",
    "city": "Houston",
    "lat": 29.730871,
    "lon": -95.42617
  },
  {
    "street": "Bissonnet Street",
    "housenumber": "3904",
    "city": "Houston",
    "postcode": "77005-1143",
    "lat": 29.722878,
    "lon": -95.440099
  },
  {
    "street": "Bissonnet Street",
    "housenumber": "3908",
    "city": "Houston",
    "postcode": "77005",
    "lat": 29.723153,
    "lon": -95.440458
  },
  {
    "street": "Weslayan Street",
    "housenumber": "5339",
    "city": "Houston",
    "postcode": "77005",
    "lat": 29.723258,
    "lon": -95.440745
  },
  {
    "street": "Mandell Street",
    "housenumber": "2518",
    "city": "Houston",
    "lat": 29.743507,
    "lon": -95.399944
  },
  {
    "street": "Carew Street",
    "housenumber": "5035",
    "city": "Houston",
    "postcode": "77096",
    "lat": 29.6880221,
    "lon": -95.4672485
  },
  {
    "street": "Jackwood Street",
    "housenumber": "5215",
    "city": "Houston",
    "postcode": "77096",
    "lat": 29.6847822,
    "lon": -95.4739891
  },
  {
    "street": "Manhattan Drive",
    "housenumber": "8711",
    "city": "Houston",
    "postcode": "77096",
    "lat": 29.6858407,
    "lon": -95.4730904
  },
  {
    "street": "Westheimer Road",
    "housenumber": "11815",
    "city": "Houston",
    "postcode": "77077",
    "lat": 29.7353057,
    "lon": -95.5866853
  },
  {
    "street": "Woodridge Drive",
    "housenumber": "3111",
    "city": "Houston",
    "postcode": "77087",
    "lat": 29.6988948,
    "lon": -95.2949338
  },
  {
    "street": "Beechnut Street",
    "housenumber": "10100",
    "city": "Houston",
    "postcode": "77072",
    "lat": 29.6911403,
    "lon": -95.5593592
  },
  {
    "street": "Blackhawk Boulevard",
    "housenumber": "9828",
    "city": "Houston",
    "postcode": "77075",
    "lat": 29.6012607,
    "lon": -95.2499096
  },
  {
    "street": "Buffalo Speedway",
    "housenumber": "5225",
    "city": "Houston",
    "postcode": "77005",
    "lat": 29.7268006,
    "lon": -95.4268225
  },
  {
    "street": "Katy Freeway",
    "housenumber": "9710",
    "city": "Houston",
    "postcode": "77055",
    "lat": 29.7875345,
    "lon": -95.5319181
  },
  {
    "street": "Kingwood Drive",
    "housenumber": "4517",
    "city": "Kingwood",
    "postcode": "77345",
    "lat": 30.0527844,
    "lon": -95.1842088
  },
  {
    "street": "West Alabama Street",
    "housenumber": "1701",
    "city": "Houston",
    "postcode": "77098",
    "lat": 29.737967,
    "lon": -95.4031022
  },
  {
    "street": "Beechnut Street",
    "housenumber": "5206",
    "city": "Houston",
    "lat": 29.689417,
    "lon": -95.472354
  },
  {
    "street": "Beechnut Street",
    "housenumber": "5246",
    "city": "Houston",
    "lat": 29.689368,
    "lon": -95.474757
  },
  {
    "street": "Beechnut Street",
    "housenumber": "4938",
    "city": "Houston",
    "lat": 29.6895666,
    "lon": -95.4643168
  },
  {
    "street": "Beechnut Street",
    "housenumber": "4950",
    "city": "Houston",
    "lat": 29.6895608,
    "lon": -95.4649103
  },
  {
    "street": "Beechnut Street",
    "housenumber": "4960",
    "city": "Houston",
    "lat": 29.6895591,
    "lon": -95.4650814
  },
  {
    "street": "Richmond Avenue",
    "housenumber": "2626",
    "city": "Houston",
    "lat": 29.734408,
    "lon": -95.419496
  },
  {
    "street": "Eastside Street",
    "housenumber": "3228",
    "city": "Houston",
    "lat": 29.736303,
    "lon": -95.424634
  },
  {
    "street": "West Alabama Street",
    "housenumber": "3100",
    "city": "Houston",
    "lat": 29.738767,
    "lon": -95.42433
  },
  {
    "street": "Richmond Avenue",
    "housenumber": "3772",
    "city": "Houston",
    "lat": 29.733074,
    "lon": -95.437404
  },
  {
    "street": "Kirby Drive",
    "housenumber": "3730",
    "city": "Houston",
    "postcode": "77098",
    "lat": 29.732956,
    "lon": -95.418968
  },
  {
    "street": "South Loop West",
    "housenumber": "2901",
    "city": "Houston",
    "postcode": "77054",
    "lat": 29.6765543,
    "lon": -95.4220095
  },
  {
    "street": "Pease Street",
    "housenumber": "2003",
    "city": "Houston",
    "postcode": "77003",
    "lat": 29.7466355,
    "lon": -95.3598421
  },
  {
    "street": "Underwood Street",
    "housenumber": "4055",
    "city": "Houston",
    "lat": 29.699539,
    "lon": -95.443113
  },
  {
    "street": "Blalock Road",
    "housenumber": "3107",
    "city": "Houston",
    "postcode": "77080",
    "lat": 29.8225916,
    "lon": -95.5232432
  },
  {
    "street": "Gulfgate Center Mall",
    "housenumber": "510",
    "city": "Houston",
    "postcode": "77087",
    "lat": 29.698391,
    "lon": -95.2939239
  },
  {
    "street": "Gulfgate Center Mall",
    "housenumber": "516",
    "city": "Houston",
    "postcode": "77087",
    "lat": 29.6978698,
    "lon": -95.2941249
  },
  {
    "street": "Broadway Street",
    "housenumber": "4004",
    "city": "Houston",
    "postcode": "77087",
    "lat": 29.683595,
    "lon": -95.278004
  },
  {
    "street": "Griggs Road",
    "housenumber": "5409",
    "city": "Houston",
    "postcode": "77021",
    "lat": 29.6964659,
    "lon": -95.3323078
  },
  {
    "street": "Gulf Freeway",
    "housenumber": "7912",
    "city": "Houston",
    "postcode": "77017",
    "lat": 29.6848425,
    "lon": -95.2779991
  },
  {
    "street": "South Loop East Frontage Road",
    "housenumber": "6161",
    "city": "Houston",
    "lat": 29.6965304,
    "lon": -95.3186806
  },
  {
    "street": "South Loop East",
    "housenumber": "5957",
    "city": "Houston",
    "lat": 29.690609,
    "lon": -95.33029
  },
  {
    "street": "Imogene Street",
    "housenumber": "5330",
    "city": "Houston",
    "lat": 29.683479,
    "lon": -95.479132
  },
  {
    "street": "Jason Street",
    "housenumber": "5330",
    "city": "Houston",
    "lat": 29.684383,
    "lon": -95.47911
  },
  {
    "street": "Katy Freeway",
    "housenumber": "9430",
    "city": "Houston",
    "lat": 29.785196,
    "lon": -95.52508
  },
  {
    "street": "West Sam Houston Parkway North",
    "housenumber": "788",
    "city": "Houston",
    "lat": 29.777883,
    "lon": -95.56173
  },
  {
    "street": "West Sam Houston Parkway North",
    "housenumber": "700",
    "city": "Houston",
    "lat": 29.777258,
    "lon": -95.561956
  },
  {
    "street": "West Sam Houston Parkway North",
    "housenumber": "1201",
    "city": "Houston",
    "postcode": "77043",
    "lat": 29.7912267,
    "lon": -95.5643121
  },
  {
    "street": "Katy Freeway",
    "housenumber": "17000",
    "city": "Houston",
    "lat": 29.786128,
    "lon": -95.677765
  },
  {
    "street": "Katy Freeway",
    "housenumber": "11999",
    "city": "Houston",
    "lat": 29.783512,
    "lon": -95.596991
  },
  {
    "street": "Cheena Drive",
    "housenumber": "4318",
    "city": "Houston",
    "lat": 29.674891,
    "lon": -95.450226
  },
  {
    "street": "Greenwillow Drive",
    "housenumber": "9903",
    "city": "Houston",
    "lat": 29.675318,
    "lon": -95.448848
  },
  {
    "street": "Greenwillow Drive",
    "housenumber": "4605",
    "city": "Houston",
    "lat": 29.6785379,
    "lon": -95.4488514
  },
  {
    "street": "Greenwillow Drive",
    "housenumber": "4603",
    "city": "Houston",
    "lat": 29.678766,
    "lon": -95.448881
  },
  {
    "street": "South Loop West",
    "housenumber": "1620",
    "city": "Houston",
    "postcode": "77054-4815",
    "lat": 29.6799394,
    "lon": -95.4023379
  },
  {
    "street": "South Braeswood Boulevard",
    "housenumber": "3815",
    "city": "Houston",
    "lat": 29.6893316,
    "lon": -95.4380184
  },
  {
    "street": "South Braeswood Boulevard",
    "housenumber": "3819",
    "city": "Houston",
    "lat": 29.6892869,
    "lon": -95.4384186
  },
  {
    "street": "Indigo Street",
    "housenumber": "5006",
    "city": "Houston",
    "postcode": "77096",
    "lat": 29.686867,
    "lon": -95.465814
  },
  {
    "street": "Indigo Street",
    "housenumber": "5014",
    "city": "Houston",
    "postcode": "77096",
    "lat": 29.686843,
    "lon": -95.4662551
  },
  {
    "street": "Indigo Street",
    "housenumber": "5018",
    "city": "Houston",
    "postcode": "77096",
    "lat": 29.686843,
    "lon": -95.4665013
  },
  {
    "street": "East Little York Road",
    "housenumber": "300",
    "city": "Houston",
    "postcode": "77076",
    "lat": 29.8695965,
    "lon": -95.3958954
  },
  {
    "street": "Feagan Street",
    "housenumber": "4004",
    "city": "Houston",
    "postcode": "77007",
    "lat": 29.7664733,
    "lon": -95.4011125
  },
  {
    "street": "Feagan Street",
    "housenumber": "4006",
    "city": "Houston",
    "postcode": "77007",
    "lat": 29.7664738,
    "lon": -95.401382
  },
  {
    "street": "Feagan Street",
    "housenumber": "4006",
    "city": "Houston",
    "postcode": "77007",
    "lat": 29.7665795,
    "lon": -95.401385
  },
  {
    "street": "Feagan Street",
    "housenumber": "4011",
    "city": "Houston",
    "postcode": "77007",
    "lat": 29.7661908,
    "lon": -95.4013385
  },
  {
    "street": "Feagan Street",
    "housenumber": "4013",
    "city": "Houston",
    "postcode": "77007",
    "lat": 29.766191,
    "lon": -95.401412
  },
  {
    "street": "Jackson Hill Street",
    "housenumber": "607",
    "city": "Houston",
    "postcode": "77007",
    "lat": 29.7665433,
    "lon": -95.4020228
  },
  {
    "street": "Jackson Hill Street",
    "housenumber": "609",
    "city": "Houston",
    "postcode": "77007",
    "lat": 29.7666047,
    "lon": -95.4020205
  },
  {
    "street": "Jackson Hill Street",
    "housenumber": "502",
    "city": "Houston",
    "postcode": "77007",
    "lat": 29.7657267,
    "lon": -95.4016063
  },
  {
    "street": "Feagan Street",
    "housenumber": "4006",
    "city": "Houston",
    "postcode": "77007",
    "lat": 29.7664705,
    "lon": -95.4012324
  },
  {
    "street": "Feagan Street",
    "housenumber": "4006",
    "city": "Houston",
    "postcode": "77007",
    "lat": 29.766582,
    "lon": -95.4012314
  },
  {
    "street": "Feagan Street",
    "housenumber": "4004",
    "city": "Houston",
    "postcode": "77007",
    "lat": 29.7664741,
    "lon": -95.4009615
  },
  {
    "street": "El Dorado Boulevard",
    "housenumber": "18194",
    "city": "Houston",
    "lat": 29.5526125,
    "lon": -95.1567872
  },
  {
    "street": "West El Dorado Boulevard",
    "housenumber": "150",
    "city": "Friendswood",
    "postcode": "77546",
    "lat": 29.5528651,
    "lon": -95.1595002
  },
  {
    "street": "Bellaire Boulevard",
    "housenumber": "5901",
    "city": "Houston",
    "lat": 29.704888,
    "lon": -95.484973
  },
  {
    "street": "Bellaire Boulevard",
    "housenumber": "5941",
    "city": "Houston",
    "lat": 29.705182,
    "lon": -95.486354
  },
  {
    "street": "Waugh Drive",
    "housenumber": "536",
    "city": "Houston",
    "postcode": "77019",
    "lat": 29.7603435,
    "lon": -95.3986349
  },
  {
    "street": "White Oak Drive",
    "housenumber": "2820",
    "city": "Houston",
    "postcode": "77007",
    "lat": 29.781927,
    "lon": -95.3896764
  },
  {
    "street": "North Shepherd Drive",
    "housenumber": "1035",
    "city": "Houston",
    "postcode": "77008",
    "lat": 29.7896319,
    "lon": -95.4112065
  },
  {
    "street": "Congress Street",
    "housenumber": "801",
    "city": "Houston",
    "postcode": "77002",
    "lat": 29.7633189,
    "lon": -95.3622116
  },
  {
    "street": "Feagan Street",
    "housenumber": "4004",
    "city": "Houston",
    "postcode": "77007",
    "lat": 29.7665825,
    "lon": -95.4011195
  },
  {
    "street": "Feagan Street",
    "housenumber": "4004",
    "city": "Houston",
    "postcode": "77007",
    "lat": 29.7665838,
    "lon": -95.4009659
  },
  {
    "street": "Travis Street",
    "housenumber": "307",
    "city": "Houston",
    "postcode": "77002",
    "lat": 29.7624111,
    "lon": -95.3617298
  },
  {
    "street": "Travis Street",
    "housenumber": "311",
    "city": "Houston",
    "postcode": "77002",
    "lat": 29.7622899,
    "lon": -95.3617995
  },
  {
    "street": "Travis Street",
    "housenumber": "417",
    "city": "Houston",
    "postcode": "77002",
    "lat": 29.7613726,
    "lon": -95.3625415
  },
  {
    "street": "Travis Street",
    "housenumber": "419",
    "city": "Houston",
    "postcode": "77002",
    "lat": 29.7613051,
    "lon": -95.3625898
  },
  {
    "street": "Texas Avenue",
    "housenumber": "909",
    "city": "Houston",
    "postcode": "77002",
    "lat": 29.7603293,
    "lon": -95.362519
  },
  {
    "street": "Knox Street",
    "housenumber": "602",
    "city": "Houston",
    "lat": 29.7675045,
    "lon": -95.4208882
  },
  {
    "street": "Eldridge Parkway",
    "housenumber": "1275",
    "city": "Houston",
    "lat": 29.763778,
    "lon": -95.6246395
  },
  {
    "street": "Eldridge Parkway",
    "housenumber": "1275",
    "city": "Houston",
    "lat": 29.7631912,
    "lon": -95.6246395
  },
  {
    "street": "Eldridge Parkway",
    "housenumber": "1275",
    "city": "Houston",
    "postcode": "77077",
    "lat": 29.7634543,
    "lon": -95.6246369
  },
  {
    "street": "Allum Road",
    "housenumber": "4844",
    "city": "Houston",
    "postcode": "77045",
    "lat": 29.641303,
    "lon": -95.4538762
  },
  {
    "street": "Chatterton Drive",
    "housenumber": "11010",
    "city": "Houston",
    "postcode": "77043",
    "lat": 29.7993911,
    "lon": -95.5754109
  },
  {
    "street": "Fondren Road",
    "housenumber": "9600",
    "city": "Houston",
    "postcode": "77096",
    "lat": 29.675344,
    "lon": -95.509256
  },
  {
    "street": "Mesa Drive",
    "housenumber": "9001",
    "city": "Houston",
    "lat": 29.8432417,
    "lon": -95.2627618
  },
  {
    "street": "Beechnut Street",
    "housenumber": "7431",
    "city": "Houston",
    "lat": 29.690758,
    "lon": -95.517523
  },
  {
    "street": "Southwest Freeway",
    "housenumber": "9100",
    "city": "Houston",
    "lat": 29.684499,
    "lon": -95.535276
  },
  {
    "street": "South Braeswood Boulevard",
    "housenumber": "8515",
    "city": "Houston",
    "lat": 29.671041,
    "lon": -95.526768
  },
  {
    "street": "South Braeswood Boulevard",
    "housenumber": "8404",
    "city": "Houston",
    "lat": 29.671383,
    "lon": -95.520842
  },
  {
    "street": "South Braeswood Boulevard",
    "housenumber": "7927",
    "city": "Houston",
    "lat": 29.672,
    "lon": -95.518473
  },
  {
    "street": "South Braeswood Boulevard",
    "housenumber": "6227",
    "city": "Houston",
    "lat": 29.676732,
    "lon": -95.50149
  },
  {
    "street": "South Braeswood Boulevard",
    "housenumber": "6103",
    "city": "Houston",
    "lat": 29.677397,
    "lon": -95.497483
  },
  {
    "street": "South Braeswood Boulevard",
    "housenumber": "5863",
    "city": "Houston",
    "lat": 29.676791,
    "lon": -95.492336
  },
  {
    "street": "South Braeswood Boulevard",
    "housenumber": "5703",
    "city": "Houston",
    "lat": 29.674329,
    "lon": -95.486553
  },
  {
    "street": "South Braeswood Boulevard",
    "housenumber": "5739",
    "city": "Houston",
    "lat": 29.674813,
    "lon": -95.488539
  },
  {
    "street": "South Braeswood Boulevard",
    "housenumber": "5331",
    "city": "Houston",
    "lat": 29.676664,
    "lon": -95.476114
  },
  {
    "street": "Bissonnet Street",
    "housenumber": "2800",
    "city": "Houston",
    "lat": 29.725901,
    "lon": -95.422528
  },
  {
    "street": "Northwest Central Drive",
    "housenumber": "5600",
    "city": "Houston",
    "postcode": "77092",
    "lat": 29.8478088,
    "lon": -95.4944077
  },
  {
    "street": "Yale Street",
    "housenumber": "6021",
    "city": "Houston",
    "postcode": "77076",
    "lat": 29.8529979,
    "lon": -95.4035967
  },
  {
    "street": "Corporate Drive",
    "housenumber": "6100",
    "city": "Houston",
    "postcode": "77036-3590",
    "lat": 29.7113849,
    "lon": -95.5526056
  },
  {
    "street": "Southwest Freeway",
    "housenumber": "4615",
    "city": "Houston",
    "lat": 29.729205,
    "lon": -95.452671
  },
  {
    "street": "Southwest Freeway",
    "housenumber": "4635",
    "city": "Houston",
    "lat": 29.729218,
    "lon": -95.453583
  },
  {
    "street": "Southwest Freeway",
    "housenumber": "4625",
    "city": "Houston",
    "lat": 29.729199,
    "lon": -95.453208
  },
  {
    "street": "Richmond Avenue",
    "housenumber": "3323",
    "city": "Houston",
    "lat": 29.733684,
    "lon": -95.427584
  },
  {
    "street": "Main Street",
    "housenumber": "10005",
    "city": "Houston",
    "lat": 29.676144,
    "lon": -95.426869
  },
  {
    "street": "Westheimer Road",
    "housenumber": "10001",
    "city": "Houston",
    "postcode": "77042",
    "lat": 29.7361874,
    "lon": -95.5488901
  },
  {
    "street": "Main Street",
    "housenumber": "8200",
    "city": "Houston",
    "postcode": "77025",
    "lat": 29.6925894,
    "lon": -95.4164283
  },
  {
    "street": "Westheimer Road",
    "housenumber": "10001",
    "city": "Houston",
    "postcode": "77042",
    "lat": 29.7364855,
    "lon": -95.5510197
  },
  {
    "street": "Gulf Freeway Frontage Road",
    "housenumber": "6969",
    "city": "Houston",
    "postcode": "77087",
    "lat": 29.7039731,
    "lon": -95.2972354
  },
  {
    "street": "Kingwood Drive",
    "housenumber": "1263",
    "city": "Kingwood",
    "postcode": "77339",
    "lat": 30.0506844,
    "lon": -95.2378418
  },
  {
    "street": "Main Street",
    "housenumber": "14925",
    "city": "Houston",
    "lat": 29.627932,
    "lon": -95.511794
  },
  {
    "street": "South Post Oak Road",
    "housenumber": "10807",
    "city": "Houston",
    "lat": 29.663522,
    "lon": -95.463402
  },
  {
    "street": "West Little York Road",
    "housenumber": "442",
    "city": "Houston",
    "lat": 29.871179,
    "lon": -95.406122
  },
  {
    "street": "North Freeway",
    "housenumber": "9700",
    "city": "Houston",
    "lat": 29.905125,
    "lon": -95.411464
  },
  {
    "street": "Buffalo Speedway",
    "housenumber": "5156",
    "city": "Houston",
    "postcode": "77005",
    "lat": 29.7268744,
    "lon": -95.429654
  },
  {
    "street": "Almeda Road",
    "housenumber": "13402",
    "city": "Houston",
    "postcode": "77053",
    "lat": 29.6132514,
    "lon": -95.4202076
  },
  {
    "street": "Alameda Road",
    "housenumber": "13350",
    "city": "Houston",
    "postcode": "77045",
    "lat": 29.6141095,
    "lon": -95.4199179
  },
  {
    "street": "Skyview Point Drive",
    "housenumber": "2519",
    "city": "Houston",
    "postcode": "77047",
    "lat": 29.6245064,
    "lon": -95.3833198
  },
  {
    "street": "Kirby Drive",
    "housenumber": "5215",
    "city": "Houston",
    "lat": 29.7256871,
    "lon": -95.4182475
  },
  {
    "street": "West Gray Street",
    "housenumber": "1971",
    "city": "Houston",
    "postcode": "77019",
    "lat": 29.752752,
    "lon": -95.40726
  },
  {
    "street": "West Gray Street",
    "housenumber": "1987",
    "city": "Houston",
    "postcode": "77019",
    "lat": 29.752667,
    "lon": -95.407869
  },
  {
    "street": "West Gray Street",
    "housenumber": "1977",
    "city": "Houston",
    "lat": 29.752749,
    "lon": -95.407637
  },
  {
    "street": "West Gray Street",
    "housenumber": "1962",
    "city": "Houston",
    "postcode": "77019",
    "lat": 29.753412,
    "lon": -95.4073494
  },
  {
    "street": "West Gray Street",
    "housenumber": "2001",
    "city": "Houston",
    "postcode": "77019",
    "lat": 29.752739,
    "lon": -95.408709
  },
  {
    "street": "Underwood Street",
    "housenumber": "3122",
    "city": "Houston",
    "lat": 29.699955,
    "lon": -95.427085
  },
  {
    "street": "West Holcombe Boulevard",
    "housenumber": "3151",
    "city": "Houston",
    "postcode": "77025",
    "lat": 29.704855,
    "lon": -95.426826
  },
  {
    "street": "Kirby Drive",
    "housenumber": "5311",
    "city": "Houston",
    "lat": 29.724827,
    "lon": -95.418213
  },
  {
    "street": "West Alabama Street",
    "housenumber": "2200",
    "city": "Houston",
    "lat": 29.738867,
    "lon": -95.413419
  },
  {
    "street": "South Braeswood Boulevard",
    "housenumber": "5147",
    "city": "Houston",
    "lat": 29.677318,
    "lon": -95.471311
  },
  {
    "street": "South Braeswood Boulevard",
    "housenumber": "5203",
    "city": "Houston",
    "lat": 29.677242,
    "lon": -95.471858
  },
  {
    "street": "West Sam Houston Parkway South",
    "housenumber": "6855",
    "city": "Houston",
    "postcode": "77072",
    "lat": 29.7027694,
    "lon": -95.5551539
  },
  {
    "street": "Caroline Street",
    "housenumber": "305",
    "city": "Houston",
    "postcode": "77002",
    "lat": 29.7603024,
    "lon": -95.3582
  },
  {
    "street": "Eldorado Boulevard",
    "housenumber": "535",
    "city": "Webster",
    "postcode": "77598-2201",
    "lat": 29.5613531,
    "lon": -95.1420692
  },
  {
    "street": "Eldorado Boulevard",
    "housenumber": "534 1/2",
    "city": "Webster",
    "postcode": "77598-2202",
    "lat": 29.5602729,
    "lon": -95.1421685
  },
  {
    "street": "El Dorado Boulevard",
    "housenumber": "418",
    "city": "Webster",
    "postcode": "77598",
    "lat": 29.5591297,
    "lon": -95.144325
  },
  {
    "street": "Gulf Freeway",
    "housenumber": "14270",
    "city": "Houston",
    "postcode": "77034",
    "lat": 29.5926696,
    "lon": -95.19224
  },
  {
    "street": "Galveston Road",
    "housenumber": "11912",
    "city": "Houston",
    "postcode": "77034",
    "lat": 29.5996897,
    "lon": -95.1770587
  },
  {
    "street": "El Dorado Boulevard",
    "housenumber": "534",
    "city": "Webster",
    "postcode": "77598",
    "lat": 29.5599556,
    "lon": -95.1419485
  },
  {
    "street": "Gulf Freeway",
    "housenumber": "15327",
    "city": "Houston",
    "postcode": "77034",
    "lat": 29.5885879,
    "lon": -95.1832277
  },
  {
    "street": "Gulf Freeway",
    "housenumber": "14266",
    "city": "Houston",
    "postcode": "77034",
    "lat": 29.5929075,
    "lon": -95.1926262
  },
  {
    "street": "Edgebrook Road",
    "housenumber": "1187",
    "city": "Houston",
    "postcode": "77034",
    "lat": 29.6424042,
    "lon": -95.2434009
  },
  {
    "street": "Sorella Court",
    "housenumber": "798",
    "city": "Houston",
    "postcode": "77024",
    "lat": 29.7794276,
    "lon": -95.5614622
  },
  {
    "street": "Chimney Rock Road",
    "housenumber": "5858",
    "city": "Houston",
    "lat": 29.718381,
    "lon": -95.477374
  },
  {
    "street": "Chimney Rock Road",
    "housenumber": "5401",
    "city": "Houston",
    "postcode": "77081",
    "lat": 29.7234246,
    "lon": -95.4757717
  },
  {
    "street": "Chimney Rock Road",
    "housenumber": "3100",
    "city": "Houston",
    "lat": 29.7325547,
    "lon": -95.4768918
  },
  {
    "street": "San Felipe Street",
    "housenumber": "4520",
    "city": "San Felipe",
    "postcode": "77027",
    "lat": 29.7476663,
    "lon": -95.4548472
  },
  {
    "street": "West Gray Street",
    "housenumber": "2035",
    "city": "Houston",
    "postcode": "77019",
    "lat": 29.75265,
    "lon": -95.409989
  },
  {
    "street": "South Loop West",
    "housenumber": "2700",
    "city": "Houston",
    "postcode": "77054",
    "lat": 29.678459,
    "lon": -95.421968
  },
  {
    "street": "Long Drive",
    "housenumber": "6060",
    "city": "Houston",
    "postcode": "77087",
    "lat": 29.69299,
    "lon": -95.321896
  },
  {
    "street": "Bellaire Boulevard",
    "housenumber": "4227",
    "city": "Houston",
    "postcode": "77025",
    "lat": 29.7055782,
    "lon": -95.446737
  },
  {
    "street": "North Loop West",
    "housenumber": "1225",
    "city": "Houston",
    "lat": 29.811853,
    "lon": -95.420897
  },
  {
    "street": "Pacific Street",
    "housenumber": "805",
    "city": "Houston",
    "postcode": "77006",
    "lat": 29.7465518,
    "lon": -95.3902781
  },
  {
    "street": "Studemont Street",
    "housenumber": "920",
    "city": "Houston",
    "postcode": "77007",
    "lat": 29.7671866,
    "lon": -95.3917245
  },
  {
    "street": "Bellaire Boulevard",
    "housenumber": "9888",
    "city": "Houston",
    "postcode": "77036",
    "lat": 29.7066563,
    "lon": -95.5531567
  },
  {
    "street": "San Felipe Street",
    "housenumber": "7575",
    "city": "Houston",
    "postcode": "77063",
    "lat": 29.75018,
    "lon": -95.5019009
  },
  {
    "street": "West Holcombe Boulevard",
    "housenumber": "3141",
    "city": "Houston",
    "postcode": "77025",
    "lat": 29.7049514,
    "lon": -95.4265689
  },
  {
    "street": "Dunlavy Street",
    "housenumber": "2302",
    "city": "Houston",
    "lat": 29.7456076,
    "lon": -95.4022969
  },
  {
    "street": "Westheimer Road",
    "housenumber": "7560",
    "city": "Houston",
    "lat": 29.7396215,
    "lon": -95.5031693
  },
  {
    "street": "Westheimer Road",
    "housenumber": "7560",
    "city": "Houston",
    "postcode": "77063-4615",
    "lat": 29.7396381,
    "lon": -95.5026537
  },
  {
    "street": "Westheimer Road",
    "housenumber": "7560",
    "city": "Houston",
    "lat": 29.7396211,
    "lon": -95.5030241
  },
  {
    "street": "Westheimer Road",
    "housenumber": "7601",
    "city": "Houston",
    "postcode": "77063",
    "lat": 29.736512,
    "lon": -95.5032389
  },
  {
    "street": "Beechnut Street",
    "housenumber": "8525",
    "city": "Houston",
    "postcode": "77036",
    "lat": 29.6914014,
    "lon": -95.5337201
  },
  {
    "street": "Navigation Boulevard",
    "housenumber": "4619",
    "city": "Houston",
    "postcode": "77010",
    "lat": 29.7517854,
    "lon": -95.3242297
  },
  {
    "street": "North Shepherd Drive",
    "housenumber": "2902",
    "city": "Houston",
    "postcode": "77008",
    "lat": 29.8135915,
    "lon": -95.4099541
  },
  {
    "street": "Post Oak Boulevard",
    "housenumber": "1980",
    "city": "Houston",
    "postcode": "77056",
    "lat": 29.7463326,
    "lon": -95.461645
  },
  {
    "street": "Heights Boulevard",
    "housenumber": "207",
    "city": "Houston",
    "postcode": "77007",
    "lat": 29.7746436,
    "lon": -95.3979396
  },
  {
    "street": "Heights Boulevard",
    "housenumber": "215",
    "city": "Houston",
    "lat": 29.7746465,
    "lon": -95.3983173
  },
  {
    "street": "Heights Boulevard",
    "housenumber": "217",
    "city": "Houston",
    "postcode": "77007",
    "lat": 29.7747678,
    "lon": -95.3983383
  },
  {
    "street": "Austin Street",
    "housenumber": "1001",
    "city": "Houston",
    "postcode": "77010",
    "lat": 29.7543255,
    "lon": -95.3616311
  },
  {
    "street": "Dallas Street",
    "housenumber": "2202",
    "city": "Houston",
    "postcode": "77003",
    "lat": 29.7487783,
    "lon": -95.3559402
  },
  {
    "street": "Pease Street",
    "housenumber": "808",
    "city": "Houston",
    "lat": 29.7528471,
    "lon": -95.3706475
  },
  {
    "street": "Bissonnet Street",
    "housenumber": "7047",
    "city": "Houston",
    "postcode": "77074",
    "lat": 29.6869363,
    "lon": -95.5074325
  },
  {
    "street": "Tidwell Road",
    "housenumber": "25",
    "city": "Houston",
    "postcode": "77022",
    "lat": 29.8460597,
    "lon": -95.3824297
  },
  {
    "street": "Richmond Avenue",
    "housenumber": "4001",
    "city": "Houston",
    "postcode": "77027-6850",
    "lat": 29.7322475,
    "lon": -95.4418957
  },
  {
    "street": "Mitchelldale Street",
    "housenumber": "5201",
    "city": "Houston",
    "postcode": "77092",
    "lat": 29.8132998,
    "lon": -95.4668366
  },
  {
    "street": "North Shepherd Drive",
    "housenumber": "2802",
    "city": "Houston",
    "postcode": "77018",
    "lat": 29.8121108,
    "lon": -95.4099457
  },
  {
    "street": "Tomball Parkway",
    "housenumber": "17747",
    "city": "Houston",
    "postcode": "77064",
    "lat": 29.9595009,
    "lon": -95.5469258
  },
  {
    "street": "Westheimer Road",
    "housenumber": "5718",
    "city": "Houston",
    "postcode": "77057",
    "lat": 29.7384352,
    "lon": -95.4789932
  },
  {
    "street": "Westheimer Road",
    "housenumber": "9660",
    "city": "Houston",
    "postcode": "77063",
    "lat": 29.7384997,
    "lon": -95.53687
  },
  {
    "street": "Weslayan Street",
    "housenumber": "5586",
    "city": "Houston",
    "postcode": "77005",
    "lat": 29.7215167,
    "lon": -95.4422632
  },
  {
    "street": "San Felipe Street",
    "housenumber": "5161",
    "city": "Houston",
    "postcode": "77056",
    "lat": 29.7489292,
    "lon": -95.4656019
  },
  {
    "street": "West Bellfort Street",
    "housenumber": "4800",
    "city": "Houston",
    "postcode": "77035",
    "lat": 29.6729715,
    "lon": -95.4591798
  },
  {
    "street": "West Holcombe Boulevard",
    "housenumber": "3131",
    "city": "Houston",
    "postcode": "77025",
    "lat": 29.7050017,
    "lon": -95.4257078
  },
  {
    "street": "Louisiana Street",
    "housenumber": "2225",
    "city": "Houston",
    "postcode": "77002",
    "lat": 29.7489076,
    "lon": -95.3748243
  },
  {
    "street": "Memorial Drive",
    "housenumber": "14610",
    "city": "Houston",
    "postcode": "77079",
    "lat": 29.7714759,
    "lon": -95.6069406
  },
  {
    "street": "Memorial Drive",
    "housenumber": "12850",
    "city": "Houston",
    "postcode": "77024",
    "lat": 29.7735146,
    "lon": -95.5595341
  },
  {
    "street": "Memorial Drive",
    "housenumber": "14344",
    "city": "Houston",
    "postcode": "77079",
    "lat": 29.7711432,
    "lon": -95.599194
  },
  {
    "street": "West 34th Street",
    "housenumber": "203",
    "city": "Houston",
    "lat": 29.8180888,
    "lon": -95.399755
  },
  {
    "street": "West 34th Street",
    "housenumber": "204",
    "city": "Houston",
    "lat": 29.8186439,
    "lon": -95.3997282
  },
  {
    "street": "West 34th Street",
    "housenumber": "235",
    "city": "Houston",
    "lat": 29.8180253,
    "lon": -95.40168
  },
  {
    "street": "West 34th Street",
    "housenumber": "236",
    "city": "Houston",
    "lat": 29.8185803,
    "lon": -95.4016532
  },
  {
    "street": "West 34th Street",
    "housenumber": "303",
    "city": "Houston",
    "lat": 29.818013,
    "lon": -95.4019336
  },
  {
    "street": "West 34th Street",
    "housenumber": "403",
    "city": "Houston",
    "lat": 29.818013,
    "lon": -95.4043419
  },
  {
    "street": "West 34th Street",
    "housenumber": "308",
    "city": "Houston",
    "lat": 29.8186121,
    "lon": -95.4018942
  },
  {
    "street": "West 34th Street",
    "housenumber": "335",
    "city": "Houston",
    "lat": 29.8179935,
    "lon": -95.4039234
  },
  {
    "street": "West 34th Street",
    "housenumber": "340",
    "city": "Houston",
    "lat": 29.8186268,
    "lon": -95.4041348
  },
  {
    "street": "West 34th Street",
    "housenumber": "408",
    "city": "Houston",
    "lat": 29.8186317,
    "lon": -95.4044251
  },
  {
    "street": "West 34th Street",
    "housenumber": "431",
    "city": "Houston",
    "lat": 29.8180424,
    "lon": -95.4060668
  },
  {
    "street": "West 34th Street",
    "housenumber": "432",
    "city": "Houston",
    "lat": 29.818595,
    "lon": -95.4064121
  },
  {
    "street": "West 34th Street",
    "housenumber": "503",
    "city": "Houston",
    "lat": 29.8180277,
    "lon": -95.4063599
  },
  {
    "street": "West 34th Street",
    "housenumber": "504",
    "city": "Houston",
    "lat": 29.8185815,
    "lon": -95.406708
  },
  {
    "street": "West 34th Street",
    "housenumber": "524",
    "city": "Houston",
    "lat": 29.8183835,
    "lon": -95.4076775
  },
  {
    "street": "West 34th Street",
    "housenumber": "539",
    "city": "Houston",
    "lat": 29.8174115,
    "lon": -95.4087612
  },
  {
    "street": "Robmore Street",
    "housenumber": "281",
    "city": "Houston",
    "postcode": "77076",
    "lat": 29.854949,
    "lon": -95.3723075
  },
  {
    "street": "Fannin Street",
    "housenumber": "1001",
    "city": "Houston",
    "postcode": "77002",
    "lat": 29.7558796,
    "lon": -95.3639879
  },
  {
    "street": "Washington Avenue",
    "housenumber": "5555",
    "city": "Houston",
    "postcode": "77007",
    "lat": 29.7703853,
    "lon": -95.41834
  },
  {
    "street": "North Loop West",
    "housenumber": "1249",
    "city": "Houston",
    "postcode": "77008",
    "lat": 29.8120147,
    "lon": -95.4223142
  },
  {
    "street": "North Loop West",
    "housenumber": "1249",
    "city": "Houston",
    "postcode": "77008",
    "lat": 29.8120037,
    "lon": -95.4221872
  },
  {
    "street": "North Barkers Landing Road",
    "housenumber": "15990",
    "city": "Houston",
    "postcode": "77079",
    "lat": 29.7812602,
    "lon": -95.6415916
  },
  {
    "street": "Yale Street",
    "housenumber": "107",
    "city": "Houston",
    "lat": 29.772809,
    "lon": -95.3989858
  },
  {
    "street": "East 20th Street",
    "housenumber": "701",
    "city": "Houston",
    "postcode": "77246",
    "lat": 29.8043204,
    "lon": -95.3908882
  },
  {
    "street": "South Braeswood Boulevard",
    "housenumber": "8650",
    "city": "Houston",
    "postcode": "77031",
    "lat": 29.672334,
    "lon": -95.530038
  },
  {
    "street": "South Braeswood Boulevard",
    "housenumber": "8646",
    "city": "Houston",
    "postcode": "77031",
    "lat": 29.67243,
    "lon": -95.529619
  },
  {
    "street": "South Braeswood Boulevard",
    "housenumber": "8545",
    "city": "Houston",
    "lat": 29.670911,
    "lon": -95.527703
  },
  {
    "street": "South Braeswood Boulevard",
    "housenumber": "8023",
    "city": "Houston",
    "lat": 29.671474,
    "lon": -95.520323
  },
  {
    "street": "South Braeswood Boulevard",
    "housenumber": "6131",
    "city": "Houston",
    "lat": 29.677132,
    "lon": -95.499022
  },
  {
    "street": "McKinney Street",
    "housenumber": "1200",
    "city": "Houston",
    "postcode": "77010",
    "lat": 29.7552172,
    "lon": -95.3627949
  },
  {
    "street": "Hillcroft Avenue",
    "housenumber": "10330",
    "city": "Houston",
    "postcode": "77096",
    "lat": 29.6686092,
    "lon": -95.4948836
  },
  {
    "street": "Louisiana Street",
    "housenumber": "2625",
    "city": "Houston",
    "postcode": "77006",
    "lat": 29.7463167,
    "lon": -95.3762346
  },
  {
    "street": "Louisiana Street",
    "housenumber": "2625",
    "city": "Houston",
    "postcode": "77006",
    "lat": 29.7465706,
    "lon": -95.3767282
  },
  {
    "street": "Louisiana Street",
    "housenumber": "2625",
    "city": "Houston",
    "postcode": "77006",
    "lat": 29.7463633,
    "lon": -95.3763366
  },
  {
    "street": "Louisiana Street",
    "housenumber": "2625",
    "city": "Houston",
    "postcode": "77006",
    "lat": 29.7464053,
    "lon": -95.3764189
  },
  {
    "street": "Louisiana Street",
    "housenumber": "2625",
    "city": "Houston",
    "postcode": "77006",
    "lat": 29.7465193,
    "lon": -95.3766423
  },
  {
    "street": "Louisiana Street",
    "housenumber": "2625",
    "city": "Houston",
    "postcode": "77006",
    "lat": 29.7464842,
    "lon": -95.3765684
  },
  {
    "street": "Milam Street",
    "housenumber": "2421",
    "city": "Houston",
    "postcode": "77006",
    "lat": 29.7468069,
    "lon": -95.3751872
  },
  {
    "street": "Louisiana Street",
    "housenumber": "2225",
    "city": "Houston",
    "postcode": "77006",
    "lat": 29.748813,
    "lon": -95.3745347
  },
  {
    "street": "Milam Street",
    "housenumber": "2621",
    "city": "Houston",
    "postcode": "77006",
    "lat": 29.7457448,
    "lon": -95.3762084
  },
  {
    "street": "Milam Street",
    "housenumber": "2621",
    "city": "Houston",
    "postcode": "77006",
    "lat": 29.7458636,
    "lon": -95.3761333
  },
  {
    "street": "Milam Street",
    "housenumber": "2217",
    "city": "Houston",
    "postcode": "77002",
    "lat": 29.7484929,
    "lon": -95.3734901
  },
  {
    "street": "Travis Street",
    "housenumber": "3100",
    "city": "Houston",
    "postcode": "77006",
    "lat": 29.742629,
    "lon": -95.3779908
  },
  {
    "street": "Travis Street",
    "housenumber": "2900",
    "city": "Houston",
    "postcode": "77006",
    "lat": 29.7436386,
    "lon": -95.3771975
  },
  {
    "street": "Yale Street",
    "housenumber": "174",
    "city": "Houston",
    "postcode": "77007",
    "lat": 29.7734798,
    "lon": -95.3982548
  },
  {
    "street": "Yale Street",
    "housenumber": "174",
    "city": "Houston",
    "lat": 29.7736521,
    "lon": -95.3982563
  },
  {
    "street": "El Camino Real",
    "housenumber": "16500",
    "city": "Houston",
    "postcode": "77062",
    "lat": 29.5577702,
    "lon": -95.1235945
  },
  {
    "street": "Bay Area Boulevard",
    "housenumber": "2325",
    "city": "Houston",
    "postcode": "77058",
    "lat": 29.5719556,
    "lon": -95.1107826
  },
  {
    "street": "El Camino Real",
    "housenumber": "16400",
    "city": "Houston",
    "postcode": "77062",
    "lat": 29.558593,
    "lon": -95.1247749
  },
  {
    "street": "Manhattan Drive",
    "housenumber": "8919",
    "city": "Houston",
    "postcode": "77096",
    "lat": 29.680769,
    "lon": -95.472911
  },
  {
    "street": "Manhattan Drive",
    "housenumber": "9015",
    "city": "Houston",
    "postcode": "77096",
    "lat": 29.679472,
    "lon": -95.472585
  },
  {
    "street": "Airline Drive",
    "housenumber": "7418",
    "city": "Houston",
    "postcode": "77076",
    "lat": 29.86866,
    "lon": -95.3843575
  },
  {
    "street": "Braesvalley Drive",
    "housenumber": "5207",
    "city": "Houston",
    "postcode": "77096",
    "lat": 29.6792918,
    "lon": -95.4731396
  },
  {
    "street": "Manhattan Drive",
    "housenumber": "9007",
    "city": "Houston",
    "postcode": "77096",
    "lat": 29.680022,
    "lon": -95.472767
  },
  {
    "street": "Braesvalley Drive",
    "housenumber": "5215",
    "city": "Houston",
    "postcode": "77096",
    "lat": 29.679188,
    "lon": -95.473679
  },
  {
    "street": "Manhattan Drive",
    "housenumber": "8923",
    "city": "Houston",
    "postcode": "77096",
    "lat": 29.680468,
    "lon": -95.472902
  },
  {
    "street": "Braesvalley Drive",
    "housenumber": "5203",
    "city": "Houston",
    "postcode": "77096",
    "lat": 29.6793103,
    "lon": -95.4728908
  },
  {
    "street": "Braesvalley Drive",
    "housenumber": "5211",
    "city": "Houston",
    "postcode": "77096",
    "lat": 29.6792457,
    "lon": -95.4734575
  },
  {
    "street": "Jason Street",
    "housenumber": "5210",
    "city": "Houston",
    "postcode": "77096",
    "lat": 29.6843238,
    "lon": -95.4731356
  },
  {
    "street": "Jason Street",
    "housenumber": "5226",
    "city": "Houston",
    "postcode": "77096",
    "lat": 29.6844126,
    "lon": -95.4741621
  },
  {
    "street": "Jason Street",
    "housenumber": "5230",
    "city": "Houston",
    "postcode": "77096",
    "lat": 29.6844207,
    "lon": -95.4744315
  },
  {
    "street": "West Bellfort Street",
    "housenumber": "3131",
    "city": "Houston",
    "postcode": "77054",
    "lat": 29.6720117,
    "lon": -95.4290052
  },
  {
    "street": "Louisiana Street",
    "housenumber": "2204",
    "city": "Houston",
    "lat": 29.7495249,
    "lon": -95.3751133
  },
  {
    "street": "Bauman Road",
    "housenumber": "10225",
    "city": "Houston",
    "lat": 29.8543494,
    "lon": -95.3721036
  },
  {
    "street": "Bauman Road",
    "housenumber": "10229",
    "city": "Houston",
    "lat": 29.8544041,
    "lon": -95.3721017
  },
  {
    "street": "Bauman Road",
    "housenumber": "10231",
    "city": "Houston",
    "lat": 29.8544475,
    "lon": -95.3721027
  },
  {
    "street": "Bauman Road",
    "housenumber": "10235",
    "city": "Houston",
    "lat": 29.8544988,
    "lon": -95.3721008
  },
  {
    "street": "Bauman Road",
    "housenumber": "10239",
    "city": "Houston",
    "lat": 29.854545,
    "lon": -95.3721014
  },
  {
    "street": "West Little York Road",
    "housenumber": "5700",
    "city": "Houston",
    "lat": 29.8645832,
    "lon": -95.4739237
  },
  {
    "street": "West 43rd Street",
    "housenumber": "1214",
    "city": "Houston",
    "lat": 29.8291689,
    "lon": -95.4311693
  },
  {
    "street": "West 43rd Street",
    "housenumber": "1214",
    "city": "Houston",
    "lat": 29.8291656,
    "lon": -95.4303817
  },
  {
    "street": "West 43rd Street",
    "housenumber": "1210",
    "city": "Houston",
    "lat": 29.8288953,
    "lon": -95.4304618
  },
  {
    "street": "West 43rd Street",
    "housenumber": "1210",
    "city": "Houston",
    "lat": 29.828784,
    "lon": -95.4304604
  },
  {
    "street": "Bay Area Boulevard",
    "housenumber": "2443",
    "city": "Houston",
    "postcode": "77058",
    "lat": 29.574632,
    "lon": -95.1096046
  },
  {
    "street": "Bay Area Boulevard",
    "housenumber": "2410",
    "city": "Houston",
    "postcode": "77058",
    "lat": 29.5731717,
    "lon": -95.1077485
  },
  {
    "street": "Fulton Street",
    "housenumber": "2617",
    "city": "Houston",
    "lat": 29.7862364,
    "lon": -95.3616437
  },
  {
    "street": "Fulton Street",
    "housenumber": "2603",
    "city": "Houston",
    "lat": 29.7857813,
    "lon": -95.3616309
  },
  {
    "street": "North Shepherd Drive",
    "housenumber": "3402",
    "city": "Houston",
    "postcode": "77018",
    "lat": 29.8176278,
    "lon": -95.4098911
  },
  {
    "street": "Kirby Drive",
    "housenumber": "3025",
    "city": "Houston",
    "postcode": "77098",
    "lat": 29.7378819,
    "lon": -95.4179772
  },
  {
    "street": "West Airport Boulevard",
    "housenumber": "9330",
    "city": "Houston",
    "postcode": "77031",
    "lat": 29.642262,
    "lon": -95.5426928
  },
  {
    "street": "West Gray Street",
    "housenumber": "125",
    "city": "Houston",
    "postcode": "77019",
    "lat": 29.7531325,
    "lon": -95.380196
  },
  {
    "street": "Smith Street",
    "housenumber": "2101",
    "city": "Houston",
    "postcode": "77002",
    "lat": 29.7505266,
    "lon": -95.3746958
  },
  {
    "street": "Kingwood Drive",
    "housenumber": "1275",
    "city": "Kingwood",
    "lat": 30.0506901,
    "lon": -95.2374511
  },
  {
    "street": "Kingwood Drive",
    "housenumber": "1247",
    "city": "Kingwood",
    "postcode": "77339",
    "lat": 30.0506802,
    "lon": -95.2381338
  },
  {
    "street": "Richmond Avenue",
    "housenumber": "5156",
    "city": "Houston",
    "postcode": "77056",
    "lat": 29.7327814,
    "lon": -95.4658258
  },
  {
    "street": "Richmond Avenue",
    "housenumber": "5140",
    "city": "Houston",
    "postcode": "77056",
    "lat": 29.7328017,
    "lon": -95.4649575
  },
  {
    "street": "Main Street",
    "housenumber": "914",
    "city": "Houston",
    "postcode": "77002",
    "lat": 29.757621,
    "lon": -95.3645546
  },
  {
    "street": "Main Street",
    "housenumber": "650",
    "city": "Houston",
    "postcode": "77002",
    "lat": 29.7595542,
    "lon": -95.3631129
  },
  {
    "street": "Fannin Street",
    "housenumber": "720",
    "city": "Houston",
    "postcode": "77002",
    "lat": 29.7581757,
    "lon": -95.3630325
  },
  {
    "street": "Congress Street",
    "housenumber": "801",
    "city": "Houston",
    "postcode": "77002",
    "lat": 29.7632214,
    "lon": -95.3620814
  },
  {
    "street": "Travis Street",
    "housenumber": "218",
    "city": "Houston",
    "postcode": "77002",
    "lat": 29.7630107,
    "lon": -95.3616013
  },
  {
    "street": "Congress Street",
    "housenumber": "924",
    "city": "Houston",
    "postcode": "77002",
    "lat": 29.7623925,
    "lon": -95.3612432
  },
  {
    "street": "Main Street",
    "housenumber": "308",
    "city": "Houston",
    "postcode": "77002",
    "lat": 29.7620312,
    "lon": -95.361147
  },
  {
    "street": "Main Street",
    "housenumber": "308",
    "city": "Houston",
    "postcode": "77002",
    "lat": 29.7620059,
    "lon": -95.3611677
  },
  {
    "street": "Canal Street",
    "housenumber": "3004",
    "city": "Houston",
    "postcode": "77003",
    "lat": 29.7543105,
    "lon": -95.3409715
  },
  {
    "street": "Gray Street",
    "housenumber": "510",
    "city": "Houston",
    "postcode": "77002",
    "lat": 29.7508618,
    "lon": -95.3756855
  },
  {
    "street": "Texas Avenue",
    "housenumber": "909",
    "city": "Houston",
    "postcode": "77002",
    "lat": 29.76054,
    "lon": -95.3631907
  },
  {
    "street": "West Alabama Street",
    "housenumber": "701",
    "city": "Houston",
    "postcode": "77006",
    "lat": 29.7383874,
    "lon": -95.3882991
  },
  {
    "street": "Main Street",
    "housenumber": "820",
    "city": "Houston",
    "postcode": "77002",
    "lat": 29.7580149,
    "lon": -95.3643278
  },
  {
    "street": "McKinney Street",
    "housenumber": "901",
    "city": "Houston",
    "postcode": "77002",
    "lat": 29.757519,
    "lon": -95.3654597
  },
  {
    "street": "Main Street",
    "housenumber": "901",
    "city": "Houston",
    "postcode": "77002",
    "lat": 29.757505,
    "lon": -95.3642929
  },
  {
    "street": "Main Street",
    "housenumber": "917",
    "city": "Houston",
    "postcode": "77002",
    "lat": 29.7572535,
    "lon": -95.3644968
  },
  {
    "street": "Main Street",
    "housenumber": "3700",
    "city": "Houston",
    "postcode": "77002",
    "lat": 29.7384755,
    "lon": -95.3797861
  },
  {
    "street": "Main Street",
    "housenumber": "3704",
    "city": "Houston",
    "postcode": "77002",
    "lat": 29.7383718,
    "lon": -95.3798552
  },
  {
    "street": "Main Street",
    "housenumber": "3718",
    "city": "Houston",
    "postcode": "77002",
    "lat": 29.7382398,
    "lon": -95.3799636
  },
  {
    "street": "Main Street",
    "housenumber": "3710",
    "city": "Houston",
    "postcode": "77002",
    "lat": 29.7384017,
    "lon": -95.3799932
  },
  {
    "street": "Main Street",
    "housenumber": "3622",
    "city": "Houston",
    "postcode": "77002",
    "lat": 29.7386508,
    "lon": -95.3796433
  },
  {
    "street": "Main Street",
    "housenumber": "3622",
    "city": "Houston",
    "postcode": "77002",
    "lat": 29.7388028,
    "lon": -95.3795223
  },
  {
    "street": "Main Street",
    "housenumber": "3622",
    "city": "Houston",
    "postcode": "77002",
    "lat": 29.7387614,
    "lon": -95.3798375
  },
  {
    "street": "San Jacinto Street",
    "housenumber": "1201",
    "city": "Houston",
    "postcode": "77002",
    "lat": 29.7533682,
    "lon": -95.3641501
  },
  {
    "street": "San Jacinto Street",
    "housenumber": "1201",
    "city": "Houston",
    "postcode": "77002",
    "lat": 29.7535126,
    "lon": -95.3640965
  },
  {
    "street": "Taylor Street",
    "housenumber": "1919",
    "city": "Houston",
    "lat": 29.7752929,
    "lon": -95.3833806
  },
  {
    "street": "Katy Freeway",
    "housenumber": "2423",
    "city": "Houston",
    "postcode": "77007",
    "lat": 29.7764377,
    "lon": -95.3824414
  },
  {
    "street": "Taylor Street",
    "housenumber": "1923",
    "city": "Houston",
    "lat": 29.775462,
    "lon": -95.3826895
  },
  {
    "street": "Craighead Drive",
    "housenumber": "11303",
    "city": "Houston",
    "lat": 29.661405,
    "lon": -95.445551
  },
  {
    "street": "Craighead Drive",
    "housenumber": "11405",
    "city": "Houston",
    "lat": 29.659647,
    "lon": -95.445406
  },
  {
    "street": "Craighead Drive",
    "housenumber": "11503",
    "city": "Houston",
    "lat": 29.658828,
    "lon": -95.445307
  },
  {
    "street": "Binz Street",
    "housenumber": "1200",
    "city": "Houston",
    "postcode": "77004",
    "lat": 29.7236671,
    "lon": -95.3877275
  },
  {
    "street": "Times Boulevard",
    "housenumber": "2400",
    "city": "Houston",
    "postcode": "77005",
    "lat": 29.7169295,
    "lon": -95.4151375
  },
  {
    "street": "Waugh Drive",
    "housenumber": "2020",
    "city": "Houston",
    "postcode": "77006",
    "lat": 29.7498258,
    "lon": -95.396475
  },
  {
    "street": "El Dorado Boulevard",
    "housenumber": "938",
    "city": "Houston",
    "lat": 29.5660716,
    "lon": -95.1338332
  },
  {
    "street": "Calhoun Road",
    "housenumber": "4701",
    "city": "Houston",
    "postcode": "77004",
    "lat": 29.7227273,
    "lon": -95.3371652
  },
  {
    "street": "Cougar Village Drive",
    "housenumber": "4401",
    "city": "Houston",
    "postcode": "77204",
    "lat": 29.7175235,
    "lon": -95.3423427
  },
  {
    "street": "South Kirkwood Road",
    "housenumber": "7417",
    "city": "Houston",
    "postcode": "77072",
    "lat": 29.697767,
    "lon": -95.5873067
  },
  {
    "street": "Scott Street",
    "housenumber": "3704",
    "city": "Houston",
    "postcode": "77004",
    "lat": 29.7225299,
    "lon": -95.3519286
  },
  {
    "street": "Katy Freeway",
    "housenumber": "9821",
    "city": "Houston",
    "postcode": "77024",
    "lat": 29.7835009,
    "lon": -95.5373767
  },
  {
    "street": "Scott Street",
    "housenumber": "5939",
    "city": "Houston",
    "lat": 29.7030971,
    "lon": -95.3587313
  },
  {
    "street": "Scott Street",
    "housenumber": "6073",
    "city": "Houston",
    "lat": 29.7009629,
    "lon": -95.3589672
  },
  {
    "street": "Scott Street",
    "housenumber": "6065",
    "city": "Houston",
    "lat": 29.7010274,
    "lon": -95.3589836
  },
  {
    "street": "Scott Street",
    "housenumber": "6081",
    "city": "Houston",
    "lat": 29.7008748,
    "lon": -95.3589508
  },
  {
    "street": "Old Spanish Trail",
    "housenumber": "3607",
    "city": "Houston",
    "lat": 29.7024374,
    "lon": -95.3638829
  },
  {
    "street": "Old Spanish Trail",
    "housenumber": "3607",
    "city": "Houston",
    "postcode": "77021",
    "lat": 29.7024355,
    "lon": -95.3639419
  },
  {
    "street": "Old Spanish Trail",
    "housenumber": "3602",
    "city": "Houston",
    "lat": 29.7016239,
    "lon": -95.3644963
  },
  {
    "street": "Old Spanish Trail",
    "housenumber": "3607",
    "city": "Houston",
    "lat": 29.702443,
    "lon": -95.3638087
  },
  {
    "street": "Old Spanish Trail",
    "housenumber": "3602",
    "city": "Houston",
    "postcode": "77021",
    "lat": 29.7016182,
    "lon": -95.3646136
  },
  {
    "street": "Old Spanish Trail",
    "housenumber": "3607",
    "city": "Houston",
    "lat": 29.7024525,
    "lon": -95.3636821
  },
  {
    "street": "Old Spanish Trail",
    "housenumber": "3607",
    "city": "Houston",
    "postcode": "77021",
    "lat": 29.7024336,
    "lon": -95.3640139
  },
  {
    "street": "Lawndale Street",
    "housenumber": "5632",
    "city": "Houston",
    "lat": 29.7259155,
    "lon": -95.3162604
  },
  {
    "street": "Lawndale Street",
    "housenumber": "5634",
    "city": "Houston",
    "lat": 29.7258942,
    "lon": -95.3161776
  },
  {
    "street": "Lawndale Street",
    "housenumber": "5616",
    "city": "Houston",
    "lat": 29.726058,
    "lon": -95.3174556
  },
  {
    "street": "Telephone Road",
    "housenumber": "3341",
    "city": "Houston",
    "lat": 29.7120299,
    "lon": -95.3125209
  },
  {
    "street": "Telephone Road",
    "housenumber": "3333",
    "city": "Houston",
    "postcode": "77023",
    "lat": 29.711514,
    "lon": -95.3137995
  },
  {
    "street": "Telephone Road",
    "housenumber": "3331",
    "city": "Houston",
    "lat": 29.7120058,
    "lon": -95.314965
  },
  {
    "street": "Telephone Road",
    "housenumber": "3331",
    "city": "Houston",
    "lat": 29.7119846,
    "lon": -95.3150325
  },
  {
    "street": "Telephone Road",
    "housenumber": "3341",
    "city": "Houston",
    "lat": 29.7120542,
    "lon": -95.3124807
  },
  {
    "street": "Telephone Road",
    "housenumber": "3337",
    "city": "Houston",
    "lat": 29.7117132,
    "lon": -95.3128462
  },
  {
    "street": "Telephone Road",
    "housenumber": "3331",
    "city": "Houston",
    "lat": 29.7119585,
    "lon": -95.31511
  },
  {
    "street": "Telephone Road",
    "housenumber": "3329",
    "city": "Houston",
    "postcode": "77023",
    "lat": 29.7112505,
    "lon": -95.3145274
  },
  {
    "street": "Meyerland Plaza Mall",
    "housenumber": "398",
    "city": "Houston",
    "postcode": "77096",
    "lat": 29.6867924,
    "lon": -95.4606674
  },
  {
    "street": "South Voss Road",
    "housenumber": "1047",
    "city": "Houston",
    "postcode": "75057",
    "lat": 29.7524669,
    "lon": -95.4999989
  },
  {
    "street": "Clear Lake City Boulevard",
    "housenumber": "1235",
    "city": "Houston",
    "postcode": "77062",
    "lat": 29.5827381,
    "lon": -95.1536587
  },
  {
    "street": "Galveston Road",
    "housenumber": "13914",
    "city": "Webster",
    "postcode": "77598",
    "lat": 29.5782694,
    "lon": -95.1569716
  },
  {
    "street": "Milam Street",
    "housenumber": "700",
    "city": "Houston",
    "lat": 29.7601901,
    "lon": -95.3651729
  },
  {
    "street": "El Dorado Boulevard",
    "housenumber": "1950",
    "city": "Houston",
    "postcode": "77062",
    "lat": 29.5779758,
    "lon": -95.1205712
  },
  {
    "street": "El Dorado Boulevard",
    "housenumber": "1945",
    "city": "Houston",
    "postcode": "77062",
    "lat": 29.5783759,
    "lon": -95.1219579
  },
  {
    "street": "West 43rd Street",
    "housenumber": "1214",
    "city": "Houston",
    "lat": 29.8291665,
    "lon": -95.4306029
  },
  {
    "street": "West 43rd Street",
    "housenumber": "1214",
    "city": "Houston",
    "lat": 29.8291678,
    "lon": -95.4308978
  },
  {
    "street": "West 43rd Street",
    "housenumber": "1214",
    "city": "Houston",
    "lat": 29.8291659,
    "lon": -95.4304555
  },
  {
    "street": "West 43rd Street",
    "housenumber": "1214",
    "city": "Houston",
    "lat": 29.8291675,
    "lon": -95.430824
  },
  {
    "street": "West 43rd Street",
    "housenumber": "1214",
    "city": "Houston",
    "lat": 29.8291668,
    "lon": -95.4306766
  },
  {
    "street": "West 43rd Street",
    "housenumber": "1214",
    "city": "Houston",
    "lat": 29.8291681,
    "lon": -95.4309715
  },
  {
    "street": "West 43rd Street",
    "housenumber": "1214",
    "city": "Houston",
    "lat": 29.8291684,
    "lon": -95.4310452
  },
  {
    "street": "North Freeway",
    "housenumber": "6500",
    "city": "Houston",
    "lat": 29.8601848,
    "lon": -95.4022752
  },
  {
    "street": "Bay Area Boulevard",
    "housenumber": "1201",
    "city": "League City",
    "postcode": "77058",
    "lat": 29.5577114,
    "lon": -95.1178206
  },
  {
    "street": "Bay Area Boulevard",
    "housenumber": "515",
    "city": "Houston",
    "postcode": "77058",
    "lat": 29.5516681,
    "lon": -95.1262036
  },
  {
    "street": "Bay Area Boulevard",
    "housenumber": "505",
    "city": "Houston",
    "postcode": "77058",
    "lat": 29.5514902,
    "lon": -95.1263979
  },
  {
    "street": "Chenevert Street",
    "housenumber": "2117",
    "city": "Houston",
    "lat": 29.7437676,
    "lon": -95.3646646
  },
  {
    "street": "Webster Street",
    "housenumber": "1701",
    "city": "Houston",
    "postcode": "77003",
    "lat": 29.7444848,
    "lon": -95.3656864
  },
  {
    "street": "Webster Street",
    "housenumber": "1701",
    "city": "Houston",
    "postcode": "77003",
    "lat": 29.7443784,
    "lon": -95.3655081
  },
  {
    "street": "Webster Street",
    "housenumber": "1701",
    "city": "Houston",
    "postcode": "77003",
    "lat": 29.7444269,
    "lon": -95.3655938
  },
  {
    "street": "Polk Street",
    "housenumber": "4218",
    "city": "Houston",
    "postcode": "77023",
    "lat": 29.7391973,
    "lon": -95.3372745
  },
  {
    "street": "Polk Street",
    "housenumber": "4224",
    "city": "Houston",
    "postcode": "77023",
    "lat": 29.7391491,
    "lon": -95.3370818
  },
  {
    "street": "Calhoun Road",
    "housenumber": "4800",
    "city": "Houston",
    "postcode": "77204",
    "lat": 29.7218937,
    "lon": -95.3382099
  },
  {
    "street": "Gulf Freeway",
    "housenumber": "2821",
    "city": "Houston",
    "lat": 29.740463,
    "lon": -95.3536256
  },
  {
    "street": "Saint Emanuel Street",
    "housenumber": "801",
    "city": "Houston",
    "postcode": "77003",
    "lat": 29.7523653,
    "lon": -95.3542204
  },
  {
    "street": "Saint Emanuel Street",
    "housenumber": "906",
    "city": "Houston",
    "postcode": "77003",
    "lat": 29.7518735,
    "lon": -95.3554905
  },
  {
    "street": "Walker Street",
    "housenumber": "2000",
    "city": "Houston",
    "postcode": "77003",
    "lat": 29.7522348,
    "lon": -95.3556796
  },
  {
    "street": "Gulfgate Center",
    "housenumber": "560",
    "city": "Houston",
    "lat": 29.696816,
    "lon": -95.2958026
  },
  {
    "street": "Gulfgate Center Mall",
    "housenumber": "570",
    "city": "Houston",
    "postcode": "77087",
    "lat": 29.6970799,
    "lon": -95.2955684
  },
  {
    "street": "Gulfgate Center",
    "housenumber": "950",
    "city": "Houston",
    "lat": 29.6978316,
    "lon": -95.2966361
  },
  {
    "street": "Gulfgate Center Mall",
    "housenumber": "712",
    "city": "Houston",
    "postcode": "77087",
    "lat": 29.6965499,
    "lon": -95.2971202
  },
  {
    "street": "Gulfgate Center",
    "housenumber": "1420",
    "city": "Houston",
    "lat": 29.6978794,
    "lon": -95.2977524
  },
  {
    "street": "Gulfgate Center",
    "housenumber": "1450",
    "city": "Houston",
    "postcode": "77087",
    "lat": 29.6978076,
    "lon": -95.2977735
  },
  {
    "street": "North Park Drive",
    "housenumber": "2162",
    "city": "Kingwood",
    "postcode": "77339",
    "lat": 30.0681424,
    "lon": -95.2150286
  },
  {
    "street": "San Felipe Street",
    "housenumber": "5777",
    "city": "Houston",
    "postcode": "77057",
    "lat": 29.7494484,
    "lon": -95.4785691
  },
  {
    "street": "San Felipe Street",
    "housenumber": "5779",
    "city": "Houston",
    "postcode": "77057",
    "lat": 29.7494452,
    "lon": -95.4786982
  },
  {
    "street": "Greenspoint Drive",
    "housenumber": "12124",
    "city": "Houston",
    "postcode": "77032",
    "lat": 29.9439635,
    "lon": -95.4063687
  },
  {
    "street": "Gulf Freeway",
    "housenumber": "6888",
    "city": "Houston",
    "postcode": "77087",
    "lat": 29.7021014,
    "lon": -95.2985627
  },
  {
    "street": "Gulf Freeway",
    "housenumber": "6888",
    "city": "Houston",
    "postcode": "77087",
    "lat": 29.7015523,
    "lon": -95.2974786
  },
  {
    "street": "Travis Street",
    "housenumber": "808",
    "city": "Houston",
    "lat": 29.7588001,
    "lon": -95.3650524
  },
  {
    "street": "Lawndale Street",
    "housenumber": "5605",
    "city": "Houston",
    "lat": 29.7268723,
    "lon": -95.3172409
  },
  {
    "street": "Lawndale Street",
    "housenumber": "5601",
    "city": "Houston",
    "lat": 29.7269258,
    "lon": -95.3174433
  },
  {
    "street": "Lawndale Street",
    "housenumber": "5601",
    "city": "Houston",
    "lat": 29.7268987,
    "lon": -95.3173564
  },
  {
    "street": "Telephone Road",
    "housenumber": "740",
    "city": "Houston",
    "lat": 29.734311,
    "lon": -95.3306122
  },
  {
    "street": "Telephone Road",
    "housenumber": "724",
    "city": "Houston",
    "lat": 29.7345428,
    "lon": -95.3309446
  },
  {
    "street": "Telephone Road",
    "housenumber": "804",
    "city": "Houston",
    "postcode": "77023",
    "lat": 29.733514,
    "lon": -95.3296637
  },
  {
    "street": "South 75th Street",
    "housenumber": "805",
    "city": "Houston",
    "lat": 29.7169128,
    "lon": -95.2941371
  },
  {
    "street": "Griggs Road",
    "housenumber": "6955",
    "city": "Houston",
    "lat": 29.7149788,
    "lon": -95.2943592
  },
  {
    "street": "South 75th Street",
    "housenumber": "823",
    "city": "Houston",
    "postcode": "77023",
    "lat": 29.7166771,
    "lon": -95.2942302
  },
  {
    "street": "South 75th Street",
    "housenumber": "801",
    "city": "Houston",
    "lat": 29.7170363,
    "lon": -95.2941398
  },
  {
    "street": "Lawndale Street",
    "housenumber": "7115",
    "city": "Houston",
    "lat": 29.7176962,
    "lon": -95.2937643
  },
  {
    "street": "Lawndale Street",
    "housenumber": "7109",
    "city": "Houston",
    "lat": 29.7178466,
    "lon": -95.2941631
  },
  {
    "street": "Lawndale Street",
    "housenumber": "7111",
    "city": "Houston",
    "lat": 29.7178495,
    "lon": -95.2939996
  },
  {
    "street": "Harrisburg",
    "housenumber": "6822",
    "city": "Houston",
    "postcode": "77011",
    "lat": 29.7358202,
    "lon": -95.3058764
  },
  {
    "street": "Harrisburg Boulevard",
    "housenumber": "6858",
    "city": "Houston",
    "postcode": "77011",
    "lat": 29.7355972,
    "lon": -95.3050308
  },
  {
    "street": "Woodridge Drive",
    "housenumber": "7020",
    "city": "Houston",
    "postcode": "77087",
    "lat": 29.7033713,
    "lon": -95.2957697
  },
  {
    "street": "Lawndale Street",
    "housenumber": "7049",
    "city": "Houston",
    "lat": 29.7176797,
    "lon": -95.2964194
  },
  {
    "street": "Lawndale Street",
    "housenumber": "7053",
    "city": "Houston",
    "lat": 29.7182032,
    "lon": -95.2960716
  },
  {
    "street": "Lawndale Street",
    "housenumber": "7071",
    "city": "Houston",
    "lat": 29.7182133,
    "lon": -95.2955028
  },
  {
    "street": "Lawndale Street",
    "housenumber": "7061",
    "city": "Houston",
    "lat": 29.7182183,
    "lon": -95.2957092
  },
  {
    "street": "Main Street",
    "housenumber": "1000",
    "city": "Houston",
    "postcode": "77002",
    "lat": 29.7566945,
    "lon": -95.3655339
  },
  {
    "street": "North MacGregor Way",
    "housenumber": "3101",
    "city": "Houston",
    "lat": 29.713892,
    "lon": -95.370348
  },
  {
    "street": "Westheimer Road",
    "housenumber": "6135",
    "city": "Houston",
    "postcode": "77057",
    "lat": 29.7365738,
    "lon": -95.4904226
  },
  {
    "street": "Long Point Road",
    "housenumber": "7690",
    "city": "Houston",
    "postcode": "77055",
    "lat": 29.8030599,
    "lon": -95.4805037
  },
  {
    "street": "Sabine Street",
    "housenumber": "105",
    "city": "Houston",
    "postcode": "77007",
    "lat": 29.762258,
    "lon": -95.3760557
  },
  {
    "street": "Bay Area Boulevard",
    "housenumber": "2422",
    "city": "Houston",
    "postcode": "77058",
    "lat": 29.5743658,
    "lon": -95.1071465
  },
  {
    "street": "Northpark Drive",
    "housenumber": "3410",
    "city": "Kingwood",
    "postcode": "77345",
    "lat": 30.0666789,
    "lon": -95.1871315
  },
  {
    "street": "Northpark Drive",
    "housenumber": "3410",
    "city": "Kingwood",
    "postcode": "77345",
    "lat": 30.0668526,
    "lon": -95.1874435
  },
  {
    "street": "Northpark Drive",
    "housenumber": "330",
    "city": "Kingwood",
    "postcode": "77345",
    "lat": 30.0667939,
    "lon": -95.1888441
  },
  {
    "street": "Northpark Drive",
    "housenumber": "3048",
    "city": "Kingwood",
    "lat": 30.0675567,
    "lon": -95.1955257
  },
  {
    "street": "Northpark Drive",
    "housenumber": "3058",
    "city": "Kingwood",
    "lat": 30.0674896,
    "lon": -95.1952177
  },
  {
    "street": "Northpark Drive",
    "housenumber": "3022",
    "city": "Kingwood",
    "lat": 30.0676867,
    "lon": -95.1959549
  },
  {
    "street": "Katy Freeway",
    "housenumber": "11911",
    "city": "Houston",
    "postcode": "77079",
    "lat": 29.7835965,
    "lon": -95.595937
  },
  {
    "street": "Richmond Avenue",
    "housenumber": "5160",
    "city": "Houston",
    "postcode": "77056",
    "lat": 29.7327805,
    "lon": -95.4659304
  },
  {
    "street": "Richmond Avenue",
    "housenumber": "5134",
    "city": "Houston",
    "postcode": "77056",
    "lat": 29.7328137,
    "lon": -95.4647103
  },
  {
    "street": "Richmond Avenue",
    "housenumber": "5130",
    "city": "Houston",
    "postcode": "77056",
    "lat": 29.7328219,
    "lon": -95.4642212
  },
  {
    "street": "Richmond Avenue",
    "housenumber": "5152",
    "city": "Houston",
    "postcode": "77056",
    "lat": 29.732783,
    "lon": -95.4656572
  },
  {
    "street": "Memorial Drive",
    "housenumber": "5401",
    "city": "Houston",
    "lat": 29.7609974,
    "lon": -95.4202809
  },
  {
    "street": "Memorial Drive",
    "housenumber": "5401",
    "city": "Houston",
    "lat": 29.7609975,
    "lon": -95.4205241
  },
  {
    "street": "Memorial Drive",
    "housenumber": "5401",
    "city": "Houston",
    "lat": 29.7609974,
    "lon": -95.4203633
  },
  {
    "street": "South Wilcrest Drive",
    "housenumber": "10300",
    "city": "Houston",
    "postcode": "77099",
    "lat": 29.6620219,
    "lon": -95.5690721
  },
  {
    "street": "Nance Street",
    "housenumber": "1302",
    "city": "Houston",
    "postcode": "77002",
    "lat": 29.7680583,
    "lon": -95.3541199
  },
  {
    "street": "Hammerly Boulevard",
    "housenumber": "10700",
    "city": "Houston",
    "postcode": "77043",
    "lat": 29.8130095,
    "lon": -95.5655438
  },
  {
    "street": "McCarty Drive",
    "housenumber": "510",
    "city": "Houston",
    "postcode": "77029",
    "lat": 29.7798746,
    "lon": -95.2844045
  },
  {
    "street": "North Freeway",
    "housenumber": "4414",
    "city": "Houston",
    "lat": 29.830355,
    "lon": -95.3796152
  },
  {
    "street": "Franklin Street",
    "housenumber": "1820",
    "city": "Houston",
    "postcode": "77002",
    "lat": 29.7583002,
    "lon": -95.3526611
  },
  {
    "street": "Franklin Street",
    "housenumber": "1820",
    "city": "Houston",
    "postcode": "77002",
    "lat": 29.7581527,
    "lon": -95.3527828
  },
  {
    "street": "North Shepherd Drive",
    "housenumber": "3404",
    "city": "Houston",
    "postcode": "77018",
    "lat": 29.8177017,
    "lon": -95.4098872
  },
  {
    "street": "Tallant Street",
    "housenumber": "242",
    "city": "Houston",
    "postcode": "77076",
    "lat": 29.8536968,
    "lon": -95.374182
  },
  {
    "street": "Congress Street",
    "housenumber": "1012",
    "city": "Houston",
    "postcode": "77002",
    "lat": 29.7617409,
    "lon": -95.3602074
  },
  {
    "street": "Main Street",
    "housenumber": "509",
    "city": "Houston",
    "postcode": "77002",
    "lat": 29.7602507,
    "lon": -95.3621117
  },
  {
    "street": "Main Street",
    "housenumber": "416",
    "city": "Houston",
    "postcode": "77002",
    "lat": 29.7610587,
    "lon": -95.3618838
  },
  {
    "street": "Main Street",
    "housenumber": "410",
    "city": "Houston",
    "postcode": "77002",
    "lat": 29.7612427,
    "lon": -95.3617577
  },
  {
    "street": "Prairie Street",
    "housenumber": "1000",
    "city": "Houston",
    "postcode": "77002",
    "lat": 29.7605395,
    "lon": -95.3618891
  },
  {
    "street": "Texas Avenue",
    "housenumber": "909",
    "city": "Houston",
    "postcode": "77002",
    "lat": 29.7604224,
    "lon": -95.3624401
  },
  {
    "street": "Milam Street",
    "housenumber": "2929",
    "city": "Houston",
    "postcode": "77006",
    "lat": 29.743861,
    "lon": -95.3776454
  },
  {
    "street": "West 20th Street",
    "housenumber": "1206",
    "city": "Houston",
    "postcode": "77008",
    "lat": 29.8034886,
    "lon": -95.4205897
  },
  {
    "street": "Snover Street",
    "housenumber": "910",
    "city": "Houston",
    "postcode": "77008",
    "lat": 29.7696599,
    "lon": -95.4046678
  },
  {
    "street": "Washington Avenue",
    "housenumber": "4720",
    "city": "Houston",
    "postcode": "77007",
    "lat": 29.7708152,
    "lon": -95.4091077
  },
  {
    "street": "Washington Avenue",
    "housenumber": "4720",
    "city": "Houston",
    "postcode": "77007",
    "lat": 29.7708217,
    "lon": -95.4086625
  },
  {
    "street": "Washington Avenue",
    "housenumber": "4601",
    "city": "Houston",
    "postcode": "77007",
    "lat": 29.7702821,
    "lon": -95.4076781
  },
  {
    "street": "Washington Avenue",
    "housenumber": "3939",
    "city": "Houston",
    "postcode": "77007",
    "lat": 29.7695948,
    "lon": -95.4007275
  },
  {
    "street": "Washington Avenue",
    "housenumber": "3939",
    "city": "Houston",
    "postcode": "77007",
    "lat": 29.7695605,
    "lon": -95.4002708
  },
  {
    "street": "Waugh Drive",
    "housenumber": "33",
    "city": "Houston",
    "postcode": "77007",
    "lat": 29.76817,
    "lon": -95.3978889
  },
  {
    "street": "South Heights Boulevard",
    "housenumber": "140",
    "city": "Houston",
    "postcode": "77007",
    "lat": 29.7681635,
    "lon": -95.3975505
  },
  {
    "street": "Harvard Street",
    "housenumber": "77",
    "city": "Houston",
    "postcode": "77007",
    "lat": 29.7700613,
    "lon": -95.3962089
  },
  {
    "street": "Washington Avenue",
    "housenumber": "3414",
    "city": "Houston",
    "postcode": "77007",
    "lat": 29.7695952,
    "lon": -95.394786
  },
  {
    "street": "North Shepherd Drive",
    "housenumber": "1901",
    "city": "Houston",
    "postcode": "77008",
    "lat": 29.8031008,
    "lon": -95.410536
  },
  {
    "street": "North Shepherd Drive",
    "housenumber": "1901",
    "city": "Houston",
    "postcode": "77008",
    "lat": 29.8030951,
    "lon": -95.4107421
  },
  {
    "street": "North Shepherd Drive",
    "housenumber": "1901",
    "city": "Houston",
    "postcode": "77008",
    "lat": 29.8030954,
    "lon": -95.4106849
  },
  {
    "street": "North Shepherd Drive",
    "housenumber": "1901",
    "city": "Houston",
    "postcode": "77008",
    "lat": 29.8030944,
    "lon": -95.4108565
  },
  {
    "street": "West 19th Street",
    "housenumber": "350",
    "city": "Houston",
    "postcode": "77008",
    "lat": 29.8027058,
    "lon": -95.4034662
  },
  {
    "street": "West 19th Street",
    "housenumber": "375",
    "city": "Houston",
    "lat": 29.8030396,
    "lon": -95.403484
  },
  {
    "street": "West 19th Street",
    "housenumber": "315",
    "city": "Houston",
    "lat": 29.803054,
    "lon": -95.4020801
  },
  {
    "street": "West 19th Street",
    "housenumber": "321",
    "city": "Houston",
    "lat": 29.8030665,
    "lon": -95.4023581
  },
  {
    "street": "West 19th Street",
    "housenumber": "242",
    "city": "Houston",
    "lat": 29.8026862,
    "lon": -95.4006728
  },
  {
    "street": "West 20th Street",
    "housenumber": "250",
    "city": "Houston",
    "lat": 29.8037522,
    "lon": -95.4012092
  },
  {
    "street": "West 20th Street",
    "housenumber": "250",
    "city": "Houston",
    "lat": 29.8037493,
    "lon": -95.4008814
  },
  {
    "street": "Yale Street",
    "housenumber": "2009",
    "city": "Houston",
    "postcode": "77008",
    "lat": 29.8046045,
    "lon": -95.3995704
  },
  {
    "street": "West 19th Street",
    "housenumber": "250",
    "city": "Houston",
    "lat": 29.8026613,
    "lon": -95.4011867
  },
  {
    "street": "West 22nd Street",
    "housenumber": "611",
    "city": "Houston",
    "lat": 29.8060546,
    "lon": -95.4083616
  },
  {
    "street": "West 22nd Street",
    "housenumber": "611",
    "city": "Houston",
    "lat": 29.8060418,
    "lon": -95.40827
  },
  {
    "street": "Sorella Court",
    "housenumber": "800",
    "city": "Houston",
    "postcode": "77024",
    "lat": 29.7799159,
    "lon": -95.5612571
  },
  {
    "street": "Airline Drive",
    "housenumber": "7404",
    "city": "Houston",
    "postcode": "77076",
    "lat": 29.8686324,
    "lon": -95.3835231
  },
  {
    "street": "West Loop North",
    "housenumber": "1702",
    "city": "Houston",
    "lat": 29.8005039,
    "lon": -95.4482566
  },
  {
    "street": "Westheimer Road",
    "housenumber": "904",
    "city": "Houston",
    "postcode": "77006",
    "lat": 29.7449924,
    "lon": -95.3907
  },
  {
    "street": "San Felipe Street",
    "housenumber": "5860",
    "city": "Houston",
    "postcode": "77057",
    "lat": 29.7503864,
    "lon": -95.4850801
  },
  {
    "street": "Westheimer Road",
    "housenumber": "2417",
    "city": "Houston",
    "postcode": "77098",
    "lat": 29.7419327,
    "lon": -95.4168812
  },
  {
    "street": "West Crosstimbers Street",
    "housenumber": "508",
    "city": "Houston",
    "postcode": "77018",
    "lat": 29.8290894,
    "lon": -95.4078228
  },
  {
    "street": "West 43rd Street",
    "housenumber": "1354",
    "city": "Houston",
    "lat": 29.8287457,
    "lon": -95.4339681
  },
  {
    "street": "West 43rd Street",
    "housenumber": "1362",
    "city": "Houston",
    "lat": 29.8287461,
    "lon": -95.434224
  },
  {
    "street": "West 43rd Street",
    "housenumber": "1358",
    "city": "Houston",
    "lat": 29.8287455,
    "lon": -95.4341046
  },
  {
    "street": "West 43rd Street",
    "housenumber": "1354",
    "city": "Houston",
    "lat": 29.8287457,
    "lon": -95.4338998
  },
  {
    "street": "West 43rd Street",
    "housenumber": "1356",
    "city": "Houston",
    "lat": 29.8287456,
    "lon": -95.4340363
  },
  {
    "street": "West 43rd Street",
    "housenumber": "1354",
    "city": "Houston",
    "lat": 29.8287458,
    "lon": -95.4338075
  },
  {
    "street": "West 43rd Street",
    "housenumber": "1362",
    "city": "Houston",
    "lat": 29.8287466,
    "lon": -95.4342752
  },
  {
    "street": "West 43rd Street",
    "housenumber": "1360",
    "city": "Houston",
    "lat": 29.8287455,
    "lon": -95.4341728
  },
  {
    "street": "North Loop West",
    "housenumber": "1249",
    "city": "Houston",
    "lat": 29.8120126,
    "lon": -95.4220326
  },
  {
    "street": "Kingwood Drive",
    "housenumber": "4526",
    "city": "Kingwood",
    "postcode": "77345",
    "lat": 30.048389,
    "lon": -95.1825861
  },
  {
    "street": "Kingwood Drive",
    "housenumber": "4530",
    "city": "Kingwood",
    "postcode": "77345",
    "lat": 30.0484633,
    "lon": -95.1825512
  },
  {
    "street": "Kingwood Drive",
    "housenumber": "4580",
    "city": "Kingwood",
    "postcode": "77345",
    "lat": 30.0493572,
    "lon": -95.1821153
  },
  {
    "street": "Kingwood Drive",
    "housenumber": "4580",
    "city": "Kingwood",
    "postcode": "77345",
    "lat": 30.0494257,
    "lon": -95.1820885
  },
  {
    "street": "Kingwood Drive",
    "housenumber": "4580",
    "city": "Kingwood",
    "postcode": "77345",
    "lat": 30.0494849,
    "lon": -95.1820617
  },
  {
    "street": "Kingwood Drive",
    "housenumber": "4580",
    "city": "Kingwood",
    "postcode": "77345",
    "lat": 30.0495522,
    "lon": -95.1820362
  },
  {
    "street": "Kingwood Drive",
    "housenumber": "4580",
    "city": "Kingwood",
    "postcode": "77345",
    "lat": 30.0496137,
    "lon": -95.1820107
  },
  {
    "street": "Kingwood Drive",
    "housenumber": "4580",
    "city": "Kingwood",
    "postcode": "77345",
    "lat": 30.0496938,
    "lon": -95.1819745
  },
  {
    "street": "Kingwood Drive",
    "housenumber": "4582",
    "city": "Kingwood",
    "postcode": "77345",
    "lat": 30.0478369,
    "lon": -95.1808858
  },
  {
    "street": "Kingwood Drive",
    "housenumber": "4582",
    "city": "Kingwood",
    "postcode": "77345",
    "lat": 30.0499144,
    "lon": -95.1815172
  },
  {
    "street": "Kingwood Drive",
    "housenumber": "4582",
    "city": "Kingwood",
    "postcode": "77345",
    "lat": 30.0499341,
    "lon": -95.1814636
  },
  {
    "street": "Kingwood Drive",
    "housenumber": "4582",
    "city": "Kingwood",
    "postcode": "77345",
    "lat": 30.0499666,
    "lon": -95.1813898
  },
  {
    "street": "Kingwood Drive",
    "housenumber": "4590",
    "city": "Kingwood",
    "postcode": "77345",
    "lat": 30.0502475,
    "lon": -95.1812972
  },
  {
    "street": "Kingwood Drive",
    "housenumber": "4590",
    "city": "Kingwood",
    "postcode": "77345",
    "lat": 30.0503855,
    "lon": -95.1813332
  },
  {
    "street": "Kingwood Drive",
    "housenumber": "4570",
    "city": "Kingwood",
    "postcode": "77345",
    "lat": 30.0501792,
    "lon": -95.1823405
  },
  {
    "street": "Kingwood Drive",
    "housenumber": "4570",
    "city": "Kingwood",
    "postcode": "77345",
    "lat": 30.0501256,
    "lon": -95.1823118
  },
  {
    "street": "Kingwood Drive",
    "housenumber": "4572",
    "city": "Kingwood",
    "postcode": "77345",
    "lat": 30.050053,
    "lon": -95.1822743
  },
  {
    "street": "Kingwood Drive",
    "housenumber": "4554",
    "city": "Kingwood",
    "postcode": "77345",
    "lat": 30.0500472,
    "lon": -95.1830828
  },
  {
    "street": "Kingwood Drive",
    "housenumber": "4556",
    "city": "Kingwood",
    "postcode": "77345",
    "lat": 30.0499822,
    "lon": -95.1830563
  },
  {
    "street": "Kingwood Drive",
    "housenumber": "4560",
    "city": "Kingwood",
    "postcode": "77345",
    "lat": 30.049923,
    "lon": -95.1830342
  },
  {
    "street": "Kingwood Drive",
    "housenumber": "4562",
    "city": "Kingwood",
    "postcode": "77345",
    "lat": 30.0498656,
    "lon": -95.1830099
  },
  {
    "street": "Kingwood Drive",
    "housenumber": "4566",
    "city": "Kingwood",
    "postcode": "77345",
    "lat": 30.0498044,
    "lon": -95.1829789
  },
  {
    "street": "North Shepherd Drive",
    "housenumber": "4816",
    "city": "Houston",
    "lat": 29.8353089,
    "lon": -95.4103763
  },
  {
    "street": "Beverly Hill Street",
    "housenumber": "6214",
    "city": "Houston",
    "postcode": "77057",
    "lat": 29.7308641,
    "lon": -95.490713
  },
  {
    "street": "State Highway 249",
    "housenumber": "18836",
    "city": "Houston",
    "postcode": "77070",
    "lat": 29.9700402,
    "lon": -95.5592725
  },
  {
    "street": "Dallas Street",
    "housenumber": "914",
    "city": "Houston",
    "postcode": "77002",
    "lat": 29.7556922,
    "lon": -95.3669706
  },
  {
    "street": "Dallas Street",
    "housenumber": "904",
    "city": "Houston",
    "postcode": "77002",
    "lat": 29.7555625,
    "lon": -95.3666344
  },
  {
    "street": "Dallas Street",
    "housenumber": "916",
    "city": "Houston",
    "postcode": "77002",
    "lat": 29.7554327,
    "lon": -95.3668959
  },
  {
    "street": "Gulfcrest Street",
    "housenumber": "4600",
    "city": "Houston",
    "postcode": "77023",
    "lat": 29.7255109,
    "lon": -95.3348151
  },
  {
    "street": "Prairie Street",
    "housenumber": "1010",
    "city": "Houston",
    "postcode": "77002",
    "lat": 29.760363,
    "lon": -95.3615432
  },
  {
    "street": "Kingwood Drive",
    "housenumber": "1306",
    "city": "Kingwood",
    "postcode": "77339",
    "lat": 30.0490971,
    "lon": -95.237128
  },
  {
    "street": "Spring Branch Drive",
    "housenumber": "8928",
    "city": "Houston",
    "postcode": "77080",
    "lat": 29.8031922,
    "lon": -95.511042
  },
  {
    "street": "Highway 6 North",
    "housenumber": "1029",
    "city": "Houston",
    "postcode": "77079",
    "lat": 29.7872222,
    "lon": -95.6456161
  },
  {
    "street": "Hollister Street",
    "housenumber": "5770",
    "city": "Houston",
    "lat": 29.850784,
    "lon": -95.5034554
  },
  {
    "street": "Harwin Drive",
    "housenumber": "6965",
    "city": "Houston",
    "postcode": "77036",
    "lat": 29.717759,
    "lon": -95.5055621
  },
  {
    "street": "Kingwood Drive",
    "housenumber": "1075",
    "city": "Kingwood",
    "postcode": "77339",
    "lat": 30.0505553,
    "lon": -95.2408409
  },
  {
    "street": "Chestnut Ridge Road",
    "housenumber": "2612",
    "city": "Kingwood",
    "postcode": "77339",
    "lat": 30.0513887,
    "lon": -95.2398002
  },
  {
    "street": "Chestnut Ridge Road",
    "housenumber": "2618",
    "city": "Kingwood",
    "postcode": "77339",
    "lat": 30.051333,
    "lon": -95.23954
  },
  {
    "street": "Chestnut Ridge Road",
    "housenumber": "2614",
    "city": "Kingwood",
    "postcode": "77339",
    "lat": 30.0513713,
    "lon": -95.2396527
  },
  {
    "street": "Chestnut Ridge Road",
    "housenumber": "2622",
    "city": "Kingwood",
    "postcode": "77339",
    "lat": 30.0512843,
    "lon": -95.2394488
  },
  {
    "street": "Chestnut Ridge Road",
    "housenumber": "2624",
    "city": "Kingwood",
    "postcode": "77339",
    "lat": 30.0512262,
    "lon": -95.239375
  },
  {
    "street": "Chestnut Ridge Road",
    "housenumber": "2626",
    "city": "Kingwood",
    "postcode": "77339",
    "lat": 30.0511751,
    "lon": -95.2393013
  },
  {
    "street": "Kingwood Drive",
    "housenumber": "1113",
    "city": "Kingwood",
    "postcode": "77339",
    "lat": 30.0506795,
    "lon": -95.2398672
  },
  {
    "street": "Chestnut Ridge Road",
    "housenumber": "2627",
    "city": "Kingwood",
    "postcode": "77339",
    "lat": 30.0511264,
    "lon": -95.2405767
  },
  {
    "street": "Chestnut Ridge Road",
    "housenumber": "2755",
    "city": "Kingwood",
    "postcode": "77339",
    "lat": 30.0525304,
    "lon": -95.2407068
  },
  {
    "street": "Rockmead Drive",
    "housenumber": "929",
    "city": "Kingwood",
    "postcode": "77339",
    "lat": 30.053928,
    "lon": -95.2411091
  },
  {
    "street": "Kingwood Drive",
    "housenumber": "1153",
    "city": "Kingwood",
    "postcode": "77339",
    "lat": 30.050355,
    "lon": -95.2393576
  },
  {
    "street": "Kingwood Drive",
    "housenumber": "1213",
    "city": "Kingwood",
    "postcode": "77339",
    "lat": 30.0504223,
    "lon": -95.2387783
  },
  {
    "street": "Bissonnet Street",
    "housenumber": "2726",
    "city": "Houston",
    "postcode": "77005",
    "lat": 29.725788,
    "lon": -95.4215882
  },
  {
    "street": "Wilcrest Drive",
    "housenumber": "11606",
    "city": "Houston",
    "postcode": "77099",
    "lat": 29.6530367,
    "lon": -95.5709047
  },
  {
    "street": "North Terminal Road",
    "housenumber": "2800",
    "city": "Houston",
    "postcode": "77032",
    "lat": 29.987874,
    "lon": -95.3498089
  },
  {
    "street": "Kirby Drive",
    "housenumber": "8210",
    "city": "Houston",
    "postcode": "77054",
    "lat": 29.6914248,
    "lon": -95.4134263
  },
  {
    "street": "Chimney Rock Road",
    "housenumber": "11320",
    "city": "Houston",
    "postcode": "77035",
    "lat": 29.6576414,
    "lon": -95.4780402
  },
  {
    "street": "Kirby Drive",
    "housenumber": "8236",
    "city": "Houston",
    "postcode": "77054",
    "lat": 29.6891682,
    "lon": -95.4129677
  },
  {
    "street": "Hillcroft Avenue",
    "housenumber": "9619",
    "city": "Houston",
    "postcode": "77096",
    "lat": 29.6767078,
    "lon": -95.4930319
  },
  {
    "street": "Hillcroft Avenue",
    "housenumber": "14464",
    "city": "Houston",
    "postcode": "77085",
    "lat": 29.6166952,
    "lon": -95.4933649
  },
  {
    "street": "Hillcroft Avenue",
    "housenumber": "14404",
    "city": "Houston",
    "postcode": "77085",
    "lat": 29.6181363,
    "lon": -95.4946389
  },
  {
    "street": "Hillcroft Avenue",
    "housenumber": "14404",
    "city": "Houston",
    "postcode": "77085",
    "lat": 29.6184394,
    "lon": -95.4943492
  },
  {
    "street": "Hillcroft Avenue",
    "housenumber": "14404",
    "city": "Houston",
    "postcode": "77085",
    "lat": 29.6185373,
    "lon": -95.4942339
  },
  {
    "street": "Hillcroft Avenue",
    "housenumber": "14450",
    "city": "Houston",
    "postcode": "77085",
    "lat": 29.6179626,
    "lon": -95.4932951
  },
  {
    "street": "Hillcroft Avenue",
    "housenumber": "14460",
    "city": "Houston",
    "postcode": "77085",
    "lat": 29.617537,
    "lon": -95.4933139
  },
  {
    "street": "South Sam Houston Parkway West",
    "housenumber": "7414",
    "city": "Houston",
    "postcode": "77085",
    "lat": 29.6151061,
    "lon": -95.4952464
  },
  {
    "street": "South Sam Houston Parkway West",
    "housenumber": "7414",
    "city": "Houston",
    "postcode": "77085",
    "lat": 29.6150128,
    "lon": -95.4950292
  },
  {
    "street": "South Sam Houston Parkway West",
    "housenumber": "7416",
    "city": "Houston",
    "postcode": "77085",
    "lat": 29.6153673,
    "lon": -95.4958365
  },
  {
    "street": "South Sam Houston Parkway West",
    "housenumber": "7416",
    "city": "Houston",
    "postcode": "77085",
    "lat": 29.6156378,
    "lon": -95.4958902
  },
  {
    "street": "Fondren Road",
    "housenumber": "13915",
    "city": "Missouri City",
    "postcode": "77489",
    "lat": 29.6194197,
    "lon": -95.5081291
  },
  {
    "street": "Fondren Road",
    "housenumber": "13915",
    "city": "Missouri City",
    "postcode": "77489",
    "lat": 29.619436,
    "lon": -95.5079574
  },
  {
    "street": "Fondren Road",
    "housenumber": "13920",
    "city": "Missouri City",
    "postcode": "77489",
    "lat": 29.6201425,
    "lon": -95.5094273
  },
  {
    "street": "South Sam Houston Parkway West",
    "housenumber": "8420",
    "city": "Houston",
    "postcode": "77085",
    "lat": 29.6216768,
    "lon": -95.5087996
  },
  {
    "street": "Fondren Road",
    "housenumber": "13630",
    "city": "Houston",
    "postcode": "77085",
    "lat": 29.6240807,
    "lon": -95.5085582
  },
  {
    "street": "Main Street",
    "housenumber": "5601",
    "city": "Houston",
    "postcode": "77005",
    "lat": 29.7253216,
    "lon": -95.3892533
  },
  {
    "street": "Bissonnet Street",
    "housenumber": "1001",
    "city": "Houston",
    "postcode": "77005",
    "lat": 29.7257294,
    "lon": -95.3907091
  },
  {
    "street": "Bissonnet Street",
    "housenumber": "1001",
    "city": "Houston",
    "postcode": "77005",
    "lat": 29.7253957,
    "lon": -95.3905583
  },
  {
    "street": "Kingwood Drive",
    "housenumber": "740",
    "city": "Kingwood",
    "postcode": "77339",
    "lat": 30.0495229,
    "lon": -95.2450176
  },
  {
    "street": "Brookdale Drive",
    "housenumber": "2370",
    "city": "Kingwood",
    "lat": 30.0676178,
    "lon": -95.1962295
  },
  {
    "street": "South Gessner Drive",
    "housenumber": "12220",
    "city": "Houston",
    "postcode": "77071",
    "lat": 29.6439897,
    "lon": -95.5293584
  },
  {
    "street": "West Fuqua Street",
    "housenumber": "6100",
    "city": "Houston",
    "postcode": "77085",
    "lat": 29.6078877,
    "lon": -95.4775703
  },
  {
    "street": "Northpark",
    "housenumber": "2021",
    "city": "Northpark Place",
    "postcode": "77339",
    "lat": 30.0696677,
    "lon": -95.2163387
  },
  {
    "street": "Northpark Drive",
    "housenumber": "2165",
    "city": "Kingwood",
    "postcode": "77339",
    "lat": 30.0693331,
    "lon": -95.214514
  },
  {
    "street": "West Lake Houston Parkway",
    "housenumber": "4179",
    "city": "Kingwood",
    "postcode": "77345",
    "lat": 30.0663932,
    "lon": -95.1890203
  },
  {
    "street": "Northpark Drive",
    "housenumber": "3410",
    "city": "Kingwood",
    "postcode": "77345",
    "lat": 30.0667532,
    "lon": -95.187566
  },
  {
    "street": "Memorial City Way",
    "housenumber": "303",
    "city": "Houston",
    "postcode": "77024",
    "lat": 29.7814907,
    "lon": -95.5398241
  },
  {
    "street": "Baylor Plaza",
    "housenumber": "1",
    "city": "Houston",
    "postcode": "77030",
    "lat": 29.7114271,
    "lon": -95.3959487
  },
  {
    "street": "Baylor Plaza",
    "housenumber": "1",
    "city": "Houston",
    "postcode": "77030",
    "lat": 29.7106671,
    "lon": -95.3964142
  },
  {
    "street": "Baylor Plaza",
    "housenumber": "1",
    "city": "Houston",
    "postcode": "77030",
    "lat": 29.7106358,
    "lon": -95.3957729
  },
  {
    "street": "Baylor Plaza",
    "housenumber": "1",
    "city": "Houston",
    "postcode": "77030",
    "lat": 29.7103027,
    "lon": -95.3950656
  },
  {
    "street": "Baylor Plaza",
    "housenumber": "1",
    "city": "Houston",
    "postcode": "77030",
    "lat": 29.7099903,
    "lon": -95.3963063
  },
  {
    "street": "Bauman Road",
    "housenumber": "10326",
    "city": "Houston",
    "lat": 29.8555932,
    "lon": -95.371534
  },
  {
    "street": "Northpark Drive",
    "housenumber": "3090",
    "city": "Kingwood",
    "postcode": "77345",
    "lat": 30.0673612,
    "lon": -95.1947465
  },
  {
    "street": "Northpark Drive",
    "housenumber": "3084",
    "city": "Kingwood",
    "postcode": "77345",
    "lat": 30.0674381,
    "lon": -95.1950022
  },
  {
    "street": "Northpark Drive",
    "housenumber": "3086",
    "city": "Kingwood",
    "postcode": "77345",
    "lat": 30.0674125,
    "lon": -95.1948865
  },
  {
    "street": "Northpark Drive",
    "housenumber": "3050",
    "city": "Kingwood",
    "postcode": "77345",
    "lat": 30.0675313,
    "lon": -95.1953898
  },
  {
    "street": "Deerbrook Drive",
    "housenumber": "4021",
    "city": "Kingwood",
    "postcode": "77345",
    "lat": 30.0668487,
    "lon": -95.1931126
  },
  {
    "street": "West Lake Houston Parkway",
    "housenumber": "4125",
    "city": "Kingwood",
    "postcode": "77339",
    "lat": 30.0658704,
    "lon": -95.1889457
  },
  {
    "street": "West Lake Houston Parkway",
    "housenumber": "4121",
    "city": "Kingwood",
    "postcode": "77339",
    "lat": 30.0657481,
    "lon": -95.188928
  },
  {
    "street": "Northpark Drive",
    "housenumber": "2420",
    "city": "Kingwood",
    "postcode": "77339",
    "lat": 30.0679257,
    "lon": -95.2083096
  },
  {
    "street": "North Park Drive",
    "housenumber": "2263",
    "city": "Kingwood",
    "postcode": "77339",
    "lat": 30.0696815,
    "lon": -95.212126
  },
  {
    "street": "Northpark Drive",
    "housenumber": "2269",
    "city": "Kingwood",
    "postcode": "77339",
    "lat": 30.0696747,
    "lon": -95.211945
  },
  {
    "street": "Northpark Drive",
    "housenumber": "2249",
    "city": "Kingwood",
    "postcode": "77339",
    "lat": 30.0696862,
    "lon": -95.2123647
  },
  {
    "street": "Northpark Drive",
    "housenumber": "2245",
    "city": "Kingwood",
    "postcode": "77339",
    "lat": 30.06969,
    "lon": -95.2124862
  },
  {
    "street": "Northpark Drive",
    "housenumber": "2241",
    "city": "Kingwood",
    "postcode": "77339",
    "lat": 30.0696881,
    "lon": -95.2125856
  },
  {
    "street": "Northpark Drive",
    "housenumber": "2233",
    "city": "Kingwood",
    "postcode": "77339",
    "lat": 30.0696843,
    "lon": -95.2127027
  },
  {
    "street": "Northpark Drive",
    "housenumber": "2229",
    "city": "Kingwood",
    "postcode": "77339",
    "lat": 30.0696863,
    "lon": -95.212833
  },
  {
    "street": "Northpark Drive",
    "housenumber": "2213",
    "city": "Kingwood",
    "postcode": "77339",
    "lat": 30.0696369,
    "lon": -95.2132568
  },
  {
    "street": "Kingwood Drive",
    "housenumber": "880",
    "city": "Kingwood",
    "postcode": "77339",
    "lat": 30.0500014,
    "lon": -95.2436512
  },
  {
    "street": "Kingwood Drive",
    "housenumber": "750",
    "city": "Kingwood",
    "postcode": "77339",
    "lat": 30.0504657,
    "lon": -95.244521
  },
  {
    "street": "Kingwood Drive",
    "housenumber": "708",
    "city": "Kingwood",
    "postcode": "77339",
    "lat": 30.0507184,
    "lon": -95.2450997
  },
  {
    "street": "Kingwood Drive",
    "housenumber": "702",
    "city": "Kingwood",
    "postcode": "77339",
    "lat": 30.0507663,
    "lon": -95.2452584
  },
  {
    "street": "Kingwood Drive",
    "housenumber": "712",
    "city": "Kingwood",
    "postcode": "77339",
    "lat": 30.0506964,
    "lon": -95.24502
  },
  {
    "street": "Kingwood Drive",
    "housenumber": "706",
    "city": "Kingwood",
    "postcode": "77339",
    "lat": 30.0507481,
    "lon": -95.2451788
  },
  {
    "street": "Kingwood Drive",
    "housenumber": "590",
    "city": "Kingwood",
    "postcode": "77339",
    "lat": 30.0510193,
    "lon": -95.2460722
  },
  {
    "street": "Kingwood Drive",
    "housenumber": "876",
    "city": "Kingwood",
    "postcode": "77339",
    "lat": 30.0498967,
    "lon": -95.243736
  },
  {
    "street": "Kingwood Drive",
    "housenumber": "870",
    "city": "Kingwood",
    "postcode": "77339",
    "lat": 30.0498052,
    "lon": -95.2437936
  },
  {
    "street": "Kingwood Drive",
    "housenumber": "850",
    "city": "Kingwood",
    "postcode": "77339",
    "lat": 30.0496827,
    "lon": -95.2438872
  },
  {
    "street": "Kingwood Drive",
    "housenumber": "830",
    "city": "Kingwood",
    "postcode": "77339",
    "lat": 30.0496203,
    "lon": -95.2439545
  },
  {
    "street": "Kingwood Drive",
    "housenumber": "810",
    "city": "Kingwood",
    "postcode": "77339",
    "lat": 30.0495102,
    "lon": -95.2441009
  },
  {
    "street": "Kingwood Drive",
    "housenumber": "780",
    "city": "Kingwood",
    "postcode": "77339",
    "lat": 30.049452,
    "lon": -95.244317
  },
  {
    "street": "Kingwood Drive",
    "housenumber": "776",
    "city": "Kingwood",
    "postcode": "77339",
    "lat": 30.0494312,
    "lon": -95.244449
  },
  {
    "street": "Kingwood Drive",
    "housenumber": "770",
    "city": "Kingwood",
    "postcode": "77339",
    "lat": 30.0494333,
    "lon": -95.244617
  },
  {
    "street": "Kingwood Drive",
    "housenumber": "760",
    "city": "Kingwood",
    "postcode": "77339",
    "lat": 30.0494582,
    "lon": -95.2447371
  },
  {
    "street": "Kingwood Drive",
    "housenumber": "756",
    "city": "Kingwood",
    "postcode": "77339",
    "lat": 30.0494831,
    "lon": -95.2448427
  },
  {
    "street": "Kingwood Drive",
    "housenumber": "732",
    "city": "Kingwood",
    "postcode": "77339",
    "lat": 30.0495434,
    "lon": -95.2451092
  },
  {
    "street": "Kingwood Drive",
    "housenumber": "724-B",
    "city": "Kingwood",
    "postcode": "77339",
    "lat": 30.0496161,
    "lon": -95.245342
  },
  {
    "street": "Kingwood Drive",
    "housenumber": "724",
    "city": "Kingwood",
    "postcode": "77339",
    "lat": 30.049639,
    "lon": -95.2454357
  },
  {
    "street": "Kingwood Drive",
    "housenumber": "502",
    "city": "Kingwood",
    "postcode": "77339",
    "lat": 30.0501202,
    "lon": -95.2471993
  },
  {
    "street": "Kingwood Drive",
    "housenumber": "522",
    "city": "Kingwood",
    "postcode": "77339",
    "lat": 30.0502553,
    "lon": -95.2471417
  },
  {
    "street": "Kingwood Drive",
    "housenumber": "524",
    "city": "Kingwood",
    "postcode": "77339",
    "lat": 30.0503111,
    "lon": -95.2471233
  },
  {
    "street": "Kingwood Drive",
    "housenumber": "526",
    "city": "Kingwood",
    "postcode": "77339",
    "lat": 30.0503693,
    "lon": -95.2471035
  },
  {
    "street": "Kingwood Drive",
    "housenumber": "536",
    "city": "Kingwood",
    "postcode": "77339",
    "lat": 30.0507566,
    "lon": -95.2469683
  },
  {
    "street": "Kingwood Drive",
    "housenumber": "532",
    "city": "Kingwood",
    "postcode": "77339",
    "lat": 30.0505447,
    "lon": -95.2470403
  },
  {
    "street": "Kingwood Drive",
    "housenumber": "530",
    "city": "Kingwood",
    "postcode": "77339",
    "lat": 30.0504865,
    "lon": -95.2470667
  },
  {
    "street": "Richmond Avenue",
    "housenumber": "5174",
    "city": "Houston",
    "postcode": "77056",
    "lat": 29.7319739,
    "lon": -95.4661732
  },
  {
    "street": "West Lake Houston Parkway",
    "housenumber": "3910",
    "city": "Kingwood",
    "postcode": "77339",
    "lat": 30.0630095,
    "lon": -95.186665
  },
  {
    "street": "Kingwood Drive",
    "housenumber": "1712",
    "city": "Kingwood",
    "postcode": "77339",
    "lat": 30.0498695,
    "lon": -95.2302917
  },
  {
    "street": "Kingwood Drive",
    "housenumber": "1580",
    "city": "Kingwood",
    "postcode": "77339",
    "lat": 30.0492222,
    "lon": -95.2309852
  },
  {
    "street": "Kingwood Drive",
    "housenumber": "1580",
    "city": "Kingwood",
    "postcode": "77339",
    "lat": 30.0490511,
    "lon": -95.2309655
  },
  {
    "street": "Kingwood Drive",
    "housenumber": "1568",
    "city": "Kingwood",
    "postcode": "77339",
    "lat": 30.0487278,
    "lon": -95.2314166
  },
  {
    "street": "Kingwood Drive",
    "housenumber": "1528",
    "city": "Kingwood",
    "postcode": "77339",
    "lat": 30.0487012,
    "lon": -95.2322616
  },
  {
    "street": "Kingwood Drive",
    "housenumber": "1534",
    "city": "Kingwood",
    "postcode": "77339",
    "lat": 30.0486966,
    "lon": -95.2321824
  },
  {
    "street": "Kingwood Drive",
    "housenumber": "1538",
    "city": "Kingwood",
    "postcode": "77339",
    "lat": 30.0487049,
    "lon": -95.2320768
  },
  {
    "street": "Kingwood Drive",
    "housenumber": "1450",
    "city": "Kingwood",
    "postcode": "77339",
    "lat": 30.0491122,
    "lon": -95.2333851
  },
  {
    "street": "Kingwood Drive",
    "housenumber": "1420",
    "city": "Kingwood",
    "postcode": "77339",
    "lat": 30.0487153,
    "lon": -95.2342715
  },
  {
    "street": "Kingwood Drive",
    "housenumber": "1574",
    "city": "Kingwood",
    "postcode": "77339",
    "lat": 30.048707,
    "lon": -95.2319591
  },
  {
    "street": "Kingwood Drive",
    "housenumber": "1442",
    "city": "Kingwood",
    "postcode": "77339",
    "lat": 30.0487112,
    "lon": -95.23369
  },
  {
    "street": "Kingwood Drive",
    "housenumber": "1330",
    "city": "Kingwood",
    "postcode": "77339",
    "lat": 30.0487068,
    "lon": -95.2354609
  },
  {
    "street": "Kingwood Drive",
    "housenumber": "1330",
    "city": "Kingwood",
    "postcode": "77339",
    "lat": 30.048703,
    "lon": -95.2356244
  },
  {
    "street": "Kingwood Drive",
    "housenumber": "1345",
    "city": "Kingwood",
    "postcode": "77339",
    "lat": 30.0507739,
    "lon": -95.2362509
  },
  {
    "street": "Kingwood Drive",
    "housenumber": "1327",
    "city": "Kingwood",
    "postcode": "77339",
    "lat": 30.0507779,
    "lon": -95.2367125
  },
  {
    "street": "Kingwood Drive",
    "housenumber": "1311",
    "city": "Kingwood",
    "postcode": "77339",
    "lat": 30.0507776,
    "lon": -95.237066
  },
  {
    "street": "Kingwood Drive",
    "housenumber": "1271",
    "city": "Kingwood",
    "postcode": "77339",
    "lat": 30.0506867,
    "lon": -95.2376834
  },
  {
    "street": "Will Clayton Parkway",
    "housenumber": "7102",
    "city": "Humble",
    "postcode": "77338",
    "lat": 29.9824312,
    "lon": -95.2810697
  },
  {
    "street": "Bauman Road",
    "housenumber": "10322",
    "city": "Houston",
    "postcode": "77076",
    "lat": 29.8553809,
    "lon": -95.3715299
  },
  {
    "street": "Hermann Park Drive",
    "housenumber": "5555",
    "city": "Houston",
    "postcode": "77030",
    "lat": 29.7221762,
    "lon": -95.3903196
  },
  {
    "street": "Hermann Park Drive",
    "housenumber": "5555",
    "city": "Houston",
    "postcode": "77030",
    "lat": 29.7219141,
    "lon": -95.3898569
  },
  {
    "street": "Hermann Park Drive",
    "housenumber": "5555",
    "city": "Houston",
    "postcode": "77030",
    "lat": 29.7221203,
    "lon": -95.3900769
  },
  {
    "street": "Hermann Park Drive",
    "housenumber": "5555",
    "city": "Houston",
    "postcode": "77030",
    "lat": 29.7218063,
    "lon": -95.389373
  },
  {
    "street": "Town Center Place",
    "housenumber": "4445",
    "city": "Kingwood",
    "postcode": "77339",
    "lat": 30.048342,
    "lon": -95.1847273
  },
  {
    "street": "Town Center Place",
    "housenumber": "4443",
    "city": "Kingwood",
    "postcode": "77339",
    "lat": 30.0483049,
    "lon": -95.1848292
  },
  {
    "street": "Town Center Place",
    "housenumber": "4405",
    "city": "Kingwood",
    "postcode": "77339",
    "lat": 30.0481911,
    "lon": -95.185072
  },
  {
    "street": "Town Center Place",
    "housenumber": "4300",
    "city": "Kingwood",
    "postcode": "77339",
    "lat": 30.0480617,
    "lon": -95.1855796
  },
  {
    "street": "North Main Street",
    "housenumber": "9",
    "city": "Kingwood",
    "postcode": "77339",
    "lat": 30.0482021,
    "lon": -95.1856292
  },
  {
    "street": "North Main Street",
    "housenumber": "13",
    "city": "Kingwood",
    "postcode": "77339",
    "lat": 30.048288,
    "lon": -95.1856533
  },
  {
    "street": "North Main Street",
    "housenumber": "15",
    "city": "Kingwood",
    "postcode": "77339",
    "lat": 30.0483379,
    "lon": -95.1856748
  },
  {
    "street": "North Main Street",
    "housenumber": "19",
    "city": "Kingwood",
    "postcode": "77339",
    "lat": 30.0484584,
    "lon": -95.1857278
  },
  {
    "street": "North Main Street",
    "housenumber": "21",
    "city": "Kingwood",
    "postcode": "77339",
    "lat": 30.0485327,
    "lon": -95.1857801
  },
  {
    "street": "North Main Street",
    "housenumber": "42",
    "city": "Kingwood",
    "postcode": "77339",
    "lat": 30.0487103,
    "lon": -95.1854019
  },
  {
    "street": "North Main Street",
    "housenumber": "40",
    "city": "Kingwood",
    "postcode": "77339",
    "lat": 30.048629,
    "lon": -95.1853965
  },
  {
    "street": "North Main Street",
    "housenumber": "36",
    "city": "Kingwood",
    "postcode": "77339",
    "lat": 30.0485617,
    "lon": -95.185367
  },
  {
    "street": "North Main Street",
    "housenumber": "26",
    "city": "Kingwood",
    "postcode": "77339",
    "lat": 30.048463,
    "lon": -95.1853268
  },
  {
    "street": "North Main Street",
    "housenumber": "16",
    "city": "Kingwood",
    "postcode": "77339",
    "lat": 30.0483376,
    "lon": -95.1852678
  },
  {
    "street": "North Main Street",
    "housenumber": "12",
    "city": "Kingwood",
    "postcode": "77339",
    "lat": 30.0482866,
    "lon": -95.185249
  },
  {
    "street": "North Main Street",
    "housenumber": "8",
    "city": "Kingwood",
    "postcode": "77339",
    "lat": 30.0483498,
    "lon": -95.1852396
  },
  {
    "street": "North Main Street",
    "housenumber": "6",
    "city": "Kingwood",
    "postcode": "77339",
    "lat": 30.0482314,
    "lon": -95.1852208
  },
  {
    "street": "West Town Center Circle",
    "housenumber": "2845",
    "city": "Kingwood",
    "postcode": "77339",
    "lat": 30.0476696,
    "lon": -95.1858874
  },
  {
    "street": "Oak Street",
    "housenumber": "2940",
    "city": "Kingwood",
    "postcode": "77339",
    "lat": 30.048257,
    "lon": -95.1863138
  },
  {
    "street": "West Lake Houston Parkway",
    "housenumber": "2755",
    "city": "Kingwood",
    "postcode": "77339",
    "lat": 30.0459483,
    "lon": -95.1832684
  },
  {
    "street": "West Lake Houston Parkway",
    "housenumber": "2755",
    "city": "Kingwood",
    "postcode": "77339",
    "lat": 30.0461349,
    "lon": -95.1832586
  },
  {
    "street": "West Lake Houston Parkway",
    "housenumber": "2855",
    "city": "Kingwood",
    "postcode": "77339",
    "lat": 30.0476822,
    "lon": -95.1844576
  },
  {
    "street": "West Lake Houston Parkway",
    "housenumber": "2855 Suite 111",
    "city": "Kingwood",
    "postcode": "77339",
    "lat": 30.0478839,
    "lon": -95.1845421
  },
  {
    "street": "West Lake Houston Parkway",
    "housenumber": "2855",
    "city": "Kingwood",
    "postcode": "77339",
    "lat": 30.0477969,
    "lon": -95.1844992
  },
  {
    "street": "West Lake Houston Parkway",
    "housenumber": "2855",
    "city": "Kingwood",
    "postcode": "77339",
    "lat": 30.0474974,
    "lon": -95.1842309
  },
  {
    "street": "West Lake Houston Parkway",
    "housenumber": "2855",
    "city": "Kingwood",
    "postcode": "77339",
    "lat": 30.0477249,
    "lon": -95.1844737
  },
  {
    "street": "West Lake Houston Parkway",
    "housenumber": "2855",
    "city": "Kingwood",
    "postcode": "77339",
    "lat": 30.0476134,
    "lon": -95.1838031
  },
  {
    "street": "West Lake Houston Parkway",
    "housenumber": "2855",
    "city": "Kingwood",
    "postcode": "77339",
    "lat": 30.0475333,
    "lon": -95.1839869
  },
  {
    "street": "West Lake Houston Parkway",
    "housenumber": "2815",
    "city": "Kingwood",
    "postcode": "77339",
    "lat": 30.0473612,
    "lon": -95.1838506
  },
  {
    "street": "West Lake Houston Parkway",
    "housenumber": "2815",
    "city": "Kingwood",
    "postcode": "77339",
    "lat": 30.0472874,
    "lon": -95.1837994
  },
  {
    "street": "West Lake Houston Parkway",
    "housenumber": "3803",
    "city": "Kingwood",
    "postcode": "77339",
    "lat": 30.0613423,
    "lon": -95.18857
  },
  {
    "street": "West Lake Houston Parkway",
    "housenumber": "3610",
    "city": "Kingwood",
    "postcode": "77339",
    "lat": 30.059749,
    "lon": -95.1862175
  },
  {
    "street": "West Lake Houston Parkway",
    "housenumber": "3425",
    "city": "Kingwood",
    "postcode": "77339",
    "lat": 30.0572962,
    "lon": -95.1873992
  },
  {
    "street": "West Lake Houston Parkway",
    "housenumber": "3319",
    "city": "Kingwood",
    "postcode": "77339",
    "lat": 30.0554469,
    "lon": -95.1869786
  },
  {
    "street": "Rustic Woods Drive",
    "housenumber": "4003",
    "city": "Kingwood",
    "postcode": "77339",
    "lat": 30.0549747,
    "lon": -95.1869576
  },
  {
    "street": "Rustic Woods Drive",
    "housenumber": "4003",
    "city": "Kingwood",
    "postcode": "77339",
    "lat": 30.0548829,
    "lon": -95.1872647
  },
  {
    "street": "Rustic Woods Drive",
    "housenumber": "4003",
    "city": "Kingwood",
    "postcode": "77339",
    "lat": 30.0549078,
    "lon": -95.1870813
  },
  {
    "street": "Rustic Woods Drive",
    "housenumber": "4003",
    "city": "Kingwood",
    "postcode": "77339",
    "lat": 30.0548944,
    "lon": -95.1871719
  },
  {
    "street": "Rustic Woods Drive",
    "housenumber": "4003",
    "city": "Kingwood",
    "postcode": "77339",
    "lat": 30.0548619,
    "lon": -95.1874591
  },
  {
    "street": "Rustic Woods Drive",
    "housenumber": "4003",
    "city": "Kingwood",
    "postcode": "77339",
    "lat": 30.0548539,
    "lon": -95.1875206
  },
  {
    "street": "Kingwood Drive",
    "housenumber": "4445",
    "city": "Kingwood",
    "postcode": "77339",
    "lat": 30.0520192,
    "lon": -95.1863954
  },
  {
    "street": "Kingwood Drive",
    "housenumber": "4431",
    "city": "Kingwood",
    "postcode": "77339",
    "lat": 30.0517801,
    "lon": -95.1862291
  },
  {
    "street": "Kingwood Drive",
    "housenumber": "4435",
    "city": "Kingwood",
    "postcode": "77339",
    "lat": 30.0518451,
    "lon": -95.1862586
  },
  {
    "street": "Kingwood Drive",
    "housenumber": "4367",
    "city": "Kingwood",
    "postcode": "77339",
    "lat": 30.0507934,
    "lon": -95.1856041
  },
  {
    "street": "Kingwood Drive",
    "housenumber": "4365",
    "city": "Kingwood",
    "postcode": "77339",
    "lat": 30.0507423,
    "lon": -95.1855773
  },
  {
    "street": "Kingwood Drive",
    "housenumber": "4363",
    "city": "Kingwood",
    "postcode": "77339",
    "lat": 30.0506912,
    "lon": -95.1855505
  },
  {
    "street": "Kingwood Drive",
    "housenumber": "4361",
    "city": "Kingwood",
    "postcode": "77339",
    "lat": 30.0506391,
    "lon": -95.1855108
  },
  {
    "street": "Kingwood Drive",
    "housenumber": "4411",
    "city": "Kingwood",
    "postcode": "77339",
    "lat": 30.0513885,
    "lon": -95.1863658
  },
  {
    "street": "Kingwood Drive",
    "housenumber": "4331",
    "city": "Kingwood",
    "postcode": "77339",
    "lat": 30.0510899,
    "lon": -95.1863493
  },
  {
    "street": "Kingwood Drive",
    "housenumber": "4423",
    "city": "Kingwood",
    "postcode": "77339",
    "lat": 30.0516963,
    "lon": -95.1862804
  },
  {
    "street": "Kingwood Drive",
    "housenumber": "4321",
    "city": "Kingwood",
    "postcode": "77339",
    "lat": 30.050875,
    "lon": -95.1865845
  }
]