[
  {
    "street": "East Southport Road",
    "housenumber": "7802",
    "city": "Indianapolis",
    "postcode": "46259",
    "lat": 39.6683315,
    "lon": -86.0289106
  },
  {
    "street": "Canal Walk",
    "housenumber": "350",
    "city": "Indianapolis",
    "postcode": "46202",
    "lat": 39.7726116,
    "lon": -86.1653519
  },
  {
    "street": "East 56th Street",
    "housenumber": "5805",
    "city": "Indianapolis",
    "postcode": "46226",
    "lat": 39.8543361,
    "lon": -86.069226
  },
  {
    "street": "East Michigan Street",
    "housenumber": "1500",
    "city": "Indianapolis",
    "lat": 39.7767095,
    "lon": -86.1327638
  },
  {
    "street": "East 56th Street",
    "housenumber": "5601",
    "city": "Indianapolis",
    "postcode": "46226",
    "lat": 39.8537875,
    "lon": -86.0704649
  },
  {
    "street": "West 70th Street",
    "housenumber": "600",
    "city": "Indianapolis",
    "postcode": "46260",
    "lat": 39.8820084,
    "lon": -86.1690921
  },
  {
    "street": "Shelbyville Road",
    "housenumber": "6620",
    "city": "Indianapolis",
    "postcode": "46237",
    "lat": 39.6681009,
    "lon": -86.051373
  },
  {
    "street": "North Meridian Street",
    "housenumber": "1400",
    "city": "Indianapolis",
    "postcode": "46202",
    "lat": 39.7861986,
    "lon": -86.1579348
  },
  {
    "street": "Prague Road",
    "housenumber": "3300",
    "city": "Indianapolis",
    "postcode": "46227",
    "lat": 39.6908781,
    "lon": -86.1077632
  },
  {
    "street": "North Post Road",
    "housenumber": "3400",
    "city": "Indianapolis",
    "postcode": "46226",
    "lat": 39.8189258,
    "lon": -86.0108188
  },
  {
    "street": "East 16th Street",
    "housenumber": "9031",
    "city": "Indianapolis",
    "postcode": "46219",
    "lat": 39.7888013,
    "lon": -86.0076503
  },
  {
    "street": "East 10th Street",
    "housenumber": "7241",
    "city": "Indianapolis",
    "postcode": "46219",
    "lat": 39.7811813,
    "lon": -86.0386902
  },
  {
    "street": "East 46th Street",
    "housenumber": "5555",
    "city": "Indianapolis",
    "postcode": "46226",
    "lat": 39.8397966,
    "lon": -86.0736785
  },
  {
    "street": "East 21st Street",
    "housenumber": "7995",
    "city": "Indianapolis",
    "postcode": "46219",
    "lat": 39.7959653,
    "lon": -86.0268244
  },
  {
    "street": "Bethel Avenue",
    "housenumber": "2710",
    "city": "Indianapolis",
    "postcode": "46203",
    "lat": 39.7442102,
    "lon": -86.1169297
  },
  {
    "street": "Dr Martin Luther King Jr Street",
    "housenumber": "1140",
    "city": "Indianapolis",
    "postcode": "46202",
    "lat": 39.7829387,
    "lon": -86.1692623
  },
  {
    "street": "North Park Avenue",
    "housenumber": "2301",
    "city": "Indianapolis",
    "postcode": "46205",
    "lat": 39.7999047,
    "lon": -86.1475903
  },
  {
    "street": "East 21st Street",
    "housenumber": "9501",
    "city": "Indianapolis",
    "postcode": "46229",
    "lat": 39.7963354,
    "lon": -85.9995037
  },
  {
    "street": "North Meridian Street",
    "housenumber": "3808",
    "city": "Indianapolis",
    "postcode": "46208",
    "lat": 39.8255686,
    "lon": -86.1575503
  },
  {
    "street": "West 72nd Street",
    "housenumber": "4700",
    "city": "Indianapolis",
    "postcode": "46268",
    "lat": 39.8834889,
    "lon": -86.2399947
  },
  {
    "street": "East 10th Street",
    "housenumber": "7998",
    "city": "Indianapolis",
    "postcode": "46219",
    "lat": 39.7824324,
    "lon": -86.0267504
  },
  {
    "street": "Kessler Boulevard East Drive",
    "housenumber": "3030",
    "city": "Indianapolis",
    "postcode": "46220",
    "lat": 39.8634491,
    "lon": -86.1137486
  },
  {
    "street": "Michigan Road",
    "housenumber": "6131",
    "city": "Indianapolis",
    "postcode": "46228",
    "lat": 39.8658745,
    "lon": -86.1994336
  },
  {
    "street": "North German Church Road",
    "housenumber": "1421",
    "city": "Indianapolis",
    "postcode": "46229",
    "lat": 39.7872105,
    "lon": -85.9704556
  },
  {
    "street": "North Hawthorne Lane",
    "housenumber": "2255",
    "city": "Indianapolis",
    "postcode": "46218",
    "lat": 39.8001266,
    "lon": -86.0771283
  },
  {
    "street": "North Franklin Road",
    "housenumber": "3620",
    "city": "Indianapolis",
    "postcode": "46226",
    "lat": 39.8225803,
    "lon": -86.0276422
  },
  {
    "street": "East 21st Street",
    "housenumber": "10502",
    "city": "Indianapolis",
    "postcode": "46229",
    "lat": 39.7977792,
    "lon": -85.9825
  },
  {
    "street": "East Sumner Avenue",
    "housenumber": "1502",
    "city": "Indianapolis",
    "postcode": "46227",
    "lat": 39.7166667,
    "lon": -86.1327778
  },
  {
    "street": "Clearvista Drive",
    "housenumber": "8102",
    "city": "Indianapolis",
    "postcode": "46256",
    "lat": 39.9028231,
    "lon": -86.040818
  },
  {
    "street": "Clearvista Drive",
    "housenumber": "8040",
    "city": "Indianapolis",
    "postcode": "46256",
    "lat": 39.9009613,
    "lon": -86.0392558
  },
  {
    "street": "Clearvista Drive",
    "housenumber": "7229",
    "city": "Indianapolis",
    "postcode": "46256",
    "lat": 39.8986586,
    "lon": -86.0411735
  },
  {
    "street": "West 86th Street",
    "housenumber": "2001",
    "city": "Indianapolis",
    "postcode": "46260",
    "lat": 39.907997,
    "lon": -86.196077
  },
  {
    "street": "Madison Avenue",
    "housenumber": "8850",
    "city": "Indianapolis",
    "postcode": "46227",
    "lat": 39.6371215,
    "lon": -86.1195875
  },
  {
    "street": "South Sheridan Avenue",
    "housenumber": "17",
    "city": "Indianapolis",
    "postcode": "46219",
    "lat": 39.7708333,
    "lon": -86.0597222
  },
  {
    "street": "Prospect Street",
    "housenumber": "1136",
    "city": "Indianapolis",
    "postcode": "46203",
    "lat": 39.75267,
    "lon": -86.1385876
  },
  {
    "street": "South Meridian Street",
    "housenumber": "7447",
    "city": "Indianapolis",
    "postcode": "46217",
    "lat": 39.656741,
    "lon": -86.1579698
  },
  {
    "street": "South Franklin Road",
    "housenumber": "1302",
    "city": "Indianapolis",
    "postcode": "46239",
    "lat": 39.7519444,
    "lon": -86.0263889
  },
  {
    "street": "South Arlington Avenue",
    "housenumber": "6231",
    "city": "Indianapolis",
    "postcode": "46237",
    "lat": 39.6779709,
    "lon": -86.0624011
  },
  {
    "street": "South Girls School Road",
    "housenumber": "198",
    "city": "Indianapolis",
    "postcode": "46231",
    "lat": 39.7611111,
    "lon": -86.2897222
  },
  {
    "street": "Kappes Street",
    "housenumber": "1216",
    "city": "Indianapolis",
    "postcode": "46221",
    "lat": 39.7507642,
    "lon": -86.1946891
  },
  {
    "street": "East Washington Street",
    "housenumber": "2822",
    "city": "Indianapolis",
    "postcode": "46201",
    "lat": 39.7686213,
    "lon": -86.1157696
  },
  {
    "street": "Zionsville Road",
    "housenumber": "6525",
    "city": "Indianapolis",
    "postcode": "46268",
    "lat": 39.8747222,
    "lon": -86.2591667
  },
  {
    "street": "Nowland Avenue",
    "housenumber": "1801",
    "city": "Indianapolis",
    "postcode": "46201",
    "lat": 39.7849361,
    "lon": -86.1289479
  },
  {
    "street": "North Meridian Street",
    "housenumber": "3000",
    "city": "Indianapolis",
    "postcode": "46208",
    "lat": 39.8109507,
    "lon": -86.1571375
  },
  {
    "street": "Dr Martin Luther King Street",
    "housenumber": "2424",
    "city": "Indianapolis",
    "postcode": "46208",
    "lat": 39.8014353,
    "lon": -86.1715703
  },
  {
    "street": "Guilford Avenue",
    "housenumber": "8625",
    "city": "Indianapolis",
    "postcode": "46240",
    "lat": 39.9132433,
    "lon": -86.1416121
  },
  {
    "street": "South Franklin Road",
    "housenumber": "5550",
    "city": "Indianapolis",
    "postcode": "46239",
    "lat": 39.6875,
    "lon": -86.018889
  },
  {
    "street": "East 21st Street",
    "housenumber": "9701",
    "city": "Indianapolis",
    "postcode": "46229",
    "lat": 39.7960539,
    "lon": -85.9955131
  },
  {
    "street": "North Keystone Avenue",
    "housenumber": "6101",
    "city": "Indianapolis",
    "postcode": "46220",
    "lat": 39.865483,
    "lon": -86.1198676
  },
  {
    "street": "West Hanna Avenue",
    "housenumber": "6900",
    "city": "Indianapolis",
    "postcode": "46241",
    "lat": 39.7075024,
    "lon": -86.2803605
  },
  {
    "street": "Carrollton Avenue",
    "housenumber": "6255",
    "city": "Indianapolis",
    "postcode": "46220",
    "lat": 39.8691293,
    "lon": -86.1445147
  },
  {
    "street": "South Post Road",
    "housenumber": "3515",
    "city": "Indianapolis",
    "postcode": "46239",
    "lat": 39.7172141,
    "lon": -86.0076571
  },
  {
    "street": "East 86th Street",
    "housenumber": "1300",
    "city": "Indianapolis",
    "postcode": "46240-1990",
    "lat": 39.9154164,
    "lon": -86.1391499
  },
  {
    "street": "Rockville Road",
    "housenumber": "9210",
    "city": "Indianapolis",
    "postcode": "46234",
    "lat": 39.7642274,
    "lon": -86.3255477
  },
  {
    "street": "Rockville Road",
    "housenumber": "9140",
    "city": "Indianapolis",
    "postcode": "46234",
    "lat": 39.7644272,
    "lon": -86.3246081
  },
  {
    "street": "South Raceway Road",
    "housenumber": "55",
    "city": "Indianapolis",
    "postcode": "46231",
    "lat": 39.7632272,
    "lon": -86.325807
  },
  {
    "street": "South Holt Road",
    "housenumber": "1201",
    "city": "Indianapolis",
    "postcode": "46241",
    "lat": 39.7495383,
    "lon": -86.2250245
  },
  {
    "street": "North Emerson Avenue",
    "housenumber": "2751",
    "city": "Indianapolis",
    "postcode": "46218",
    "lat": 39.8076785,
    "lon": -86.0823124
  },
  {
    "street": "Keystone Crossing",
    "housenumber": "8701",
    "city": "Indianapolis",
    "postcode": "46240",
    "lat": 39.9135836,
    "lon": -86.1083883
  },
  {
    "street": "South Illinois Street",
    "housenumber": "350",
    "city": "Indianapolis",
    "postcode": "46225",
    "lat": 39.7619745,
    "lon": -86.1609289
  },
  {
    "street": "East Washington Street",
    "housenumber": "2040",
    "city": "Indianapolis",
    "postcode": "46201",
    "lat": 39.7678911,
    "lon": -86.1257658
  },
  {
    "street": "Julian Avenue",
    "housenumber": "6501",
    "city": "Indianapolis",
    "postcode": "46219",
    "lat": 39.7693627,
    "lon": -86.0561007
  },
  {
    "street": "East Washington Street",
    "housenumber": "6429",
    "city": "Indianapolis",
    "postcode": "46219",
    "lat": 39.7707368,
    "lon": -86.0564953
  },
  {
    "street": "Julian Avenue",
    "housenumber": "6705",
    "city": "Indianapolis",
    "postcode": "46219",
    "lat": 39.7693173,
    "lon": -86.0522172
  },
  {
    "street": "North Shadeland Avenue",
    "housenumber": "435",
    "city": "Indianapolis",
    "postcode": "46219",
    "lat": 39.7768392,
    "lon": -86.0447986
  },
  {
    "street": "Kentucky Avenue",
    "housenumber": "7015",
    "city": "Camby",
    "postcode": "46113",
    "lat": 39.6607058,
    "lon": -86.3106271
  },
  {
    "street": "South Kentucky Avenue",
    "housenumber": "7015",
    "city": "Camby",
    "postcode": "46113",
    "lat": 39.6607856,
    "lon": -86.3105651
  },
  {
    "street": "Kentucky Avenue",
    "housenumber": "6945",
    "city": "Camby",
    "postcode": "46113",
    "lat": 39.662207,
    "lon": -86.3094148
  },
  {
    "street": "South Meridian Street",
    "housenumber": "6236",
    "city": "Indianapolis",
    "postcode": "46217",
    "lat": 39.6754757,
    "lon": -86.1588837
  },
  {
    "street": "Haver Way",
    "housenumber": "9516",
    "city": "Indianapolis",
    "postcode": "46240",
    "lat": 39.9257853,
    "lon": -86.1138597
  },
  {
    "street": "East 96th Street",
    "housenumber": "4705",
    "city": "Indianapolis",
    "postcode": "46240",
    "lat": 39.9255878,
    "lon": -86.0906049
  },
  {
    "street": "North College Avenue",
    "housenumber": "4901",
    "city": "Indianapolis",
    "postcode": "46205",
    "lat": 39.8430397,
    "lon": -86.1451461
  },
  {
    "street": "North College Avenue",
    "housenumber": "4915",
    "city": "Indianapolis",
    "postcode": "46205",
    "lat": 39.84326,
    "lon": -86.1454457
  },
  {
    "street": "North Keystone Avenue",
    "housenumber": "7425",
    "city": "Indianapolis",
    "postcode": "46240",
    "lat": 39.8891312,
    "lon": -86.1212967
  },
  {
    "street": "Ruth Drive",
    "housenumber": "2626",
    "city": "Indianapolis",
    "postcode": "46240",
    "lat": 39.8898423,
    "lon": -86.1191791
  },
  {
    "street": "North Keystone Avenue",
    "housenumber": "7435",
    "city": "Indianapolis",
    "postcode": "46240",
    "lat": 39.8899225,
    "lon": -86.1209493
  },
  {
    "street": "North Keystone Avenue",
    "housenumber": "7411",
    "city": "Indianapolis",
    "postcode": "46240",
    "lat": 39.8888544,
    "lon": -86.1211398
  },
  {
    "street": "Ruth Drive",
    "housenumber": "2602",
    "city": "Indianapolis",
    "postcode": "46240",
    "lat": 39.8898875,
    "lon": -86.1200293
  },
  {
    "street": "University Boulevard",
    "housenumber": "420",
    "city": "Indianapolis",
    "postcode": "46202",
    "lat": 39.7742466,
    "lon": -86.1760837
  },
  {
    "street": "South Post Road",
    "housenumber": "3511",
    "city": "Indianapolis",
    "postcode": "46239",
    "lat": 39.7181385,
    "lon": -86.0079422
  },
  {
    "street": "Southeastern Avenue",
    "housenumber": "8844",
    "city": "Indianapolis",
    "postcode": "46239",
    "lat": 39.7049227,
    "lon": -86.0099619
  },
  {
    "street": "South Post Road",
    "housenumber": "3810",
    "city": "Indianapolis",
    "postcode": "46239",
    "lat": 39.7133931,
    "lon": -86.0087576
  },
  {
    "street": "North Meridian Street",
    "housenumber": "8704",
    "city": "Indianapolis",
    "postcode": "46260",
    "lat": 39.9143123,
    "lon": -86.1588168
  },
  {
    "street": "East 86th Street",
    "housenumber": "1551",
    "city": "Indianapolis",
    "lat": 39.9116663,
    "lon": -86.1869452
  },
  {
    "street": "Ditch Road",
    "housenumber": "8437",
    "city": "Indianapolis",
    "postcode": "46260",
    "lat": 39.9094349,
    "lon": -86.1833952
  },
  {
    "street": "North Post Road",
    "housenumber": "2102",
    "city": "Indianapolis",
    "postcode": "46219",
    "lat": 39.7970543,
    "lon": -86.0099381
  },
  {
    "street": "West Washington Street",
    "housenumber": "6840",
    "city": "Indianapolis",
    "postcode": "46241",
    "lat": 39.7443907,
    "lon": -86.2796278
  },
  {
    "street": "West 86th Street",
    "housenumber": "3450",
    "city": "Indianapolis",
    "postcode": "46268",
    "lat": 39.91212,
    "lon": -86.219956
  },
  {
    "street": "Lake Circle Drive",
    "housenumber": "2550",
    "city": "Indianapolis",
    "postcode": "46268",
    "lat": 39.913798,
    "lon": -86.205519
  },
  {
    "street": "West 86th Street",
    "housenumber": "2902",
    "city": "Indianapolis",
    "postcode": "46268",
    "lat": 39.912493,
    "lon": -86.212464
  },
  {
    "street": "North Meridian Street",
    "housenumber": "9002",
    "city": "Indianapolis",
    "postcode": "46260",
    "lat": 39.9191688,
    "lon": -86.1598919
  },
  {
    "street": "North Meridian Street",
    "housenumber": "1401",
    "city": "Indianapolis",
    "postcode": "46202",
    "lat": 39.7859387,
    "lon": -86.1569894
  },
  {
    "street": "North Pennsylvania Street",
    "housenumber": "429",
    "city": "Indianapolis",
    "lat": 39.7736718,
    "lon": -86.1557643
  },
  {
    "street": "Virginia Avenue",
    "housenumber": "1025",
    "city": "Indianapolis",
    "postcode": "46203",
    "lat": 39.7533727,
    "lon": -86.1414469
  },
  {
    "street": "Virginia Avenue",
    "housenumber": "936",
    "city": "Indianapolis",
    "lat": 39.7543109,
    "lon": -86.1420077
  },
  {
    "street": "Corporation Drive",
    "housenumber": "8750",
    "city": "Indianapolis",
    "lat": 39.9156403,
    "lon": -86.0392832
  },
  {
    "street": "East 96th Street",
    "housenumber": "4625",
    "city": "Indianapolis",
    "postcode": "46240",
    "lat": 39.9264261,
    "lon": -86.0903204
  },
  {
    "street": "East 96th Street",
    "housenumber": "4825",
    "city": "Indianapolis",
    "postcode": "46240",
    "lat": 39.9257654,
    "lon": -86.0884338
  },
  {
    "street": "East 96th Street",
    "housenumber": "4825",
    "city": "Indianapolis",
    "postcode": "46240",
    "lat": 39.9257958,
    "lon": -86.0882222
  },
  {
    "street": "East 96th Street",
    "housenumber": "4825",
    "city": "Indianapolis",
    "postcode": "46240",
    "lat": 39.9258011,
    "lon": -86.0878849
  },
  {
    "street": "East 96th Street",
    "housenumber": "4825",
    "city": "Indianapolis",
    "postcode": "46240",
    "lat": 39.9257714,
    "lon": -86.0875285
  },
  {
    "street": "East 96th Street",
    "housenumber": "4825",
    "city": "Indianapolis",
    "postcode": "46240",
    "lat": 39.9258039,
    "lon": -86.0873043
  },
  {
    "street": "East 96th Street",
    "housenumber": "6905",
    "city": "Indianapolis",
    "postcode": "46250",
    "lat": 39.9265316,
    "lon": -86.0488899
  },
  {
    "street": "Allisonville Road",
    "housenumber": "9550",
    "city": "Indianapolis",
    "postcode": "46250",
    "lat": 39.9263207,
    "lon": -86.0676309
  },
  {
    "street": "Allisonville Road",
    "housenumber": "9550",
    "city": "Indianapolis",
    "postcode": "46250",
    "lat": 39.9262722,
    "lon": -86.0676922
  },
  {
    "street": "Allisonville Road",
    "housenumber": "9598",
    "city": "Indianapolis",
    "postcode": "46250",
    "lat": 39.9266553,
    "lon": -86.0672085
  },
  {
    "street": "Allisonville Road",
    "housenumber": "9546",
    "city": "Indianapolis",
    "postcode": "46250",
    "lat": 39.9251604,
    "lon": -86.0687925
  },
  {
    "street": "Allisonville Road",
    "housenumber": "9546",
    "city": "Indianapolis",
    "postcode": "46250",
    "lat": 39.9251007,
    "lon": -86.0686354
  },
  {
    "street": "Allisonville Road",
    "housenumber": "9546",
    "city": "Indianapolis",
    "postcode": "46250",
    "lat": 39.924968,
    "lon": -86.0683651
  },
  {
    "street": "East 62nd Street",
    "housenumber": "2625",
    "city": "Indianapolis",
    "postcode": "46220",
    "lat": 39.8679167,
    "lon": -86.1197113
  },
  {
    "street": "East 82nd Street",
    "housenumber": "4939",
    "city": "Indianapolis",
    "postcode": "46250",
    "lat": 39.9044888,
    "lon": -86.0857578
  },
  {
    "street": "East 82nd Street",
    "housenumber": "5025",
    "city": "Indianapolis",
    "postcode": "46250",
    "lat": 39.9044404,
    "lon": -86.0852449
  },
  {
    "street": "East 82nd Street",
    "housenumber": "5025",
    "city": "Indianapolis",
    "postcode": "46250",
    "lat": 39.9044135,
    "lon": -86.084886
  },
  {
    "street": "East 82nd Street",
    "housenumber": "5101",
    "city": "Indianapolis",
    "postcode": "46250",
    "lat": 39.904412,
    "lon": -86.0845966
  },
  {
    "street": "E. 82nd Street",
    "housenumber": "5025",
    "city": "Indianapolis",
    "postcode": "46250",
    "lat": 39.9042889,
    "lon": -86.0839581
  },
  {
    "street": "East 82nd Street",
    "housenumber": "5151",
    "city": "Indianapolis",
    "postcode": "46250",
    "lat": 39.9040884,
    "lon": -86.081491
  },
  {
    "street": "East 82nd Street",
    "housenumber": "5151",
    "city": "Indianapolis",
    "postcode": "46250-1625",
    "lat": 39.904117,
    "lon": -86.0808435
  },
  {
    "street": "East 82nd Street",
    "housenumber": "5265",
    "city": "Indianapolis",
    "postcode": "46250",
    "lat": 39.9047249,
    "lon": -86.0799737
  },
  {
    "street": "Castleton Corner Drive",
    "housenumber": "8490",
    "city": "Indianapolis",
    "postcode": "46250",
    "lat": 39.910335,
    "lon": -86.0739606
  },
  {
    "street": "Castleton Corner Drive",
    "housenumber": "8466",
    "city": "Indianapolis",
    "postcode": "46250",
    "lat": 39.910228,
    "lon": -86.0734242
  },
  {
    "street": "Thompson Road",
    "housenumber": "3210",
    "city": "Indianapolis",
    "postcode": "46227",
    "lat": 39.6945613,
    "lon": -86.1102244
  },
  {
    "street": "South East Street",
    "housenumber": "6107",
    "city": "Indianapolis",
    "postcode": "46227",
    "lat": 39.6776728,
    "lon": -86.148411
  },
  {
    "street": "Virginia Avenue",
    "housenumber": "647",
    "city": "Indianapolis",
    "postcode": "46203",
    "lat": 39.7577217,
    "lon": -86.1459124
  },
  {
    "street": "East 65th Street",
    "housenumber": "2629",
    "city": "Indianapolis",
    "postcode": "46220",
    "lat": 39.8751703,
    "lon": -86.1193017
  },
  {
    "street": "East 86th Street",
    "housenumber": "1560",
    "city": "Indianapolis",
    "postcode": "46240",
    "lat": 39.9128272,
    "lon": -86.1342437
  },
  {
    "street": "North Keystone Avenue",
    "housenumber": "6100",
    "city": "Indianapolis",
    "postcode": "46220",
    "lat": 39.8660864,
    "lon": -86.1229367
  },
  {
    "street": "Virginia Avenue",
    "housenumber": "1043",
    "city": "Indianapolis",
    "postcode": "46203",
    "lat": 39.7526991,
    "lon": -86.1407587
  },
  {
    "street": "Massachusetts Avenue",
    "housenumber": "885",
    "city": "Indianapolis",
    "lat": 39.7794142,
    "lon": -86.1423321
  },
  {
    "street": "Massachusetts Avenue",
    "housenumber": "653",
    "city": "Indianapolis",
    "lat": 39.7761391,
    "lon": -86.1471914
  },
  {
    "street": "Roosevelt Avenue",
    "housenumber": "1411",
    "city": "Indianapolis",
    "postcode": "46201",
    "lat": 39.7851177,
    "lon": -86.1347346
  },
  {
    "street": "South Meridian Street",
    "housenumber": "906",
    "city": "Indianapolis",
    "postcode": "46225",
    "lat": 39.755234,
    "lon": -86.159472
  },
  {
    "street": "West 86th Street",
    "housenumber": "3508",
    "city": "Indianapolis",
    "lat": 39.912164,
    "lon": -86.2208148
  },
  {
    "street": "West Ohio Street",
    "housenumber": "101",
    "city": "Indianapolis",
    "postcode": "46204",
    "lat": 39.7699698,
    "lon": -86.1601934
  },
  {
    "street": "East 56th Street",
    "housenumber": "5225",
    "city": "Indianapolis",
    "postcode": "46226",
    "lat": 39.8521341,
    "lon": -86.0811922
  },
  {
    "street": "Michigan Road",
    "housenumber": "4000",
    "city": "Indianapolis",
    "postcode": "46208",
    "lat": 39.8305355,
    "lon": -86.1839221
  },
  {
    "street": "Michigan Road",
    "housenumber": "4000",
    "city": "Indianapolis",
    "postcode": "46208",
    "lat": 39.827442,
    "lon": -86.1891338
  },
  {
    "street": "Michigan Road",
    "housenumber": "4000",
    "city": "Indianapolis",
    "postcode": "46208",
    "lat": 39.8272234,
    "lon": -86.1855759
  },
  {
    "street": "Michigan Road",
    "housenumber": "4000",
    "city": "Indianapolis",
    "postcode": "46208",
    "lat": 39.8265881,
    "lon": -86.1831317
  },
  {
    "street": "East 86th Street",
    "housenumber": "1250",
    "city": "Indianapolis",
    "postcode": "46240",
    "lat": 39.9135741,
    "lon": -86.1392671
  },
  {
    "street": "Union Street",
    "housenumber": "1530",
    "city": "Indianapolis",
    "postcode": "46225",
    "lat": 39.7463776,
    "lon": -86.1578702
  },
  {
    "street": "North High School Road",
    "housenumber": "3814",
    "city": "Indianapolis",
    "postcode": "46254",
    "lat": 39.8240202,
    "lon": -86.2708891
  },
  {
    "street": "Broad Ripple Avenue",
    "housenumber": "927",
    "city": "Indianapolis",
    "postcode": "46220",
    "lat": 39.869529,
    "lon": -86.1419953
  },
  {
    "street": "Allison Pointe Boulevard",
    "housenumber": "8415",
    "city": "Indianapolis",
    "postcode": "46250",
    "lat": 39.9091395,
    "lon": -86.0804972
  },
  {
    "street": "West Washington Street",
    "housenumber": "110",
    "city": "Indianapolis",
    "postcode": "46204",
    "lat": 39.7674869,
    "lon": -86.1601998
  },
  {
    "street": "Broad Ripple Avenue",
    "housenumber": "911",
    "city": "Indianapolis",
    "postcode": "46220",
    "lat": 39.869564,
    "lon": -86.1425164
  },
  {
    "street": "Virginia Avenue",
    "housenumber": "1043",
    "city": "Indianapolis",
    "postcode": "46203",
    "lat": 39.7528251,
    "lon": -86.1408969
  },
  {
    "street": "Virginia Avenue",
    "housenumber": "1065",
    "city": "Indianapolis",
    "postcode": "46203",
    "lat": 39.7523235,
    "lon": -86.1404127
  },
  {
    "street": "Virginia Avenue",
    "housenumber": "719",
    "city": "Indianapolis",
    "postcode": "46203",
    "lat": 39.7570333,
    "lon": -86.1453243
  },
  {
    "street": "Virginia Avenue",
    "housenumber": "641",
    "city": "Indianapolis",
    "postcode": "46203",
    "lat": 39.7578152,
    "lon": -86.1460118
  },
  {
    "street": "South East Street",
    "housenumber": "935",
    "city": "Indianapolis",
    "postcode": "46225",
    "lat": 39.7545597,
    "lon": -86.1493363
  },
  {
    "street": "North Delaware Street",
    "housenumber": "951",
    "city": "Indianapolis",
    "postcode": "46202",
    "lat": 39.7803086,
    "lon": -86.1536447
  },
  {
    "street": "North Meridian Street",
    "housenumber": "9413",
    "city": "Indianapolis",
    "postcode": "46260",
    "lat": 39.9246201,
    "lon": -86.1561902
  },
  {
    "street": "North Meridian Street",
    "housenumber": "9419",
    "city": "Indianapolis",
    "postcode": "46260",
    "lat": 39.9247437,
    "lon": -86.1560646
  },
  {
    "street": "Monument Circle",
    "housenumber": "120",
    "city": "Indianapolis",
    "postcode": "46204",
    "lat": 39.7691852,
    "lon": -86.1583252
  },
  {
    "street": "Monument Circle",
    "housenumber": "120",
    "city": "Indianapolis",
    "postcode": "46204",
    "lat": 39.7691131,
    "lon": -86.1585371
  },
  {
    "street": "East 10th Street",
    "housenumber": "2119",
    "city": "Indianapolis",
    "postcode": "46201",
    "lat": 39.7811895,
    "lon": -86.1242687
  },
  {
    "street": "West Washington Street",
    "housenumber": "4863",
    "city": "Indianapolis",
    "postcode": "46241",
    "lat": 39.7550022,
    "lon": -86.2423606
  },
  {
    "street": "Broad Ripple Avenue",
    "housenumber": "806",
    "city": "Indianapolis",
    "postcode": "46220",
    "lat": 39.8698667,
    "lon": -86.144555
  },
  {
    "street": "Broad Ripple Avenue",
    "housenumber": "814",
    "city": "Indianapolis",
    "postcode": "46220",
    "lat": 39.8698612,
    "lon": -86.1441632
  },
  {
    "street": "Broad Ripple Avenue",
    "housenumber": "1002",
    "city": "Indianapolis",
    "postcode": "46220",
    "lat": 39.8699054,
    "lon": -86.1415659
  },
  {
    "street": "East 38th Street",
    "housenumber": "5420",
    "city": "Indianapolis",
    "postcode": "46218",
    "lat": 39.8256534,
    "lon": -86.0758046
  },
  {
    "street": "Hague Road",
    "housenumber": "7898",
    "city": "Indianapolis",
    "postcode": "46256",
    "lat": 39.8979726,
    "lon": -86.0339023
  },
  {
    "street": "East 16th Street",
    "housenumber": "111",
    "city": "Indianapolis",
    "lat": 39.788229,
    "lon": -86.1556289
  },
  {
    "street": "North Tibbs Avenue",
    "housenumber": "1002",
    "city": "Indianapolis",
    "postcode": "46222",
    "lat": 39.7808901,
    "lon": -86.2162445
  },
  {
    "street": "East Stop 11 Road",
    "housenumber": "7341",
    "city": "Indianapolis",
    "postcode": "46259",
    "lat": 39.6510079,
    "lon": -86.037136
  },
  {
    "street": "South Arlington Avenue",
    "housenumber": "5814",
    "city": "Indianapolis",
    "postcode": "46237",
    "lat": 39.6834016,
    "lon": -86.0652819
  },
  {
    "street": "East Stop 11 Road",
    "housenumber": "5255",
    "city": "Indianapolis",
    "postcode": "46237",
    "lat": 39.6380143,
    "lon": -86.0803338
  },
  {
    "street": "Guilford Avenue",
    "housenumber": "6372",
    "city": "Indianapolis",
    "postcode": "46220",
    "lat": 39.8723931,
    "lon": -86.1430422
  },
  {
    "street": "South East Street",
    "housenumber": "711",
    "city": "Indianapolis",
    "postcode": "46225",
    "lat": 39.772273,
    "lon": -86.1523132
  },
  {
    "street": "North Alabama Street",
    "housenumber": "333",
    "city": "Indianapolis",
    "postcode": "46204",
    "lat": 39.772273,
    "lon": -86.1523132
  },
  {
    "street": "North Keystone Avenue",
    "housenumber": "6151",
    "city": "Indianapolis",
    "postcode": "46220",
    "lat": 39.8669617,
    "lon": -86.1202754
  },
  {
    "street": "North Keystone Avenue",
    "housenumber": "6151",
    "city": "Indianapolis",
    "lat": 39.8671181,
    "lon": -86.1203746
  },
  {
    "street": "East 62nd Street",
    "housenumber": "2605",
    "city": "Indianapolis",
    "postcode": "46220",
    "lat": 39.8678387,
    "lon": -86.1199696
  },
  {
    "street": "East Ohio Street",
    "housenumber": "137",
    "city": "Indianapolis",
    "lat": 39.7696984,
    "lon": -86.1547252
  },
  {
    "street": "Broad Ripple Avenue",
    "housenumber": "1043",
    "city": "Indianapolis",
    "postcode": "46220",
    "lat": 39.8689175,
    "lon": -86.1404226
  },
  {
    "street": "West Morris Street",
    "housenumber": "3250",
    "city": "Indianapolis",
    "postcode": "46241",
    "lat": 39.7504305,
    "lon": -86.2145784
  },
  {
    "street": "North Meridian Street",
    "housenumber": "3787",
    "city": "Indianapolis",
    "postcode": "46208",
    "lat": 39.8245941,
    "lon": -86.1565069
  },
  {
    "street": "Indiana Avenue",
    "housenumber": "903",
    "city": "Indianapolis",
    "postcode": "46202",
    "lat": 39.7797661,
    "lon": -86.1728294
  },
  {
    "street": "Oscar Robertson Boulevard",
    "housenumber": "645",
    "city": "Indianapolis",
    "postcode": "46202",
    "lat": 39.78129,
    "lon": -86.170481
  },
  {
    "street": "Knickerbocker Place",
    "housenumber": "3716",
    "city": "Indianapolis",
    "lat": 39.91428,
    "lon": -86.103809
  },
  {
    "street": "North Keystone Avenue",
    "housenumber": "6159",
    "city": "Indianapolis",
    "lat": 39.867692,
    "lon": -86.121031
  },
  {
    "street": "North Delaware Street",
    "housenumber": "209",
    "city": "Indianapolis",
    "lat": 39.7701591,
    "lon": -86.1541599
  },
  {
    "street": "North Alabama",
    "housenumber": "421",
    "city": "Indianapolis",
    "postcode": "46204",
    "lat": 39.773417,
    "lon": -86.152241
  },
  {
    "street": "North Pennsylvania Street",
    "housenumber": "443",
    "city": "Indianapolis",
    "lat": 39.773799,
    "lon": -86.155851
  },
  {
    "street": "East 82nd Street",
    "housenumber": "4709",
    "city": "Indianapolis",
    "postcode": "46250",
    "lat": 39.9048703,
    "lon": -86.0899011
  },
  {
    "street": "North German Church Road",
    "housenumber": "3350",
    "city": "Indianapolis",
    "postcode": "46235",
    "lat": 39.8186097,
    "lon": -85.9735628
  },
  {
    "street": "West Minnesota Street",
    "housenumber": "3912",
    "city": "Indianapolis",
    "postcode": "46241",
    "lat": 39.7440497,
    "lon": -86.2282545
  },
  {
    "street": "East Washington Street",
    "housenumber": "6",
    "city": "Indianapolis",
    "postcode": "46204",
    "lat": 39.7672458,
    "lon": -86.1577707
  },
  {
    "street": "North Meridian Street",
    "housenumber": "9",
    "city": "Indianapolis",
    "postcode": "46204",
    "lat": 39.7674811,
    "lon": -86.157916
  },
  {
    "street": "North New Jersey Street",
    "housenumber": "320",
    "city": "Indianapolis",
    "postcode": "46204",
    "lat": 39.7719723,
    "lon": -86.1516702
  },
  {
    "street": "Virginia Avenue",
    "housenumber": "921",
    "city": "Indianapolis",
    "lat": 39.754199,
    "lon": -86.142348
  },
  {
    "street": "Naab Road",
    "housenumber": "8333",
    "city": "Indianapolis",
    "postcode": "46260",
    "lat": 39.907583,
    "lon": -86.1977606
  },
  {
    "street": "West 86th Street",
    "housenumber": "5750",
    "city": "Indianapolis",
    "lat": 39.9132887,
    "lon": -86.2626646
  },
  {
    "street": "West 86th Street",
    "housenumber": "6030",
    "city": "Indianapolis",
    "postcode": "46278",
    "lat": 39.9127623,
    "lon": -86.267478
  },
  {
    "street": "West 86th Street",
    "housenumber": "5750",
    "city": "Indianapolis",
    "postcode": "46278-1338",
    "lat": 39.9133197,
    "lon": -86.2630923
  },
  {
    "street": "West 86th Street",
    "housenumber": "5750",
    "city": "Indianapolis",
    "postcode": "46278",
    "lat": 39.9133374,
    "lon": -86.2622254
  },
  {
    "street": "Massachusetts Avenue",
    "housenumber": "430",
    "city": "Indianapolis",
    "postcode": "46204",
    "lat": 39.7732367,
    "lon": -86.1519002
  },
  {
    "street": "Lafayette Road",
    "housenumber": "4500",
    "city": "Indianapolis",
    "lat": 39.836944,
    "lon": -86.248916
  },
  {
    "street": "Colonel H. Weir Cook Memorial Drive",
    "housenumber": "8703",
    "city": "Indianapolis",
    "postcode": "46241",
    "lat": 39.7001129,
    "lon": -86.3146125
  },
  {
    "street": "Colonel H. Weir Cook Memorial Drive",
    "housenumber": "8705",
    "city": "Indianapolis",
    "postcode": "46241",
    "lat": 39.7000642,
    "lon": -86.3150834
  },
  {
    "street": "Colonel H. Weir Cook Memorial Drive",
    "housenumber": "8703",
    "city": "Indianapolis",
    "postcode": "46241",
    "lat": 39.6999332,
    "lon": -86.3148825
  },
  {
    "street": "Massachusetts Avenue",
    "housenumber": "310",
    "city": "Indianapolis",
    "postcode": "46204",
    "lat": 39.7717329,
    "lon": -86.1539807
  },
  {
    "street": "Massachusetts Avenue",
    "housenumber": "329",
    "city": "Indianapolis",
    "lat": 39.771587,
    "lon": -86.1535566
  },
  {
    "street": "North Alabama Street",
    "housenumber": "412",
    "city": "Indianapolis",
    "postcode": "46204",
    "lat": 39.7732663,
    "lon": -86.1529215
  },
  {
    "street": "North Illinois Street",
    "housenumber": "365",
    "city": "Indianapolis",
    "lat": 39.7725731,
    "lon": -86.1594453
  },
  {
    "street": "Allisonville Road",
    "housenumber": "8603",
    "city": "Indianapolis",
    "postcode": "46250",
    "lat": 39.913656,
    "lon": -86.073202
  },
  {
    "street": "Allisonville Road",
    "housenumber": "8617",
    "city": "Indianapolis",
    "postcode": "46250",
    "lat": 39.913354,
    "lon": -86.072361
  },
  {
    "street": "North Keystone Avenue",
    "housenumber": "7325",
    "city": "Indianapolis",
    "postcode": "46240",
    "lat": 39.887094,
    "lon": -86.119562
  },
  {
    "street": "East 82nd Street",
    "housenumber": "6020",
    "city": "Indianapolis",
    "postcode": "46250",
    "lat": 39.9095661,
    "lon": -86.063004
  },
  {
    "street": "Center Run Road",
    "housenumber": "8280",
    "city": "Indianapolis",
    "postcode": "46250",
    "lat": 39.9082243,
    "lon": -86.0580312
  },
  {
    "street": "Keystone Crossing",
    "housenumber": "8702",
    "city": "Indianapolis",
    "postcode": "46240",
    "lat": 39.9146538,
    "lon": -86.1101269
  },
  {
    "street": "Massachusetts Avenue",
    "housenumber": "401",
    "city": "Indianapolis",
    "lat": 39.77276,
    "lon": -86.151956
  },
  {
    "street": "Massachusetts Avenue",
    "housenumber": "435",
    "city": "Indianapolis",
    "lat": 39.773289,
    "lon": -86.151223
  },
  {
    "street": "Massachusetts Avenue",
    "housenumber": "427",
    "city": "Indianapolis",
    "postcode": "46204",
    "lat": 39.773132,
    "lon": -86.151402
  },
  {
    "street": "Massachusetts Avenue",
    "housenumber": "448",
    "city": "Indianapolis",
    "postcode": "46204",
    "lat": 39.773574,
    "lon": -86.151361
  },
  {
    "street": "Massachusetts Avenue",
    "housenumber": "608",
    "city": "Indianapolis",
    "lat": 39.775669,
    "lon": -86.148481
  },
  {
    "street": "Massachusetts Avenue",
    "housenumber": "635",
    "city": "Indianapolis",
    "lat": 39.775804,
    "lon": -86.147689
  },
  {
    "street": "East Walnut Street",
    "housenumber": "517",
    "city": "Indianapolis",
    "lat": 39.77644,
    "lon": -86.147868
  },
  {
    "street": "North Delaware Street",
    "housenumber": "609",
    "city": "Indianapolis",
    "postcode": "46204",
    "lat": 39.775776,
    "lon": -86.153903
  },
  {
    "street": "North East Street",
    "housenumber": "625",
    "city": "Indianapolis",
    "lat": 39.776163,
    "lon": -86.148484
  },
  {
    "street": "East North Street",
    "housenumber": "225",
    "city": "Indianapolis",
    "lat": 39.775254,
    "lon": -86.152911
  },
  {
    "street": "North East Street",
    "housenumber": "627",
    "city": "Indianapolis",
    "lat": 39.776231,
    "lon": -86.148484
  },
  {
    "street": "North East Street",
    "housenumber": "623",
    "city": "Indianapolis",
    "lat": 39.776084,
    "lon": -86.148481
  },
  {
    "street": "East 71st Street",
    "housenumber": "5868",
    "city": "Indianapolis",
    "postcode": "46220",
    "lat": 39.8843227,
    "lon": -86.0678897
  },
  {
    "street": "East 71st Street",
    "housenumber": "5868",
    "city": "Indianapolis",
    "lat": 39.8843211,
    "lon": -86.067535
  },
  {
    "street": "East 71st Street",
    "housenumber": "5868",
    "city": "Indianapolis",
    "lat": 39.8843236,
    "lon": -86.0672398
  },
  {
    "street": "East 71st Street",
    "housenumber": "5868",
    "city": "Indianapolis",
    "lat": 39.8843248,
    "lon": -86.0668053
  },
  {
    "street": "East 71st Street",
    "housenumber": "5868",
    "city": "Indianapolis",
    "lat": 39.8843226,
    "lon": -86.0677543
  },
  {
    "street": "East 71st Street",
    "housenumber": "5868",
    "city": "Indianapolis",
    "lat": 39.8843254,
    "lon": -86.0670503
  },
  {
    "street": "East 71st Street",
    "housenumber": "5868",
    "city": "Indianapolis",
    "lat": 39.8843227,
    "lon": -86.0676547
  },
  {
    "street": "East 71st Street",
    "housenumber": "5868",
    "city": "Indianapolis",
    "lat": 39.8843207,
    "lon": -86.0673884
  },
  {
    "street": "North Pennsylvania Street",
    "housenumber": "20",
    "city": "Indianapolis",
    "lat": 39.769222,
    "lon": -86.156527
  },
  {
    "street": "East Washington Street",
    "housenumber": "20",
    "city": "Indianapolis",
    "lat": 39.767257,
    "lon": -86.157387
  },
  {
    "street": "East 82nd Street",
    "housenumber": "6520",
    "city": "Indianapolis",
    "postcode": "46250",
    "lat": 39.9057078,
    "lon": -86.0548267
  },
  {
    "street": "East Michigan Street",
    "housenumber": "401",
    "city": "Indianapolis",
    "postcode": "46204",
    "lat": 39.773786,
    "lon": -86.150017
  },
  {
    "street": "Indiana Avenue",
    "housenumber": "909",
    "city": "Indianapolis",
    "postcode": "46202",
    "lat": 39.7799027,
    "lon": -86.1726905
  },
  {
    "street": "Indiana Avenue",
    "housenumber": "907",
    "city": "Indianapolis",
    "postcode": "46204",
    "lat": 39.7798473,
    "lon": -86.1727468
  },
  {
    "street": "East 54th Street",
    "housenumber": "1053",
    "city": "Indianapolis",
    "postcode": "46220",
    "lat": 39.850136,
    "lon": -86.140354
  },
  {
    "street": "East Washington",
    "housenumber": "7508",
    "city": "Indianapolis",
    "postcode": "46219",
    "lat": 39.772897,
    "lon": -86.035408
  },
  {
    "street": "Massachusetts Avenue",
    "housenumber": "334",
    "city": "Indianapolis",
    "lat": 39.771992,
    "lon": -86.153551
  },
  {
    "street": "Lafayette Road",
    "housenumber": "3872",
    "city": "Indianapolis",
    "postcode": "46254",
    "lat": 39.825284,
    "lon": -86.238362
  },
  {
    "street": "Lafayette Road",
    "housenumber": "3974",
    "city": "Indianapolis",
    "lat": 39.825286,
    "lon": -86.238517
  },
  {
    "street": "Lafayette Road",
    "housenumber": "3898",
    "city": "Indianapolis",
    "postcode": "46224",
    "lat": 39.826943,
    "lon": -86.238979
  },
  {
    "street": "Lafayette Road",
    "housenumber": "4150",
    "city": "Indianapolis",
    "postcode": "46254",
    "lat": 39.830313,
    "lon": -86.242235
  },
  {
    "street": "Georgetown Road",
    "housenumber": "3830",
    "city": "Indianapolis",
    "lat": 39.824983,
    "lon": -86.240573
  },
  {
    "street": "Broad Ripple Avenue",
    "housenumber": "1067",
    "city": "Indianapolis",
    "postcode": "46220",
    "lat": 39.868928,
    "lon": -86.140181
  },
  {
    "street": "Broad Ripple Avenue",
    "housenumber": "1065",
    "city": "Indianapolis",
    "postcode": "46220",
    "lat": 39.868921,
    "lon": -86.140312
  },
  {
    "street": "Broad Ripple Avenue",
    "housenumber": "1050",
    "city": "Indianapolis",
    "postcode": "46220",
    "lat": 39.8700401,
    "lon": -86.1399036
  },
  {
    "street": "Broad Ripple Avenue",
    "housenumber": "1077",
    "city": "Indianapolis",
    "postcode": "46220",
    "lat": 39.868933,
    "lon": -86.139853
  },
  {
    "street": "Broad Ripple Avenue",
    "housenumber": "930",
    "city": "Indianapolis",
    "postcode": "46220",
    "lat": 39.8698475,
    "lon": -86.1418596
  },
  {
    "street": "Broad Ripple Avenue",
    "housenumber": "1075",
    "city": "Indianapolis",
    "postcode": "46220",
    "lat": 39.868939,
    "lon": -86.139964
  },
  {
    "street": "Ferguson Street",
    "housenumber": "6535",
    "city": "Indianapolis",
    "postcode": "46220",
    "lat": 39.87509,
    "lon": -86.143384
  },
  {
    "street": "Cornell Avenue",
    "housenumber": "6406",
    "city": "Indianapolis",
    "postcode": "46220",
    "lat": 39.872843,
    "lon": -86.14261
  },
  {
    "street": "West 86th Street",
    "housenumber": "1415",
    "city": "Indianapolis",
    "postcode": "46260",
    "lat": 39.911673,
    "lon": -86.184414
  },
  {
    "street": "West 86th Street",
    "housenumber": "1415",
    "city": "Indianapolis",
    "postcode": "46260",
    "lat": 39.911922,
    "lon": -86.184346
  },
  {
    "street": "86th Street West",
    "housenumber": "1361",
    "city": "Indianapolis",
    "postcode": "46260",
    "lat": 39.910549,
    "lon": -86.182927
  },
  {
    "street": "East 64th Street",
    "housenumber": "5220",
    "city": "Indianapolis",
    "postcode": "46220",
    "lat": 39.872749,
    "lon": -86.081124
  },
  {
    "street": "East 64th Street",
    "housenumber": "5200",
    "city": "Indianapolis",
    "lat": 39.872724,
    "lon": -86.081741
  },
  {
    "street": "Allisonville Road",
    "housenumber": "5180",
    "city": "Indianapolis",
    "postcode": "46205-1550",
    "lat": 39.847293,
    "lon": -86.111615
  },
  {
    "street": "North Meridian Street",
    "housenumber": "9545",
    "city": "Indianapolis",
    "postcode": "46240",
    "lat": 39.9258638,
    "lon": -86.1574041
  },
  {
    "street": "West 71st Street",
    "housenumber": "6056",
    "city": "Indianapolis",
    "postcode": "46268",
    "lat": 39.8822012,
    "lon": -86.2660814
  },
  {
    "street": "North College Avenue",
    "housenumber": "5406-08",
    "city": "Indianapolis",
    "postcode": "46220",
    "lat": 39.8513066,
    "lon": -86.1460717
  },
  {
    "street": "Southeastern Avenue",
    "housenumber": "7950",
    "city": "Indianapolis",
    "postcode": "46239",
    "lat": 39.7142258,
    "lon": -86.0257741
  },
  {
    "street": "East 72nd Street",
    "housenumber": "5631",
    "city": "Indianapolis",
    "postcode": "46250",
    "lat": 39.8842282,
    "lon": -86.073443
  },
  {
    "street": "Brooks Street",
    "housenumber": "1115",
    "city": "Indianapolis",
    "postcode": "46202",
    "lat": 39.7822391,
    "lon": -86.1724422
  },
  {
    "street": "East 21st Street",
    "housenumber": "7314",
    "city": "Indianapolis",
    "postcode": "46219",
    "lat": 39.7969858,
    "lon": -86.0384956
  },
  {
    "street": "South High School Road",
    "housenumber": "55",
    "city": "Indianapolis",
    "postcode": "46241",
    "lat": 39.7635559,
    "lon": -86.2692416
  },
  {
    "street": "East 54th Street",
    "housenumber": "1134",
    "city": "Indianapolis",
    "postcode": "46220",
    "lat": 39.8513689,
    "lon": -86.139354
  },
  {
    "street": "North College Avenue",
    "housenumber": "5164",
    "city": "Indianapolis",
    "postcode": "46205",
    "lat": 39.8466094,
    "lon": -86.1460874
  },
  {
    "street": "North College Avenue",
    "housenumber": "5170",
    "city": "Indianapolis",
    "postcode": "46205",
    "lat": 39.8467593,
    "lon": -86.1460554
  },
  {
    "street": "North College Avenue",
    "housenumber": "5202",
    "city": "Indianapolis",
    "postcode": "46220",
    "lat": 39.8470641,
    "lon": -86.1460688
  },
  {
    "street": "East Troy Avenue",
    "housenumber": "7008",
    "city": "Indianapolis",
    "postcode": "46239",
    "lat": 39.7308079,
    "lon": -86.04142
  },
  {
    "street": "Uptown Drive",
    "housenumber": "9402",
    "city": "Indianapolis",
    "postcode": "46256",
    "lat": 39.9242336,
    "lon": -86.0361526
  },
  {
    "street": "Kentucky Avenue",
    "housenumber": "7015",
    "city": "Camby",
    "postcode": "46113",
    "lat": 39.6612145,
    "lon": -86.3101426
  },
  {
    "street": "east 86th street",
    "housenumber": "7286",
    "city": "Indianapolis",
    "lat": 39.9137094,
    "lon": -86.0401573
  },
  {
    "street": "East 62nd Street",
    "housenumber": "5014",
    "city": "Indianapolis",
    "postcode": "46220",
    "lat": 39.8700278,
    "lon": -86.0845349
  },
  {
    "street": "Bash Street",
    "housenumber": "8710",
    "city": "Indianapolis",
    "postcode": "46256",
    "lat": 39.9144745,
    "lon": -86.0439574
  },
  {
    "street": "Lafayette Road",
    "housenumber": "2150",
    "city": "Indianapolis",
    "postcode": "46222",
    "lat": 39.7964479,
    "lon": -86.2076495
  },
  {
    "street": "East 91st Street",
    "housenumber": "5825",
    "city": "Indianapolis",
    "postcode": "46250",
    "lat": 39.9190139,
    "lon": -86.0687557
  },
  {
    "street": "North Pennsylvania Street",
    "housenumber": "1",
    "city": "Indianapolis",
    "postcode": "46204",
    "lat": 39.7673783,
    "lon": -86.1559767
  },
  {
    "street": "South White River Parkway West Drive",
    "housenumber": "950",
    "city": "Indianapolis",
    "postcode": "46221",
    "lat": 39.7554805,
    "lon": -86.1769595
  },
  {
    "street": "Stansted Drive",
    "housenumber": "8550",
    "city": "Indianapolis",
    "postcode": "46241",
    "lat": 39.6754029,
    "lon": -86.3125945
  },
  {
    "street": "East 86th Street",
    "housenumber": "1300",
    "city": "Indianapolis",
    "postcode": "46240",
    "lat": 39.9139463,
    "lon": -86.137216
  },
  {
    "street": "East 91st Street",
    "housenumber": "6049",
    "city": "Indianapolis",
    "postcode": "46250",
    "lat": 39.9181817,
    "lon": -86.0633246
  },
  {
    "street": "Indy Way",
    "housenumber": "1209",
    "city": "Indianapolis",
    "postcode": "46214",
    "lat": 39.7819879,
    "lon": -86.3054838
  },
  {
    "street": "South East Street",
    "housenumber": "5425",
    "city": "Indianapolis",
    "postcode": "46237",
    "lat": 39.6877302,
    "lon": -86.1483528
  },
  {
    "street": "Gray Road",
    "housenumber": "6801",
    "city": "Indianapolis",
    "postcode": "46237",
    "lat": 39.6680487,
    "lon": -86.0963989
  },
  {
    "street": "North Delaware Street",
    "housenumber": "10",
    "city": "Indianapolis",
    "postcode": "46204",
    "lat": 39.7673104,
    "lon": -86.1546539
  },
  {
    "street": "Gunpowder Drive",
    "housenumber": "8733",
    "city": "Indianapolis",
    "postcode": "46256",
    "lat": 39.915168,
    "lon": -86.0137507
  },
  {
    "street": "East 82nd Street",
    "housenumber": "4030",
    "city": "Indianapolis",
    "postcode": "46250",
    "lat": 39.9084637,
    "lon": -86.0970771
  },
  {
    "street": "Rand Road",
    "housenumber": "3150",
    "city": "Indianapolis",
    "postcode": "46241",
    "lat": 39.7180148,
    "lon": -86.2592931
  },
  {
    "street": "East 82nd Street",
    "housenumber": "6525",
    "city": "Indianapolis",
    "postcode": "46250",
    "lat": 39.903716,
    "lon": -86.0541579
  },
  {
    "street": "Interactive Way",
    "housenumber": "7635",
    "city": "indianapolis",
    "postcode": "46278",
    "lat": 39.8916601,
    "lon": -86.2677088
  },
  {
    "street": "Castlegate Dr",
    "housenumber": "9327",
    "city": "Indianapolis",
    "postcode": "46256",
    "lat": 39.9236289,
    "lon": -86.0259803
  },
  {
    "street": "Castlegate Dr.",
    "housenumber": "9247",
    "city": "Indianapolis",
    "postcode": "46256",
    "lat": 39.9223268,
    "lon": -86.0258964
  },
  {
    "street": "East 82nd Street",
    "housenumber": "3740",
    "city": "Indianapolis",
    "postcode": "46240",
    "lat": 39.9106655,
    "lon": -86.1019248
  },
  {
    "street": "Stansted Road",
    "housenumber": "8525",
    "city": "Indianapolis",
    "postcode": "46241",
    "lat": 39.6767077,
    "lon": -86.3108807
  },
  {
    "street": "Woodglen Drive",
    "housenumber": "2323",
    "city": "Indianapolis",
    "postcode": "46260",
    "lat": 39.9011997,
    "lon": -86.2015215
  },
  {
    "street": "Rockville Road",
    "housenumber": "6302",
    "city": "Indianapolis",
    "postcode": "46214",
    "lat": 39.7650936,
    "lon": -86.2705055
  },
  {
    "street": "North Pennsylvania Street",
    "housenumber": "825",
    "city": "Indianapolis",
    "postcode": "46204",
    "lat": 39.7786567,
    "lon": -86.1556967
  },
  {
    "street": "North College Avenue",
    "housenumber": "1107",
    "city": "Indianapolis",
    "postcode": "46202",
    "lat": 39.7821276,
    "lon": -86.1444597
  },
  {
    "street": "East 96th Street",
    "housenumber": "2925",
    "city": "Carmel",
    "postcode": "46240",
    "lat": 39.926492,
    "lon": -86.1161818
  },
  {
    "street": "East 96th Street",
    "housenumber": "2805",
    "city": "Indianapolis",
    "postcode": "46240",
    "lat": 39.9263507,
    "lon": -86.1170064
  },
  {
    "street": "East 96th Street",
    "housenumber": "2825",
    "city": "Indianapolis",
    "postcode": "46240",
    "lat": 39.9264803,
    "lon": -86.1165874
  },
  {
    "street": "East 96th Street",
    "housenumber": "2929",
    "city": "Indianapolis",
    "postcode": "46240",
    "lat": 39.9263922,
    "lon": -86.1157391
  },
  {
    "street": "East 96th Street",
    "housenumber": "2935",
    "city": "Indianapolis",
    "postcode": "46240",
    "lat": 39.9264576,
    "lon": -86.1154333
  },
  {
    "street": "East 96th Street",
    "housenumber": "3003",
    "city": "Indianapolis",
    "postcode": "46240",
    "lat": 39.9265119,
    "lon": -86.114798
  },
  {
    "street": "Whitley Drive",
    "housenumber": "9595",
    "city": "Indianapolis",
    "postcode": "46240",
    "lat": 39.9257533,
    "lon": -86.1146901
  },
  {
    "street": "Haver Way",
    "housenumber": "9450",
    "city": "Indianapolis",
    "postcode": "46240",
    "lat": 39.9254466,
    "lon": -86.1139044
  },
  {
    "street": "Haver Way",
    "housenumber": "9454",
    "city": "Indianapolis",
    "postcode": "46240",
    "lat": 39.925623,
    "lon": -86.1139097
  },
  {
    "street": "Haver Way",
    "housenumber": "9512",
    "city": "Indianapolis",
    "postcode": "46240",
    "lat": 39.9259623,
    "lon": -86.1139132
  },
  {
    "street": "E 96th Street",
    "housenumber": "3421",
    "city": "Indianapolis",
    "postcode": "46240",
    "lat": 39.924865,
    "lon": -86.1084317
  },
  {
    "street": "North Meridian Street",
    "housenumber": "9333",
    "city": "Indianapolis",
    "postcode": "46260",
    "lat": 39.9241991,
    "lon": -86.1572329
  },
  {
    "street": "North Meridian Street",
    "housenumber": "9277",
    "city": "Indianapolis",
    "postcode": "46260",
    "lat": 39.9230719,
    "lon": -86.1573639
  },
  {
    "street": "North Meridian Street",
    "housenumber": "9450",
    "city": "Indianapolis",
    "postcode": "46260",
    "lat": 39.9248739,
    "lon": -86.1585852
  },
  {
    "street": "E 82nd St",
    "housenumber": "4026",
    "city": "Indianapolis",
    "postcode": "46250",
    "lat": 39.9083681,
    "lon": -86.0978554
  },
  {
    "street": "East 82nd Street",
    "housenumber": "4340",
    "city": "Indianapolis",
    "postcode": "46250",
    "lat": 39.9070302,
    "lon": -86.0933174
  },
  {
    "street": "East 46th Street",
    "housenumber": "2201",
    "city": "Indianapolis",
    "postcode": "46205",
    "lat": 39.8396473,
    "lon": -86.1239156
  },
  {
    "street": "East 21st Street",
    "housenumber": "9935",
    "city": "Indianapolis",
    "postcode": "46229",
    "lat": 39.7965959,
    "lon": -85.991164
  },
  {
    "street": "East 25th Street",
    "housenumber": "9401",
    "city": "Indianapolis",
    "postcode": "46229",
    "lat": 39.802811,
    "lon": -86.0017212
  },
  {
    "street": "East 75th Street",
    "housenumber": "6626",
    "city": "Indianapolis",
    "postcode": "46250",
    "lat": 39.8916369,
    "lon": -86.0520324
  },
  {
    "street": "North Shadeland Avenue",
    "housenumber": "4590",
    "city": "Indianapolis",
    "postcode": "46226",
    "lat": 39.8400459,
    "lon": -86.0463901
  },
  {
    "street": "East 42nd Street",
    "housenumber": "7701",
    "city": "Lawrence",
    "postcode": "46226",
    "lat": 39.8317711,
    "lon": -86.0328897
  },
  {
    "street": "West 10th Street",
    "housenumber": "613",
    "city": "Indianapolis",
    "postcode": "46202",
    "lat": 39.7814391,
    "lon": -86.1696364
  },
  {
    "street": "Dr Martin Luther King Jr Street",
    "housenumber": "1140",
    "city": "Indianapolis",
    "postcode": "46202",
    "lat": 39.7825501,
    "lon": -86.1703295
  },
  {
    "street": "East 21st Street",
    "housenumber": "8935",
    "city": "Indianapolis",
    "postcode": "46219",
    "lat": 39.7960756,
    "lon": -86.0100314
  },
  {
    "street": "East 18th Street",
    "housenumber": "9651",
    "city": "Indianapolis",
    "postcode": "46229",
    "lat": 39.792443,
    "lon": -85.9976771
  },
  {
    "street": "North Mitthoeffer Road",
    "housenumber": "2236",
    "city": "Indianapolis",
    "postcode": "46229",
    "lat": 39.7997867,
    "lon": -85.9912357
  },
  {
    "street": "East 16th Street",
    "housenumber": "9500",
    "city": "Indianapolis",
    "postcode": "46229",
    "lat": 39.7905769,
    "lon": -86.0016799
  },
  {
    "street": "North Mitthoeffer Road",
    "housenumber": "2182",
    "city": "Indianapolis",
    "postcode": "46229",
    "lat": 39.7984906,
    "lon": -85.992183
  },
  {
    "street": "East 21st Street",
    "housenumber": "2102",
    "city": "Indianapolis",
    "postcode": "46229",
    "lat": 39.7973778,
    "lon": -85.9921079
  },
  {
    "street": "North Mitthoeffer Road",
    "housenumber": "2172",
    "city": "Indianapolis",
    "postcode": "46229",
    "lat": 39.7982763,
    "lon": -85.9921616
  },
  {
    "street": "North Mitthoeffer Road",
    "housenumber": "2202`",
    "city": "Indianapolis",
    "postcode": "46229",
    "lat": 39.7992325,
    "lon": -85.9917324
  },
  {
    "street": "North German Church Road",
    "housenumber": "2125",
    "city": "Indianapolis",
    "postcode": "46229",
    "lat": 39.7981305,
    "lon": -85.9701335
  },
  {
    "street": "Shadeland Station Way",
    "housenumber": "7205",
    "city": "Indianpolis",
    "postcode": "46256",
    "lat": 39.8855244,
    "lon": -86.0417243
  },
  {
    "street": "North Post Road",
    "housenumber": "1551",
    "city": "Indianapolis",
    "postcode": "46219",
    "lat": 39.7889867,
    "lon": -86.0085205
  },
  {
    "street": "North Post Road",
    "housenumber": "1590",
    "city": "Indianapolis",
    "postcode": "46219",
    "lat": 39.7890473,
    "lon": -86.00965
  },
  {
    "street": "North Post Road",
    "housenumber": "1625",
    "city": "Indianapolis",
    "postcode": "46219",
    "lat": 39.7898417,
    "lon": -86.0086985
  },
  {
    "street": "North Post Road",
    "housenumber": "1112",
    "city": "Indianapolis",
    "postcode": "46219",
    "lat": 39.7840057,
    "lon": -86.0101491
  },
  {
    "street": "East 10th Street",
    "housenumber": "8905",
    "city": "Indianapolis",
    "postcode": "46219",
    "lat": 39.7811592,
    "lon": -86.0099094
  },
  {
    "street": "North Post Road",
    "housenumber": "901",
    "city": "Indianapolis",
    "postcode": "46219",
    "lat": 39.7811737,
    "lon": -86.0070868
  },
  {
    "street": "North Post Road",
    "housenumber": "975",
    "city": "Indianapolis",
    "postcode": "46219",
    "lat": 39.7815806,
    "lon": -86.008607
  },
  {
    "street": "East Washington Street",
    "housenumber": "9749",
    "city": "Indianapolis",
    "postcode": "46229",
    "lat": 39.7729649,
    "lon": -85.9937396
  },
  {
    "street": "East Washington Street",
    "housenumber": "9650",
    "city": "Indianapolis",
    "postcode": "46229",
    "lat": 39.7765401,
    "lon": -85.9946201
  },
  {
    "street": "Castleton Corner Lane",
    "housenumber": "5520",
    "city": "Indianapolis",
    "postcode": "46250",
    "lat": 39.9116975,
    "lon": -86.0740342
  },
  {
    "street": "Castleton Corner Drive",
    "housenumber": "8350",
    "city": "Indianapolis",
    "postcode": "46250",
    "lat": 39.9082081,
    "lon": -86.0730364
  },
  {
    "street": "Castleton Corner Drive",
    "housenumber": "8280",
    "city": "Indianapolis",
    "postcode": "46250",
    "lat": 39.9068255,
    "lon": -86.0714449
  },
  {
    "street": "Castle Creek Parkway North Drive",
    "housenumber": "5625",
    "city": "Indianapolis",
    "postcode": "46250",
    "lat": 39.9150673,
    "lon": -86.0722531
  },
  {
    "street": "Castle Creek Parkway North Drive",
    "housenumber": "5701",
    "city": "Indianapolis",
    "postcode": "46250",
    "lat": 39.9153553,
    "lon": -86.0727269
  },
  {
    "street": "East 86th Street",
    "housenumber": "5771",
    "city": "Indianapolis",
    "postcode": "46250",
    "lat": 39.9119444,
    "lon": -86.0695226
  },
  {
    "street": "East 86th Street",
    "housenumber": "5759",
    "city": "Indianapolis",
    "postcode": "46250",
    "lat": 39.911644,
    "lon": -86.0695333
  },
  {
    "street": "East 86th Street",
    "housenumber": "5625",
    "city": "Indianapolis",
    "postcode": "46250",
    "lat": 39.910677,
    "lon": -86.0717327
  },
  {
    "street": "Castleton Corner Drive",
    "housenumber": "8440",
    "city": "Indianapolis",
    "postcode": "46250",
    "lat": 39.9102491,
    "lon": -86.0727466
  },
  {
    "street": "Castleton Corner Drive",
    "housenumber": "8452",
    "city": "Indianapolis",
    "postcode": "46250",
    "lat": 39.9102429,
    "lon": -86.0731561
  },
  {
    "street": "Castleton Corner Drive",
    "housenumber": "8366",
    "city": "Indianapolis",
    "postcode": "46250",
    "lat": 39.9086587,
    "lon": -86.0733152
  },
  {
    "street": "Castleton Corner Drive",
    "housenumber": "8530",
    "city": "Indianapolis",
    "postcode": "46250",
    "lat": 39.9105886,
    "lon": -86.0746903
  },
  {
    "street": "Castleton Corner Drive",
    "housenumber": "8516",
    "city": "Indianapolis",
    "postcode": "46250",
    "lat": 39.9103952,
    "lon": -86.0744435
  },
  {
    "street": "Castleton Corner Drive",
    "housenumber": "8470",
    "city": "Indianapolis",
    "postcode": "46250",
    "lat": 39.9102265,
    "lon": -86.0735262
  },
  {
    "street": "East 86th Street",
    "housenumber": "5703",
    "city": "Indianapolis",
    "postcode": "46250",
    "lat": 39.9109301,
    "lon": -86.0702432
  },
  {
    "street": "Castleton Corner Drive",
    "housenumber": "8475",
    "city": "Indianapolis",
    "postcode": "46250",
    "lat": 39.9092553,
    "lon": -86.0706558
  },
  {
    "street": "Castleton Corner Drive",
    "housenumber": "8410",
    "city": "Indianapolis",
    "postcode": "46250",
    "lat": 39.9091278,
    "lon": -86.0734439
  },
  {
    "street": "Castleton Square Drive",
    "housenumber": "6020",
    "city": "Indianapolis",
    "postcode": "46250",
    "lat": 39.9074777,
    "lon": -86.0694886
  },
  {
    "street": "Castleton Corner Lane",
    "housenumber": "5602",
    "city": "Indianapolis",
    "postcode": "46250",
    "lat": 39.9117828,
    "lon": -86.0733116
  },
  {
    "street": "Castleton Corner Lane",
    "housenumber": "5612",
    "city": "Indianapolis",
    "postcode": "46250",
    "lat": 39.9118394,
    "lon": -86.0723245
  },
  {
    "street": "Allisonville Road",
    "housenumber": "8601",
    "city": "Indianapolis",
    "postcode": "46250",
    "lat": 39.9129925,
    "lon": -86.0740438
  },
  {
    "street": "Allisonville Road",
    "housenumber": "8202",
    "city": "Indianapolis",
    "postcode": "46250",
    "lat": 39.9054433,
    "lon": -86.07925
  },
  {
    "street": "East 82nd Street",
    "housenumber": "5325",
    "city": "Indianapolis",
    "postcode": "46250",
    "lat": 39.9044388,
    "lon": -86.0776716
  },
  {
    "street": "Allisonville Road",
    "housenumber": "5410",
    "city": "Indianapolis",
    "postcode": "46250",
    "lat": 39.9071948,
    "lon": -86.0760956
  },
  {
    "street": "East 10th Street",
    "housenumber": "10050",
    "city": "Indianapolis",
    "postcode": "46229",
    "lat": 39.7831041,
    "lon": -85.9889069
  },
  {
    "street": "East 10th Street",
    "housenumber": "10044",
    "city": "Indianapolis",
    "postcode": "46229",
    "lat": 39.7831041,
    "lon": -85.989556
  },
  {
    "street": "East 10th Street",
    "housenumber": "10122",
    "city": "Indianapolis",
    "postcode": "46229",
    "lat": 39.7830114,
    "lon": -85.9873003
  },
  {
    "street": "East Washington Street",
    "housenumber": "9928",
    "city": "Indianapolis",
    "postcode": "46229",
    "lat": 39.7756393,
    "lon": -85.9918269
  },
  {
    "street": "East Washington Street",
    "housenumber": "9910",
    "city": "Indianapolis",
    "postcode": "46229",
    "lat": 39.7751796,
    "lon": -85.9918055
  },
  {
    "street": "East Washington Street",
    "housenumber": "9808",
    "city": "Indianapolis",
    "postcode": "46229",
    "lat": 39.7754888,
    "lon": -85.9922346
  },
  {
    "street": "East Washington Street",
    "housenumber": "9702",
    "city": "Indianapolis",
    "postcode": "46229",
    "lat": 39.7754661,
    "lon": -85.9930782
  },
  {
    "street": "East Washington Street",
    "housenumber": "9702",
    "city": "Indianapolis",
    "postcode": "46229",
    "lat": 39.7754723,
    "lon": -85.9932096
  },
  {
    "street": "East Washington Street",
    "housenumber": "9702",
    "city": "Indianapolis",
    "postcode": "46229",
    "lat": 39.7754651,
    "lon": -85.9934644
  },
  {
    "street": "East Washington Street",
    "housenumber": "9808",
    "city": "Indianapolis",
    "postcode": "46229",
    "lat": 39.7754775,
    "lon": -85.9926544
  },
  {
    "street": "East Washington Street",
    "housenumber": "9835",
    "city": "Indianapolis",
    "postcode": "46229",
    "lat": 39.7729828,
    "lon": -85.9927171
  },
  {
    "street": "East Washington Street",
    "housenumber": "9977",
    "city": "Indianapolis",
    "postcode": "46229",
    "lat": 39.7729939,
    "lon": -85.9920851
  },
  {
    "street": "East Washington Street",
    "housenumber": "9989",
    "city": "Indianapolis",
    "postcode": "46229",
    "lat": 39.7730163,
    "lon": -85.9908055
  },
  {
    "street": "East Washington Street",
    "housenumber": "9981",
    "city": "Indianapolis",
    "postcode": "46229",
    "lat": 39.7730046,
    "lon": -85.9914695
  },
  {
    "street": "East Washington Street",
    "housenumber": "9727",
    "city": "Indianapolis",
    "postcode": "46229",
    "lat": 39.7729446,
    "lon": -85.9948996
  },
  {
    "street": "East Washington Street",
    "housenumber": "9701",
    "city": "Indianapolis",
    "postcode": "46229",
    "lat": 39.7729266,
    "lon": -85.9959247
  },
  {
    "street": "East Washington Street",
    "housenumber": "9739",
    "city": "Indianapolis",
    "postcode": "46229",
    "lat": 39.7729517,
    "lon": -85.9944953
  },
  {
    "street": "East Washington Street",
    "housenumber": "9815",
    "city": "Indianapolis",
    "postcode": "46229",
    "lat": 39.7729749,
    "lon": -85.9931691
  },
  {
    "street": "East Washington Street",
    "housenumber": "9741",
    "city": "Indianapolis",
    "postcode": "46229",
    "lat": 39.7729555,
    "lon": -85.994277
  },
  {
    "street": "East Washington Street",
    "housenumber": "9745",
    "city": "Indianapolis",
    "postcode": "46229",
    "lat": 39.7729578,
    "lon": -85.9941461
  },
  {
    "street": "East Washington Street",
    "housenumber": "9733",
    "city": "Indianapolis",
    "postcode": "46229",
    "lat": 39.7729484,
    "lon": -85.9946792
  },
  {
    "street": "East Washington Street",
    "housenumber": "9715",
    "city": "Indianapolis",
    "postcode": "46229",
    "lat": 39.7729405,
    "lon": -85.995131
  },
  {
    "street": "East Washington Street",
    "housenumber": "9709",
    "city": "Indianapolis",
    "postcode": "46229",
    "lat": 39.7729367,
    "lon": -85.9953515
  },
  {
    "street": "East Washington Street",
    "housenumber": "10121",
    "city": "Indianapolis",
    "postcode": "46229",
    "lat": 39.7744757,
    "lon": -85.9863832
  },
  {
    "street": "East Washington Street",
    "housenumber": "10103",
    "city": "Indianapolis",
    "postcode": "46229",
    "lat": 39.7746316,
    "lon": -85.9870764
  },
  {
    "street": "East Washington Street",
    "housenumber": "10499",
    "city": "Indianapolis",
    "postcode": "46229",
    "lat": 39.7748181,
    "lon": -85.9804404
  },
  {
    "street": "East Washington Street",
    "housenumber": "8906",
    "city": "Indianapolis",
    "postcode": "46219",
    "lat": 39.7743329,
    "lon": -86.0111542
  },
  {
    "street": "East Washington Street",
    "housenumber": "8702",
    "city": "Indianapolis",
    "postcode": "46219",
    "lat": 39.7742039,
    "lon": -86.01428
  },
  {
    "street": "East Washington Street",
    "housenumber": "8819",
    "city": "Indianapolis",
    "postcode": "46219",
    "lat": 39.7732471,
    "lon": -86.0127631
  },
  {
    "street": "East Washington Street",
    "housenumber": "8998",
    "city": "Indianapolis",
    "postcode": "46219",
    "lat": 39.7742781,
    "lon": -86.0097194
  },
  {
    "street": "East Washington Street",
    "housenumber": "8975",
    "city": "Indianapolis",
    "postcode": "46219",
    "lat": 39.7734288,
    "lon": -86.009714
  },
  {
    "street": "East Washington Street",
    "housenumber": "8916",
    "city": "Indianapolis",
    "postcode": "46219",
    "lat": 39.7741915,
    "lon": -86.0107201
  },
  {
    "street": "East Washington Street",
    "housenumber": "8916",
    "city": "Indianapolis",
    "postcode": "46219",
    "lat": 39.7744318,
    "lon": -86.0107211
  },
  {
    "street": "East Washington Street",
    "housenumber": "9350",
    "city": "Indianapolis",
    "postcode": "46229",
    "lat": 39.7748536,
    "lon": -86.0034863
  },
  {
    "street": "East Washington Street",
    "housenumber": "9511",
    "city": "Indianapolis",
    "postcode": "46229",
    "lat": 39.7740677,
    "lon": -85.9987217
  },
  {
    "street": "East Washington Street",
    "housenumber": "9491",
    "city": "Indianapolis",
    "postcode": "46229",
    "lat": 39.7728308,
    "lon": -86.0009605
  },
  {
    "street": "East 54th Street",
    "housenumber": "1055",
    "city": "Indianapolis",
    "postcode": "46220",
    "lat": 39.8504522,
    "lon": -86.140274
  },
  {
    "street": "East Washington Street",
    "housenumber": "10087",
    "city": "Indianapolis",
    "postcode": "46229",
    "lat": 39.774481,
    "lon": -85.9885351
  },
  {
    "street": "Lake Plaza Drive",
    "housenumber": "6935",
    "city": "Indianapolis",
    "postcode": "46220",
    "lat": 39.881982,
    "lon": -86.0668525
  },
  {
    "street": "Michigan Road",
    "housenumber": "8640",
    "city": "Indianapolis",
    "postcode": "46268",
    "lat": 39.9128328,
    "lon": -86.2237321
  },
  {
    "street": "Michigan Road",
    "housenumber": "8760",
    "city": "Indianapolis",
    "postcode": "46268",
    "lat": 39.9141159,
    "lon": -86.2244918
  },
  {
    "street": "Michigan Road",
    "housenumber": "8760",
    "city": "Indianapolis",
    "postcode": "46268",
    "lat": 39.914347,
    "lon": -86.2245058
  },
  {
    "street": "Michigan Road",
    "housenumber": "8740",
    "city": "Indianapolis",
    "postcode": "46268",
    "lat": 39.9137542,
    "lon": -86.2242887
  },
  {
    "street": "Michigan Road",
    "housenumber": "8800",
    "city": "Indianapolis",
    "postcode": "46268",
    "lat": 39.9140982,
    "lon": -86.2255248
  },
  {
    "street": "Michigan Road",
    "housenumber": "8602",
    "city": "Indianapolis",
    "postcode": "46268",
    "lat": 39.9120237,
    "lon": -86.2233758
  },
  {
    "street": "West 86th Street",
    "housenumber": "3633",
    "city": "Indianapolis",
    "postcode": "46268",
    "lat": 39.9112204,
    "lon": -86.2235377
  },
  {
    "street": "West 96th Street",
    "housenumber": "3909",
    "city": "Indianapolis",
    "postcode": "46268",
    "lat": 39.9257471,
    "lon": -86.228635
  },
  {
    "street": "Ross Lane",
    "housenumber": "9510",
    "city": "Indianapolis",
    "postcode": "46268",
    "lat": 39.9247561,
    "lon": -86.2319883
  },
  {
    "street": "West 96th Street",
    "housenumber": "4105",
    "city": "Indianapolis",
    "postcode": "46268",
    "lat": 39.925053,
    "lon": -86.2303465
  },
  {
    "street": "Ross Lane",
    "housenumber": "9510",
    "city": "Indianapolis",
    "postcode": "46268",
    "lat": 39.9244656,
    "lon": -86.2320024
  },
  {
    "street": "Fall Creek Road North",
    "housenumber": "7125",
    "city": "Lawrence",
    "postcode": "46256",
    "lat": 39.868438,
    "lon": -86.043079
  },
  {
    "street": "Allisonville Road",
    "housenumber": "8603",
    "city": "Indianapolis",
    "postcode": "46250",
    "lat": 39.913611,
    "lon": -86.0727247
  },
  {
    "street": "Allison Pointe Boulevard",
    "housenumber": "8580",
    "city": "Indianapolis",
    "postcode": "46250",
    "lat": 39.9101898,
    "lon": -86.0870917
  },
  {
    "street": "East 21st Street",
    "housenumber": "8820",
    "city": "Indianapolis",
    "postcode": "46219",
    "lat": 39.7969868,
    "lon": -86.0127257
  },
  {
    "street": "East 21st Street",
    "housenumber": "8660",
    "city": "Indianapolis",
    "postcode": "46219",
    "lat": 39.7971228,
    "lon": -86.0147373
  },
  {
    "street": "East 21st Street",
    "housenumber": "8120",
    "city": "Indianapolis",
    "postcode": "46219",
    "lat": 39.7969766,
    "lon": -86.0246184
  },
  {
    "street": "East 21st Street",
    "housenumber": "8101",
    "city": "Indianapolis",
    "postcode": "46219",
    "lat": 39.7961947,
    "lon": -86.0248741
  },
  {
    "street": "East 21st Street",
    "housenumber": "8148",
    "city": "Indianapolis",
    "postcode": "46219",
    "lat": 39.7977638,
    "lon": -86.0238607
  },
  {
    "street": "Allisonville Road",
    "housenumber": "8175",
    "city": "Indianapolis",
    "postcode": "46250",
    "lat": 39.9046315,
    "lon": -86.0784678
  },
  {
    "street": "East 82nd Street",
    "housenumber": "5317",
    "city": "Indianapolis",
    "postcode": "46250",
    "lat": 39.9044775,
    "lon": -86.0779325
  },
  {
    "street": "East 82nd Street",
    "housenumber": "5305",
    "city": "Indianapolis",
    "postcode": "46250",
    "lat": 39.9044711,
    "lon": -86.0778204
  },
  {
    "street": "East 82nd Street",
    "housenumber": "4110",
    "city": "Indianapolis",
    "postcode": "46250",
    "lat": 39.9080263,
    "lon": -86.0952222
  },
  {
    "street": "East 82nd Street",
    "housenumber": "4050",
    "city": "Indianapolis",
    "postcode": "46250",
    "lat": 39.9083695,
    "lon": -86.0956697
  },
  {
    "street": "East 82nd Street",
    "housenumber": "4225",
    "city": "Indianapolis",
    "postcode": "46250",
    "lat": 39.9063614,
    "lon": -86.0950892
  },
  {
    "street": "East 82nd Street",
    "housenumber": "4120",
    "city": "Indianapolis",
    "postcode": "46250",
    "lat": 39.9077821,
    "lon": -86.0948761
  },
  {
    "street": "East 82nd Street",
    "housenumber": "4130",
    "city": "Indianapolis",
    "postcode": "46250",
    "lat": 39.9075768,
    "lon": -86.0943732
  },
  {
    "street": "Dean Road",
    "housenumber": "8249",
    "city": "Indianapolis",
    "postcode": "46240",
    "lat": 39.9065313,
    "lon": -86.0976422
  },
  {
    "street": "East 82nd Street",
    "housenumber": "4015",
    "city": "Indianapolis",
    "postcode": "46250",
    "lat": 39.9070566,
    "lon": -86.0977883
  },
  {
    "street": "East 82nd Street",
    "housenumber": "4205",
    "city": "Indianapolis",
    "postcode": "46250",
    "lat": 39.9067811,
    "lon": -86.0958494
  },
  {
    "street": "Logo Athletic Court",
    "housenumber": "8677",
    "city": "Indianapolis",
    "postcode": "46219",
    "lat": 39.8020904,
    "lon": -86.0173213
  },
  {
    "street": "Northwest Boulevard",
    "housenumber": "8227",
    "city": "Indianapolis",
    "postcode": "46278",
    "lat": 39.9058734,
    "lon": -86.2687866
  },
  {
    "street": "Northwest Boulevard",
    "housenumber": "8450",
    "city": "Indianapolis",
    "postcode": "46278",
    "lat": 39.9079268,
    "lon": -86.2672028
  },
  {
    "street": "Northwest Boulevard",
    "housenumber": "8227",
    "city": "Indianapolis",
    "postcode": "46278",
    "lat": 39.9054207,
    "lon": -86.268733
  },
  {
    "street": "Northwest Boulevard",
    "housenumber": "8227",
    "city": "Indianapolis",
    "postcode": "46278",
    "lat": 39.9063014,
    "lon": -86.2688081
  },
  {
    "street": "West 16th Street",
    "housenumber": "550",
    "city": "Indianapolis",
    "postcode": "46202",
    "lat": 39.7888056,
    "lon": -86.169981
  },
  {
    "street": "East 86th Street",
    "housenumber": "1520",
    "city": "Indianapolis",
    "postcode": "46240",
    "lat": 39.9138031,
    "lon": -86.133667
  },
  {
    "street": "North Post Road",
    "housenumber": "2485",
    "city": "Indianapolis",
    "postcode": "46219",
    "lat": 39.8034321,
    "lon": -86.0100199
  },
  {
    "street": "East 33rd Street",
    "housenumber": "9325",
    "city": "Indianapolis",
    "postcode": "46235",
    "lat": 39.8160232,
    "lon": -86.0036123
  },
  {
    "street": "East 30th Street",
    "housenumber": "8560",
    "city": "Indianapolis",
    "postcode": "46219",
    "lat": 39.8116295,
    "lon": -86.0166418
  },
  {
    "street": "East 30th Street",
    "housenumber": "8550",
    "city": "Indianapolis",
    "postcode": "46219",
    "lat": 39.8115018,
    "lon": -86.0176235
  },
  {
    "street": "North Franklin Road",
    "housenumber": "3002",
    "city": "Indianapolis",
    "postcode": "46226",
    "lat": 39.8115718,
    "lon": -86.027309
  },
  {
    "street": "East 30th Street",
    "housenumber": "8005",
    "city": "Indianapolis",
    "postcode": "46226",
    "lat": 39.8107983,
    "lon": -86.0262522
  },
  {
    "street": "Enterprise Street",
    "housenumber": "2410",
    "city": "Indianapolis",
    "postcode": "46219",
    "lat": 39.8036113,
    "lon": -86.0331616
  },
  {
    "street": "East 30th Street",
    "housenumber": "7515",
    "city": "Indianapolis",
    "postcode": "46219",
    "lat": 39.8110084,
    "lon": -86.0333386
  },
  {
    "street": "East 30th Street",
    "housenumber": "7515",
    "city": "Indianapolis",
    "postcode": "46219",
    "lat": 39.8103532,
    "lon": -86.0341594
  },
  {
    "street": "East 30th Street",
    "housenumber": "7515",
    "city": "Indianapolis",
    "postcode": "46219",
    "lat": 39.8102667,
    "lon": -86.0326412
  },
  {
    "street": "East 38th Street",
    "housenumber": "7801",
    "city": "Indianapolis",
    "postcode": "46226",
    "lat": 39.8253953,
    "lon": -86.0287986
  },
  {
    "street": "East 38th Street",
    "housenumber": "7930",
    "city": "Indianapolis",
    "postcode": "46226",
    "lat": 39.8265108,
    "lon": -86.0275862
  },
  {
    "street": "North Shadeland Avenue",
    "housenumber": "7101",
    "city": "Indianapolis",
    "postcode": "46256",
    "lat": 39.8842703,
    "lon": -86.0450461
  },
  {
    "street": "Shadeland Station Way",
    "housenumber": "7205",
    "city": "Indianpolis",
    "postcode": "46256",
    "lat": 39.8853437,
    "lon": -86.0416558
  },
  {
    "street": "North Shadeland Avenue",
    "housenumber": "7451",
    "city": "Indianapolis",
    "postcode": "46256",
    "lat": 39.8897525,
    "lon": -86.0436802
  },
  {
    "street": "North Shadeland Avenue",
    "housenumber": "7373",
    "city": "Indianapolis",
    "postcode": "46250",
    "lat": 39.8888243,
    "lon": -86.0440611
  },
  {
    "street": "North Shadeland Avenue",
    "housenumber": "7429",
    "city": "Indianapolis",
    "postcode": "46250",
    "lat": 39.8895487,
    "lon": -86.0437392
  },
  {
    "street": "East 71st Street",
    "housenumber": "5880",
    "city": "Indianapolis",
    "postcode": "46250",
    "lat": 39.8849165,
    "lon": -86.0666842
  },
  {
    "street": "North Meridian Street",
    "housenumber": "9450",
    "city": "Indianapolis",
    "postcode": "46260",
    "lat": 39.9246626,
    "lon": -86.158574
  },
  {
    "street": "West 11th Street",
    "housenumber": "617",
    "city": "Indianapolis",
    "postcode": "46202",
    "lat": 39.7812699,
    "lon": -86.1696368
  },
  {
    "street": "Oscar Robertson Boulevard",
    "housenumber": "601",
    "city": "Indianapolis",
    "postcode": "46202",
    "lat": 39.7817976,
    "lon": -86.1696355
  },
  {
    "street": "University Boulevard",
    "housenumber": "301",
    "city": "Indianapolis",
    "postcode": "46202",
    "lat": 39.7721382,
    "lon": -86.1751774
  },
  {
    "street": "East 86th Street",
    "housenumber": "2727",
    "city": "Indianapolis",
    "postcode": "46240",
    "lat": 39.911915,
    "lon": -86.1162907
  },
  {
    "street": "East 86th Street",
    "housenumber": "2727",
    "city": "Indianapolis",
    "postcode": "46240",
    "lat": 39.9120542,
    "lon": -86.1164512
  },
  {
    "street": "North Franklin Road",
    "housenumber": "950",
    "city": "Indianapolis",
    "postcode": "46219",
    "lat": 39.7814981,
    "lon": -86.0267821
  },
  {
    "street": "East 25th Street",
    "housenumber": "11025",
    "city": "Indianapolis",
    "postcode": "46229",
    "lat": 39.8041287,
    "lon": -85.9704199
  },
  {
    "street": "East 21st Street",
    "housenumber": "8820",
    "city": "Indianapolis",
    "postcode": "46219",
    "lat": 39.7969279,
    "lon": -86.0126659
  },
  {
    "street": "West Michigan Street",
    "housenumber": "1232",
    "city": "Indianapolis",
    "postcode": "46202",
    "lat": 39.7754816,
    "lon": -86.1825209
  },
  {
    "street": "West North Street",
    "housenumber": "875",
    "city": "Indianapolis",
    "postcode": "46202",
    "lat": 39.7753676,
    "lon": -86.1739194
  },
  {
    "street": "Broad Ripple Avenue",
    "housenumber": "1075",
    "city": "Indianapolis",
    "postcode": "46220",
    "lat": 39.8686657,
    "lon": -86.1422838
  },
  {
    "street": "Virginia Avenue",
    "housenumber": "1058",
    "city": "Indianapolis",
    "postcode": "46203",
    "lat": 39.7527812,
    "lon": -86.1403024
  },
  {
    "street": "North Meridian Street",
    "housenumber": "3450",
    "city": "Indianapolis",
    "postcode": "46208",
    "lat": 39.8187742,
    "lon": -86.1572144
  },
  {
    "street": "North Shadeland Avenue",
    "housenumber": "980",
    "city": "Indianapolis",
    "postcode": "46219",
    "lat": 39.7814238,
    "lon": -86.045768
  },
  {
    "street": "North Rural Street",
    "housenumber": "1001",
    "city": "Indianapolis",
    "postcode": "46201",
    "lat": 39.7815997,
    "lon": -86.1162338
  },
  {
    "street": "West Market Street",
    "housenumber": "133",
    "city": "Indianapolis",
    "postcode": "46204",
    "lat": 39.7682775,
    "lon": -86.1611321
  },
  {
    "street": "East 21st Street",
    "housenumber": "10005",
    "city": "Indianapolis",
    "postcode": "46229",
    "lat": 39.7965776,
    "lon": -85.9900163
  },
  {
    "street": "North Meridian Street",
    "housenumber": "8902",
    "city": "Indianapolis",
    "lat": 39.9177003,
    "lon": -86.1593394
  },
  {
    "street": "E 82nd St",
    "housenumber": "6024",
    "city": "Indianapolis",
    "lat": 39.9057236,
    "lon": -86.0638459
  },
  {
    "street": "E 82nd St",
    "housenumber": "6066",
    "city": "Indianapolis",
    "lat": 39.9060923,
    "lon": -86.0638706
  },
  {
    "street": "South Meridian Street",
    "housenumber": "49",
    "city": "Indianapolis",
    "postcode": "46204",
    "lat": 39.7658939,
    "lon": -86.1577835
  },
  {
    "street": "Hawthorn Park Drive",
    "housenumber": "6801",
    "city": "Indianapolis",
    "postcode": "46220",
    "lat": 39.8801086,
    "lon": -86.0748478
  },
  {
    "street": "Hawthorn Park Drive",
    "housenumber": "6857",
    "city": "Indianapolis",
    "postcode": "46220",
    "lat": 39.8800036,
    "lon": -86.0760317
  },
  {
    "street": "Hawthorn Park Drive",
    "housenumber": "6853",
    "city": "Indianapolis",
    "postcode": "46220",
    "lat": 39.8800056,
    "lon": -86.076088
  },
  {
    "street": "East Michigan Street",
    "housenumber": "401",
    "city": "Indianapolis",
    "postcode": "46204",
    "lat": 39.7737015,
    "lon": -86.1503394
  },
  {
    "street": "Fulton Street",
    "housenumber": "707",
    "city": "Indianapolis",
    "lat": 39.7762417,
    "lon": -86.1437766
  },
  {
    "street": "E 21st Street",
    "housenumber": "8620",
    "city": "Indianapolis",
    "postcode": "46219",
    "lat": 39.7998152,
    "lon": -86.0182925
  },
  {
    "street": "E 82nd St",
    "housenumber": "4016",
    "city": "Indianapolis",
    "postcode": "46250",
    "lat": 39.9096982,
    "lon": -86.0969658
  },
  {
    "street": "East 82nd Street",
    "housenumber": "6055",
    "city": "Indianapolis",
    "postcode": "46250",
    "lat": 39.9046684,
    "lon": -86.0645028
  },
  {
    "street": "East 82nd Street",
    "housenumber": "6061",
    "city": "Indianapolis",
    "postcode": "46250",
    "lat": 39.9047434,
    "lon": -86.0641038
  },
  {
    "street": "East 82nd Street",
    "housenumber": "6071",
    "city": "Indianapolis",
    "postcode": "46250",
    "lat": 39.904819,
    "lon": -86.0633737
  },
  {
    "street": "East 82nd Street",
    "housenumber": "5881",
    "city": "Indianapolis",
    "postcode": "46250",
    "lat": 39.9046481,
    "lon": -86.0677277
  },
  {
    "street": "East 82nd Street",
    "housenumber": "5820",
    "city": "Indianapolis",
    "postcode": "46250",
    "lat": 39.9060445,
    "lon": -86.0692772
  },
  {
    "street": "East 82nd Street",
    "housenumber": "5868",
    "city": "Indianapolis",
    "postcode": "46250",
    "lat": 39.9063167,
    "lon": -86.0675615
  },
  {
    "street": "East 82nd Street",
    "housenumber": "6091",
    "city": "Indianapolis",
    "postcode": "46250",
    "lat": 39.9048077,
    "lon": -86.0615508
  },
  {
    "street": "East 82nd Street",
    "housenumber": "6161",
    "city": "Indianapolis",
    "postcode": "46250",
    "lat": 39.9048155,
    "lon": -86.0608275
  },
  {
    "street": "East 82nd Street",
    "housenumber": "6070",
    "city": "Indianapolis",
    "postcode": "46250",
    "lat": 39.9059909,
    "lon": -86.0629028
  },
  {
    "street": "East 82nd Street",
    "housenumber": "6421",
    "city": "Indianapolis",
    "postcode": "46250",
    "lat": 39.9049142,
    "lon": -86.0565371
  },
  {
    "street": "East 82nd Street",
    "housenumber": "6611",
    "city": "Indianapolis",
    "postcode": "46250",
    "lat": 39.9049753,
    "lon": -86.0537244
  },
  {
    "street": "East 82nd Street",
    "housenumber": "6302",
    "city": "Indianapolis",
    "postcode": "46250",
    "lat": 39.908272,
    "lon": -86.0596247
  },
  {
    "street": "East 82nd Street",
    "housenumber": "6401",
    "city": "Indianapolis",
    "postcode": "46250",
    "lat": 39.9043844,
    "lon": -86.0566013
  },
  {
    "street": "East 82nd Street",
    "housenumber": "6435",
    "city": "Indianapolis",
    "postcode": "46250",
    "lat": 39.9050116,
    "lon": -86.0560563
  },
  {
    "street": "East 82nd Street",
    "housenumber": "6714",
    "city": "Indianapolis",
    "postcode": "46250",
    "lat": 39.9054871,
    "lon": -86.0516561
  },
  {
    "street": "East 82nd Street",
    "housenumber": "6816",
    "city": "Indianapolis",
    "postcode": "46250",
    "lat": 39.9054659,
    "lon": -86.0491157
  },
  {
    "street": "East 82nd Street",
    "housenumber": "6629",
    "city": "Indianapolis",
    "postcode": "46250",
    "lat": 39.9043529,
    "lon": -86.0529113
  },
  {
    "street": "East 82nd Street",
    "housenumber": "6665",
    "city": "Indianapolis",
    "postcode": "46250",
    "lat": 39.9044201,
    "lon": -86.0523737
  },
  {
    "street": "East 82nd Street",
    "housenumber": "6653",
    "city": "Indianapolis",
    "postcode": "46250",
    "lat": 39.9043568,
    "lon": -86.0526042
  },
  {
    "street": "East 82nd Street",
    "housenumber": "6689",
    "city": "Indianapolis",
    "postcode": "46250",
    "lat": 39.9045628,
    "lon": -86.0521755
  },
  {
    "street": "East 82nd Street",
    "housenumber": "6526",
    "city": "Indianapolis",
    "postcode": "46250",
    "lat": 39.9058433,
    "lon": -86.0543543
  },
  {
    "street": "East 82nd Street",
    "housenumber": "6426",
    "city": "Indianapolis",
    "postcode": "46250",
    "lat": 39.9065932,
    "lon": -86.0560575
  },
  {
    "street": "North Post Road",
    "housenumber": "2130",
    "city": "Indianapolis",
    "postcode": "46219",
    "lat": 39.7975655,
    "lon": -86.0101428
  },
  {
    "street": "East 21st Street",
    "housenumber": "9020",
    "city": "Indianapolis",
    "postcode": "46219",
    "lat": 39.7970704,
    "lon": -86.0085322
  },
  {
    "street": "North Post Road",
    "housenumber": "2101",
    "city": "Indianapolis",
    "postcode": "46219",
    "lat": 39.797105,
    "lon": -86.0087897
  },
  {
    "street": "Post Drive",
    "housenumber": "2340",
    "city": "Indianapolis",
    "postcode": "46219",
    "lat": 39.8016478,
    "lon": -86.0122068
  },
  {
    "street": "East 25th Street",
    "housenumber": "8801",
    "city": "Indianapolis",
    "postcode": "46219",
    "lat": 39.803082,
    "lon": -86.0135157
  },
  {
    "street": "Virginia Avenue",
    "housenumber": "450",
    "city": "Indianapolis",
    "lat": 39.7601902,
    "lon": -86.147762
  },
  {
    "street": "West 96th Street",
    "housenumber": "5405",
    "city": "Indianapolis",
    "postcode": "46268",
    "lat": 39.9231037,
    "lon": -86.2504886
  },
  {
    "street": "Northwest Boulevard",
    "housenumber": "8570",
    "city": "Indianapolis",
    "postcode": "46278",
    "lat": 39.9101147,
    "lon": -86.2677459
  },
  {
    "street": "East 82nd Street",
    "housenumber": "5320",
    "city": "Indianapolis",
    "postcode": "46250",
    "lat": 39.905778,
    "lon": -86.0776695
  },
  {
    "street": "East 82nd Street",
    "housenumber": "5470",
    "city": "Indianapolis",
    "postcode": "46250",
    "lat": 39.9068272,
    "lon": -86.0745772
  },
  {
    "street": "East 82nd Street",
    "housenumber": "5520",
    "city": "Indianapolis",
    "postcode": "46250",
    "lat": 39.9065474,
    "lon": -86.0738744
  },
  {
    "street": "East 82nd Street",
    "housenumber": "5450",
    "city": "Indianapolis",
    "postcode": "46250",
    "lat": 39.9070577,
    "lon": -86.0753335
  },
  {
    "street": "East 82nd Street",
    "housenumber": "5440",
    "city": "Indianapolis",
    "postcode": "46250",
    "lat": 39.9056339,
    "lon": -86.076385
  },
  {
    "street": "East 82nd Street",
    "housenumber": "5501",
    "city": "Indianapolis",
    "postcode": "46250",
    "lat": 39.9044107,
    "lon": -86.0745959
  },
  {
    "street": "East 82nd Street",
    "housenumber": "4026",
    "city": "Indianapolis",
    "postcode": "46250",
    "lat": 39.9086316,
    "lon": -86.0977649
  },
  {
    "street": "East 82nd Street",
    "housenumber": "3810",
    "city": "Indianapolis",
    "postcode": "46240",
    "lat": 39.9104987,
    "lon": -86.1009808
  },
  {
    "street": "East 82nd Street",
    "housenumber": "3748",
    "city": "Indianapolis",
    "postcode": "46240",
    "lat": 39.9106222,
    "lon": -86.1014234
  },
  {
    "street": "North River Road",
    "housenumber": "8557",
    "city": "Indianapolis",
    "postcode": "46240",
    "lat": 39.9107847,
    "lon": -86.1054534
  },
  {
    "street": "East 86th Street",
    "housenumber": "3535",
    "city": "Indianapolis",
    "postcode": "46240",
    "lat": 39.9102374,
    "lon": -86.1066336
  },
  {
    "street": "East New York Street",
    "housenumber": "205",
    "city": "Indianapolis",
    "postcode": "46204",
    "lat": 39.7709723,
    "lon": -86.1539348
  },
  {
    "street": "Woodview Trace",
    "housenumber": "3502",
    "city": "Indianapolis",
    "postcode": "46268",
    "lat": 39.9228414,
    "lon": -86.2202501
  },
  {
    "street": "Woodview Trace",
    "housenumber": "3502",
    "city": "Indianapolis",
    "postcode": "46268",
    "lat": 39.9224667,
    "lon": -86.2204043
  },
  {
    "street": "Georgetown Road",
    "housenumber": "8431",
    "city": "Indianapolis",
    "postcode": "46268",
    "lat": 39.9085974,
    "lon": -86.2401111
  },
  {
    "street": "East 86th Street",
    "housenumber": "1365",
    "city": "Indianapolis",
    "postcode": "46240",
    "lat": 39.9114304,
    "lon": -86.1379693
  },
  {
    "street": "West 75th Court",
    "housenumber": "1321",
    "city": "Indianapolis",
    "postcode": "46260",
    "lat": 39.8907151,
    "lon": -86.1829138
  },
  {
    "street": "East 30th Street",
    "housenumber": "6800",
    "city": "Indianapolis",
    "postcode": "46219",
    "lat": 39.8119431,
    "lon": -86.0507974
  },
  {
    "street": "Michigan Road",
    "housenumber": "4000",
    "city": "Indianapolis",
    "postcode": "46208",
    "lat": 39.8254617,
    "lon": -86.1851419
  },
  {
    "street": "South West Street",
    "housenumber": "10",
    "city": "Indianapolis",
    "postcode": "46204",
    "lat": 39.7665854,
    "lon": -86.1676936
  },
  {
    "street": "West Washington Street",
    "housenumber": "601",
    "city": "Indianapolis",
    "postcode": "46204",
    "lat": 39.7668699,
    "lon": -86.1687718
  },
  {
    "street": "West Washington Street",
    "housenumber": "501",
    "city": "Indianapolis",
    "postcode": "46204",
    "lat": 39.7667998,
    "lon": -86.1682085
  },
  {
    "street": "West Washington Street",
    "housenumber": "601",
    "city": "Indianapolis",
    "postcode": "46204",
    "lat": 39.7668163,
    "lon": -86.1688415
  },
  {
    "street": "East 82nd Street",
    "housenumber": "5473",
    "city": "Indianapolis",
    "postcode": "46250",
    "lat": 39.9037659,
    "lon": -86.0751612
  },
  {
    "street": "Old Trails Road",
    "housenumber": "7060",
    "city": "Indianapolis",
    "postcode": "46219",
    "lat": 39.7721498,
    "lon": -86.03273
  },
  {
    "street": "East 82nd Street",
    "housenumber": "5320",
    "city": "Indianapolis",
    "postcode": "46250",
    "lat": 39.9056917,
    "lon": -86.0772373
  },
  {
    "street": "East 21st Street",
    "housenumber": "10240",
    "city": "Indianapolis",
    "postcode": "46229",
    "lat": 39.7976752,
    "lon": -85.984313
  },
  {
    "street": "N. Keystone Avenue",
    "housenumber": "7201",
    "city": "Indianapolis",
    "postcode": "46240",
    "lat": 39.8843921,
    "lon": -86.121563
  },
  {
    "street": "Castleton Corner Drive",
    "housenumber": "8540",
    "city": "Indianapolis",
    "postcode": "46250",
    "lat": 39.9108156,
    "lon": -86.0749689
  },
  {
    "street": "West 16th Street",
    "housenumber": "550",
    "city": "Indianapolis",
    "postcode": "46202",
    "lat": 39.7889608,
    "lon": -86.1700744
  },
  {
    "street": "East Washington Street",
    "housenumber": "10537",
    "city": "Indianapolis",
    "postcode": "46229",
    "lat": 39.7741986,
    "lon": -85.9795173
  },
  {
    "street": "East Washington Street",
    "housenumber": "10537",
    "city": "Indianapolis",
    "postcode": "46229",
    "lat": 39.7746371,
    "lon": -85.9795544
  },
  {
    "street": "East Washington Street",
    "housenumber": "10537",
    "city": "Indianapolis",
    "postcode": "46229",
    "lat": 39.7744598,
    "lon": -85.9795051
  },
  {
    "street": "East Washington Street",
    "housenumber": "10537",
    "city": "Indianapolis",
    "postcode": "46229",
    "lat": 39.7741017,
    "lon": -85.9794978
  },
  {
    "street": "East Washington Street",
    "housenumber": "10535",
    "city": "Indianapolis",
    "postcode": "46229",
    "lat": 39.7743263,
    "lon": -85.979487
  },
  {
    "street": "Madison Avenue",
    "housenumber": "6825",
    "city": "Indianapolis",
    "postcode": "46227",
    "lat": 39.7216517,
    "lon": -86.149593
  },
  {
    "street": "Union Chapel Road",
    "housenumber": "8487",
    "city": "Indianapolis",
    "postcode": "46240",
    "lat": 39.9088294,
    "lon": -86.1069342
  },
  {
    "street": "Union Chapel Road",
    "housenumber": "8487",
    "city": "Indianapolis",
    "postcode": "46240",
    "lat": 39.909494,
    "lon": -86.1061934
  },
  {
    "street": "Union Chapel Road",
    "housenumber": "8487",
    "city": "Indianapolis",
    "postcode": "46240",
    "lat": 39.9089649,
    "lon": -86.108484
  },
  {
    "street": "South Service Road",
    "housenumber": "7899",
    "city": "Indianapolis",
    "postcode": "46241",
    "lat": 39.7089915,
    "lon": -86.2991498
  },
  {
    "street": "South Service Road",
    "housenumber": "7899",
    "city": "Indianapolis",
    "postcode": "46241",
    "lat": 39.7092246,
    "lon": -86.2988548
  },
  {
    "street": "South Service Road",
    "housenumber": "7899",
    "city": "Indianapolis",
    "postcode": "46241",
    "lat": 39.7094271,
    "lon": -86.2985982
  },
  {
    "street": "South Service Road",
    "housenumber": "7899",
    "city": "Indianapolis",
    "postcode": "46241",
    "lat": 39.7096325,
    "lon": -86.2983361
  },
  {
    "street": "North College Avenue",
    "housenumber": "2501",
    "city": "Indianapolis",
    "postcode": "46205",
    "lat": 39.803199,
    "lon": -86.1465251
  },
  {
    "street": "East Southport Road",
    "housenumber": "1455",
    "city": "Indianapolis",
    "postcode": "46227",
    "lat": 39.6647162,
    "lon": -86.1341577
  },
  {
    "street": "West 86th Street",
    "housenumber": "3269",
    "city": "Indianapolis",
    "postcode": "46268",
    "lat": 39.9113341,
    "lon": -86.2166633
  },
  {
    "street": "North Meridian Street",
    "housenumber": "320",
    "city": "Indianapolis",
    "postcode": "46204",
    "lat": 39.7719344,
    "lon": -86.1582579
  },
  {
    "street": "Johnson Road",
    "housenumber": "7856",
    "city": "Indianapolis",
    "postcode": "46250",
    "lat": 39.8976568,
    "lon": -86.0509847
  },
  {
    "street": "Lake Plaza Drive",
    "housenumber": "6935",
    "city": "Indianapolis",
    "postcode": "46220",
    "lat": 39.8816559,
    "lon": -86.0671619
  },
  {
    "street": "South Meridian Street",
    "housenumber": "3101",
    "city": "Indianapolis",
    "postcode": "46217",
    "lat": 39.7204779,
    "lon": -86.1580511
  },
  {
    "street": "Lafayette Road",
    "housenumber": "4225",
    "city": "Indianapolis",
    "postcode": "46254",
    "lat": 39.8317388,
    "lon": -86.2409633
  },
  {
    "street": "Lafayette Road",
    "housenumber": "3241",
    "city": "Indianapolis",
    "postcode": "46222",
    "lat": 39.813716,
    "lon": -86.2241768
  },
  {
    "street": "Southeastern Avenue",
    "housenumber": "7919",
    "city": "Indianapolis",
    "postcode": "46239",
    "lat": 39.7143695,
    "lon": -86.0274155
  },
  {
    "street": "Country Village Drive",
    "housenumber": "8232",
    "city": "Indianapolis",
    "postcode": "46214",
    "lat": 39.7635617,
    "lon": -86.3062246
  },
  {
    "street": "North Alabama Street",
    "housenumber": "333",
    "city": "Indianapolis",
    "postcode": "46204",
    "lat": 39.7723545,
    "lon": -86.1520236
  },
  {
    "street": "Allisonville Road",
    "housenumber": "8208",
    "city": "Indianapolis",
    "postcode": "46250",
    "lat": 39.9056366,
    "lon": -86.0788939
  },
  {
    "street": "Southeastern Avenue",
    "housenumber": "7086",
    "city": "Indianapolis",
    "postcode": "46239",
    "lat": 39.7244286,
    "lon": -86.0428506
  },
  {
    "street": "Brookville Road",
    "housenumber": "7822",
    "city": "Indianapolis",
    "postcode": "46239",
    "lat": 39.7510364,
    "lon": -86.0291579
  },
  {
    "street": "N Pennsylvania St",
    "housenumber": "1229",
    "city": "Indianapolis",
    "lat": 39.7840739,
    "lon": -86.1548117
  },
  {
    "street": "East 26th Street",
    "housenumber": "4022",
    "city": "Indianapolis",
    "postcode": "46218",
    "lat": 39.8054107,
    "lon": -86.0981936
  },
  {
    "street": "East Washington Street",
    "housenumber": "301",
    "city": "Indianapolis",
    "postcode": "46204",
    "lat": 39.766942,
    "lon": -86.1524947
  },
  {
    "street": "East 21st Street",
    "housenumber": "6032",
    "city": "Indianapolis",
    "postcode": "46219",
    "lat": 39.7970121,
    "lon": -86.0622971
  },
  {
    "street": "Sadlier Circle West Drive",
    "housenumber": "1410",
    "city": "Indianapolis",
    "postcode": "46239",
    "lat": 39.7495681,
    "lon": -86.0400801
  },
  {
    "street": "North Rural Street",
    "housenumber": "1856",
    "city": "Indianapolis",
    "postcode": "46218",
    "lat": 39.7923018,
    "lon": -86.1170608
  },
  {
    "street": "English Avenue",
    "housenumber": "5055",
    "city": "Indianapolis",
    "postcode": "46201",
    "lat": 39.7599625,
    "lon": -86.0833512
  },
  {
    "street": "North High School Road",
    "housenumber": "4060",
    "city": "Indianapolis",
    "postcode": "46254",
    "lat": 39.8289505,
    "lon": -86.2711666
  },
  {
    "street": "West 56th Street",
    "housenumber": "4720",
    "city": "Indianapolis",
    "postcode": "46254",
    "lat": 39.853609,
    "lon": -86.239221
  },
  {
    "street": "Spring Mill Road",
    "housenumber": "8615",
    "city": "Indianapolis",
    "postcode": "46260",
    "lat": 39.9129527,
    "lon": -86.1638289
  },
  {
    "street": "North Capitol Avenue",
    "housenumber": "725",
    "city": "Indianapolis",
    "postcode": "46204",
    "lat": 39.7775463,
    "lon": -86.1610447
  },
  {
    "street": "North College Avenue",
    "housenumber": "5914",
    "city": "Indianapolis",
    "postcode": "46220",
    "lat": 39.8626453,
    "lon": -86.1463569
  },
  {
    "street": "East Washington Street",
    "housenumber": "6501",
    "city": "Indianapolis",
    "postcode": "46219",
    "lat": 39.7712992,
    "lon": -86.0555641
  },
  {
    "street": "East Washington Street",
    "housenumber": "5606",
    "city": "Indianapolis",
    "postcode": "46219",
    "lat": 39.7709557,
    "lon": -86.0719397
  },
  {
    "street": "East Washington Street",
    "housenumber": "5648",
    "city": "Indianapolis",
    "postcode": "46219",
    "lat": 39.7710132,
    "lon": -86.0709078
  },
  {
    "street": "East Washington Street",
    "housenumber": "5702",
    "city": "Indianapolis",
    "postcode": "46219",
    "lat": 39.7709931,
    "lon": -86.0700469
  },
  {
    "street": "East Washington Street",
    "housenumber": "5648",
    "city": "Indianapolis",
    "postcode": "46219",
    "lat": 39.7710391,
    "lon": -86.0706137
  },
  {
    "street": "East Washington Street",
    "housenumber": "6245",
    "city": "Indianapolis",
    "postcode": "46219-6611",
    "lat": 39.7697951,
    "lon": -86.0588782
  },
  {
    "street": "Brookville Road",
    "housenumber": "8020",
    "city": "Indianapolis",
    "postcode": "46239",
    "lat": 39.750133,
    "lon": -86.025408
  },
  {
    "street": "Brookville Road",
    "housenumber": "8020",
    "city": "Indianapolis",
    "postcode": "46239",
    "lat": 39.7503604,
    "lon": -86.0253402
  },
  {
    "street": "Brookville Road",
    "housenumber": "7940",
    "city": "Indianapolis",
    "postcode": "46239",
    "lat": 39.7507676,
    "lon": -86.0269562
  },
  {
    "street": "West 38th Street",
    "housenumber": "4861",
    "city": "Indianapolis",
    "postcode": "46254",
    "lat": 39.8231287,
    "lon": -86.242061
  },
  {
    "street": "Century Plaza Road",
    "housenumber": "4734",
    "city": "Indianapolis",
    "postcode": "46254",
    "lat": 39.8346537,
    "lon": -86.2396684
  },
  {
    "street": "Commercial Drive",
    "housenumber": "3605",
    "city": "Indianapolis",
    "postcode": "46222",
    "lat": 39.818562,
    "lon": -86.2274308
  },
  {
    "street": "North Illinois Street",
    "housenumber": "822",
    "city": "Indianapolis",
    "postcode": "46204",
    "lat": 39.77861,
    "lon": -86.1597068
  },
  {
    "street": "East 82nd Street",
    "housenumber": "6414",
    "city": "Indianapolis",
    "postcode": "46250",
    "lat": 39.9067365,
    "lon": -86.0561545
  },
  {
    "street": "East 82nd Street",
    "housenumber": "5025",
    "city": "Indianapolis",
    "postcode": "46250",
    "lat": 39.9093272,
    "lon": -86.100977
  },
  {
    "street": "Kentucky Avenue",
    "housenumber": "4610",
    "city": "Indianapolis",
    "postcode": "46221",
    "lat": 39.6963202,
    "lon": -86.2682104
  },
  {
    "street": "Virginia Avenue",
    "housenumber": "44",
    "city": "Indianapolis",
    "lat": 39.7661529,
    "lon": -86.1549683
  },
  {
    "street": "Center Run Drive",
    "housenumber": "6302",
    "city": "Indianapolis",
    "lat": 39.9082679,
    "lon": -86.0592436
  },
  {
    "street": "West 86th Street",
    "housenumber": "1389",
    "city": "Indianapolis",
    "postcode": "46260",
    "lat": 39.9105263,
    "lon": -86.1834048
  },
  {
    "street": "South Franklin Road",
    "housenumber": "221",
    "city": "Indianapolis",
    "postcode": "46219",
    "lat": 39.7696225,
    "lon": -86.021056
  },
  {
    "street": "Guilford Avenue",
    "housenumber": "6349",
    "city": "Indianapolis",
    "postcode": "46220",
    "lat": 39.8716189,
    "lon": -86.142614
  },
  {
    "street": "Guilford Avenue",
    "housenumber": "6350",
    "city": "Indianapolis",
    "postcode": "46220",
    "lat": 39.8715756,
    "lon": -86.1431316
  },
  {
    "street": "Broad Ripple Avenue",
    "housenumber": "854",
    "city": "Indianapolis",
    "postcode": "46220",
    "lat": 39.8698458,
    "lon": -86.1431213
  },
  {
    "street": "Broad Ripple Avenue",
    "housenumber": "845",
    "city": "Indianapolis",
    "postcode": "46220",
    "lat": 39.869469,
    "lon": -86.1433037
  },
  {
    "street": "East Westfield Boulevard",
    "housenumber": "908",
    "city": "Indianapolis",
    "postcode": "46220",
    "lat": 39.8708071,
    "lon": -86.1426198
  },
  {
    "street": "E 86th St",
    "housenumber": "1225",
    "city": "Indianapolis",
    "postcode": "46240",
    "lat": 39.9116392,
    "lon": -86.1388656
  },
  {
    "street": "East 86th Street",
    "housenumber": "1440",
    "city": "Indianapolis",
    "postcode": "46240",
    "lat": 39.9140956,
    "lon": -86.135663
  },
  {
    "street": "East 86th",
    "housenumber": "1300",
    "city": "Indianapolis",
    "postcode": "46240",
    "lat": 39.9135974,
    "lon": -86.1372132
  },
  {
    "street": "South West Street",
    "housenumber": "2444",
    "city": "Indianapolis",
    "lat": 39.732399,
    "lon": -86.1688995
  },
  {
    "street": "East Market Street",
    "housenumber": "120",
    "city": "Indianapolis",
    "postcode": "46204",
    "lat": 39.7688244,
    "lon": -86.1555805
  },
  {
    "street": "Ferguson Street",
    "housenumber": "6407",
    "city": "Indianapolis",
    "postcode": "46220",
    "lat": 39.8728555,
    "lon": -86.1434044
  },
  {
    "street": "North College Avenue",
    "housenumber": "4601",
    "city": "Indianapolis",
    "postcode": "46205",
    "lat": 39.8398038,
    "lon": -86.1447614
  },
  {
    "street": "Georgetown Road",
    "housenumber": "7301",
    "city": "Indianapolis",
    "lat": 39.8871342,
    "lon": -86.2418353
  },
  {
    "street": "Porto Alegre Street",
    "housenumber": "405",
    "city": "Indianapolis",
    "postcode": "46202",
    "lat": 39.7736974,
    "lon": -86.1848907
  },
  {
    "street": "US-31",
    "housenumber": "8265",
    "city": "Indianapolis",
    "lat": 39.6457319,
    "lon": -86.1326166
  },
  {
    "street": "East Washington Street",
    "housenumber": "48",
    "city": "Indianapolis",
    "postcode": "46204",
    "lat": 39.7672754,
    "lon": -86.1564804
  },
  {
    "street": "South Illinois Street",
    "housenumber": "127",
    "city": "Indianapolis",
    "postcode": "46225",
    "lat": 39.7648797,
    "lon": -86.159713
  },
  {
    "street": "Broad Ripple Avenue",
    "housenumber": "1056",
    "city": "Indianapolis",
    "postcode": "46220",
    "lat": 39.8700484,
    "lon": -86.1396807
  },
  {
    "street": "Keystone Crossing Boulevard",
    "housenumber": "8702",
    "city": "Indianapolis",
    "postcode": "46240",
    "lat": 39.9136706,
    "lon": -86.1086051
  },
  {
    "street": "East 82nd Street",
    "housenumber": "4036",
    "city": "Indianapolis",
    "postcode": "46250",
    "lat": 39.908422,
    "lon": -86.0962816
  },
  {
    "street": "West Vermont Street",
    "housenumber": "1004",
    "city": "Indianapolis",
    "postcode": "46202",
    "lat": 39.7735694,
    "lon": -86.1776567
  },
  {
    "street": "North Capitol Avenue",
    "housenumber": "433",
    "city": "Indianapolis",
    "postcode": "46204",
    "lat": 39.7737435,
    "lon": -86.1611436
  },
  {
    "street": "West Michigan Street",
    "housenumber": "227",
    "city": "Indianapolis",
    "postcode": "46204",
    "lat": 39.7740543,
    "lon": -86.1623753
  },
  {
    "street": "East 38th Street",
    "housenumber": "19",
    "city": "Indianapolis",
    "postcode": "46205",
    "lat": 39.8246013,
    "lon": -86.1562177
  },
  {
    "street": "East 38th Street",
    "housenumber": "23",
    "city": "Indianapolis",
    "postcode": "46205",
    "lat": 39.824609,
    "lon": -86.1559568
  },
  {
    "street": "North College Avenue",
    "housenumber": "4340",
    "city": "Indianapolis",
    "postcode": "46205",
    "lat": 39.8350096,
    "lon": -86.1454376
  },
  {
    "street": "North College Avenue",
    "housenumber": "4842",
    "city": "Indianapolis",
    "postcode": "46205",
    "lat": 39.8426758,
    "lon": -86.1459182
  },
  {
    "street": "North College Avenue",
    "housenumber": "4601",
    "city": "Indianapolis",
    "postcode": "46205",
    "lat": 39.8398012,
    "lon": -86.1448583
  },
  {
    "street": "East 46th Street",
    "housenumber": "710",
    "city": "Indianapolis",
    "postcode": "46205",
    "lat": 39.8398063,
    "lon": -86.1445713
  },
  {
    "street": "East 46th Street",
    "housenumber": "704",
    "city": "Indianapolis",
    "postcode": "46205",
    "lat": 39.8398053,
    "lon": -86.1446558
  },
  {
    "street": "North College Avenue",
    "housenumber": "4601",
    "city": "Indianapolis",
    "postcode": "46205",
    "lat": 39.8398012,
    "lon": -86.1449575
  },
  {
    "street": "North College Avenue",
    "housenumber": "5208",
    "city": "Indianapolis",
    "postcode": "46220",
    "lat": 39.8471763,
    "lon": -86.1460317
  },
  {
    "street": "East 54th Street",
    "housenumber": "651",
    "city": "Indianapolis",
    "postcode": "46220",
    "lat": 39.8508881,
    "lon": -86.1463811
  },
  {
    "street": "North College Avenue",
    "housenumber": "5404",
    "city": "Indianapolis",
    "postcode": "46220",
    "lat": 39.8512018,
    "lon": -86.1460663
  },
  {
    "street": "Broad Ripple Avenue",
    "housenumber": "715",
    "city": "Indianapolis",
    "postcode": "46220",
    "lat": 39.8695461,
    "lon": -86.14564
  },
  {
    "street": "Broad Ripple Avenue",
    "housenumber": "723",
    "city": "Indianapolis",
    "postcode": "46220",
    "lat": 39.8695507,
    "lon": -86.1454791
  },
  {
    "street": "Broad Ripple Avenue",
    "housenumber": "723",
    "city": "Indianapolis",
    "postcode": "46220",
    "lat": 39.8694761,
    "lon": -86.1455508
  },
  {
    "street": "North College Avenue",
    "housenumber": "6283",
    "city": "Indianapolis",
    "postcode": "46220",
    "lat": 39.8693948,
    "lon": -86.1458847
  },
  {
    "street": "North College Avenue",
    "housenumber": "6253",
    "city": "Indianapolis",
    "postcode": "46220",
    "lat": 39.8690376,
    "lon": -86.14588
  },
  {
    "street": "North College Avenue",
    "housenumber": "6249",
    "city": "Indianapolis",
    "postcode": "46220",
    "lat": 39.8689321,
    "lon": -86.1458767
  },
  {
    "street": "North College Avenue",
    "housenumber": "6247",
    "city": "Indianapolis",
    "postcode": "46220",
    "lat": 39.8688868,
    "lon": -86.145876
  },
  {
    "street": "North College Avenue",
    "housenumber": "6243",
    "city": "Indianapolis",
    "postcode": "46220",
    "lat": 39.8687828,
    "lon": -86.1458727
  },
  {
    "street": "East 96th Street",
    "housenumber": "4181",
    "city": "Indianapolis",
    "lat": 39.9260454,
    "lon": -86.0938051
  },
  {
    "street": "North College Avenue",
    "housenumber": "6280",
    "city": "Indianapolis",
    "postcode": "46220",
    "lat": 39.8688559,
    "lon": -86.1463306
  },
  {
    "street": "North College Avenue",
    "housenumber": "6280",
    "city": "Indianapolis",
    "postcode": "46220",
    "lat": 39.868884,
    "lon": -86.146373
  },
  {
    "street": "North College Avenue",
    "housenumber": "6280",
    "city": "Indianapolis",
    "postcode": "46220",
    "lat": 39.868921,
    "lon": -86.1463335
  },
  {
    "street": "North College Avenue",
    "housenumber": "6280",
    "city": "Indianapolis",
    "lat": 39.869535,
    "lon": -86.1463388
  },
  {
    "street": "North College Avenue",
    "housenumber": "6280",
    "city": "Indianapolis",
    "postcode": "46220",
    "lat": 39.8694362,
    "lon": -86.1463382
  },
  {
    "street": "North College Avenue",
    "housenumber": "6280",
    "city": "Indianapolis",
    "postcode": "46220",
    "lat": 39.8692448,
    "lon": -86.1463348
  },
  {
    "street": "North College Avenue",
    "housenumber": "6280",
    "city": "Indianapolis",
    "postcode": "46220",
    "lat": 39.8691995,
    "lon": -86.1463341
  },
  {
    "street": "North College Avenue",
    "housenumber": "6280",
    "city": "Indianapolis",
    "postcode": "46220",
    "lat": 39.8691123,
    "lon": -86.146333
  },
  {
    "street": "North College Avenue",
    "housenumber": "6280",
    "city": "Indianapolis",
    "postcode": "46220",
    "lat": 39.8693233,
    "lon": -86.1463363
  },
  {
    "street": "North College Avenue",
    "housenumber": "6245",
    "city": "Indianapolis",
    "postcode": "46220",
    "lat": 39.8688424,
    "lon": -86.1458757
  },
  {
    "street": "North College Avenue",
    "housenumber": "6281",
    "city": "Indianapolis",
    "postcode": "46220",
    "lat": 39.8693262,
    "lon": -86.145877
  },
  {
    "street": "Broad Ripple Avenue",
    "housenumber": "733",
    "city": "Indianapolis",
    "postcode": "46220",
    "lat": 39.8695623,
    "lon": -86.1453395
  },
  {
    "street": "Broad Ripple Avenue",
    "housenumber": "735",
    "city": "Indianapolis",
    "postcode": "46220",
    "lat": 39.8695513,
    "lon": -86.1452825
  },
  {
    "street": "Broad Ripple Avenue",
    "housenumber": "737",
    "city": "Indianapolis",
    "postcode": "46220",
    "lat": 39.8695639,
    "lon": -86.1452205
  },
  {
    "street": "Broad Ripple Avenue",
    "housenumber": "739",
    "city": "Indianapolis",
    "postcode": "46220",
    "lat": 39.8695544,
    "lon": -86.1451705
  },
  {
    "street": "Broad Ripple Avenue",
    "housenumber": "741",
    "city": "Indianapolis",
    "postcode": "46220",
    "lat": 39.8695629,
    "lon": -86.1451018
  },
  {
    "street": "Broad Ripple Avenue",
    "housenumber": "743",
    "city": "Indianapolis",
    "postcode": "46220",
    "lat": 39.8695529,
    "lon": -86.1450408
  },
  {
    "street": "North College Avenue",
    "housenumber": "6225",
    "city": "Indianapolis",
    "postcode": "46220",
    "lat": 39.8743161,
    "lon": -86.1457248
  },
  {
    "street": "North College Avenue",
    "housenumber": "6513",
    "city": "Indianapolis",
    "postcode": "46220",
    "lat": 39.8742224,
    "lon": -86.1454157
  },
  {
    "street": "North College Avenue",
    "housenumber": "6515",
    "city": "Indianapolis",
    "postcode": "46220",
    "lat": 39.874314,
    "lon": -86.1455109
  },
  {
    "street": "North College Avenue",
    "housenumber": "6507",
    "city": "Indianapolis",
    "postcode": "46220",
    "lat": 39.8739806,
    "lon": -86.1454157
  },
  {
    "street": "North College Avenue",
    "housenumber": "6509",
    "city": "Indianapolis",
    "postcode": "46220",
    "lat": 39.8740562,
    "lon": -86.145417
  },
  {
    "street": "North College Avenue",
    "housenumber": "6509",
    "city": "Indianapolis",
    "postcode": "46220",
    "lat": 39.8741442,
    "lon": -86.145417
  },
  {
    "street": "Shore Drive",
    "housenumber": "4141",
    "city": "Indianapolis",
    "postcode": "46254",
    "lat": 39.8299753,
    "lon": -86.2773855
  },
  {
    "street": "North College Avenue",
    "housenumber": "6370",
    "city": "Indianapolis",
    "postcode": "46220",
    "lat": 39.87206,
    "lon": -86.1464551
  },
  {
    "street": "North College Avenue",
    "housenumber": "6434",
    "city": "Indianapolis",
    "postcode": "46220",
    "lat": 39.8736151,
    "lon": -86.1467745
  },
  {
    "street": "North College Avenue",
    "housenumber": "6434",
    "city": "Indianapolis",
    "postcode": "46220",
    "lat": 39.8738158,
    "lon": -86.1467805
  },
  {
    "street": "North College Avenue",
    "housenumber": "6434",
    "city": "Indianapolis",
    "postcode": "46220",
    "lat": 39.8737262,
    "lon": -86.1467785
  },
  {
    "street": "North College Avenue",
    "housenumber": "6434",
    "city": "Indianapolis",
    "postcode": "46220",
    "lat": 39.8734967,
    "lon": -86.1467772
  },
  {
    "street": "North College Avenue",
    "housenumber": "6434",
    "city": "Indianapolis",
    "postcode": "46220",
    "lat": 39.8734072,
    "lon": -86.1467772
  },
  {
    "street": "Broad Ripple Avenue",
    "housenumber": "1062",
    "city": "Indianapolis",
    "postcode": "46220",
    "lat": 39.8700505,
    "lon": -86.1395376
  },
  {
    "street": "West 16th Street",
    "housenumber": "2901",
    "city": "Indianapolis",
    "postcode": "46222",
    "lat": 39.7877114,
    "lon": -86.2075481
  },
  {
    "street": "North Capitol Avenue",
    "housenumber": "2959",
    "city": "Indianapolis",
    "postcode": "46208",
    "lat": 39.8099438,
    "lon": -86.1612736
  },
  {
    "street": "Broad Ripple Avenue",
    "housenumber": "840",
    "city": "Indianapolis",
    "postcode": "46220",
    "lat": 39.8698583,
    "lon": -86.1434956
  },
  {
    "street": "East 82nd Street",
    "housenumber": "5929",
    "city": "Indianapolis",
    "postcode": "46250",
    "lat": 39.9046614,
    "lon": -86.0661649
  },
  {
    "street": "West Washington Street",
    "housenumber": "7050",
    "city": "Indianapolis",
    "postcode": "46241",
    "lat": 39.7423383,
    "lon": -86.2858316
  },
  {
    "street": "West 86th Street",
    "housenumber": "6010",
    "city": "Indianapolis",
    "postcode": "46278",
    "lat": 39.9130567,
    "lon": -86.2651942
  },
  {
    "street": "East 71st Street",
    "housenumber": "5925",
    "city": "Indianapolis",
    "postcode": "46220",
    "lat": 39.8826953,
    "lon": -86.066366
  },
  {
    "street": "North Illinois Street",
    "housenumber": "5560",
    "city": "Indianapolis",
    "postcode": "46208",
    "lat": 39.8538311,
    "lon": -86.1596823
  },
  {
    "street": "East 75th Street",
    "housenumber": "6330",
    "city": "Indianapolis",
    "postcode": "46250",
    "lat": 39.8931222,
    "lon": -86.0587566
  },
  {
    "street": "East Michigan Street",
    "housenumber": "239",
    "city": "Indianapolis",
    "postcode": "46204",
    "lat": 39.7738397,
    "lon": -86.1528365
  },
  {
    "street": "East Michigan Street",
    "housenumber": "234",
    "city": "Indianapolis",
    "postcode": "46204",
    "lat": 39.7741269,
    "lon": -86.1531925
  },
  {
    "street": "North Meridian Street",
    "housenumber": "9431",
    "city": "Indianapolis",
    "postcode": "46260",
    "lat": 39.925096,
    "lon": -86.1560895
  },
  {
    "street": "Col H. Weir Cook Memorial Drive",
    "housenumber": "7800",
    "city": "Indianapolis",
    "postcode": "46241",
    "lat": 39.7151268,
    "lon": -86.2972046
  },
  {
    "street": "Col H. Weir Cook Memorial Drive",
    "housenumber": "7800",
    "city": "Indianapolis",
    "postcode": "46241",
    "lat": 39.7176893,
    "lon": -86.2968356
  },
  {
    "street": "North Shadeland Avenue",
    "housenumber": "6810",
    "city": "Indianapolis",
    "postcode": "46220",
    "lat": 39.8804364,
    "lon": -86.0465457
  },
  {
    "street": "East 82nd Street",
    "housenumber": "4335",
    "city": "Indianapolis",
    "postcode": "46250",
    "lat": 39.9061335,
    "lon": -86.0936733
  },
  {
    "street": "Kentucky Avenue",
    "housenumber": "545",
    "city": "Indianapolis",
    "postcode": "46225",
    "lat": 39.7593916,
    "lon": -86.1699788
  },
  {
    "street": "East Ohio Street",
    "housenumber": "1",
    "city": "Indianapolis",
    "postcode": "46204",
    "lat": 39.7695661,
    "lon": -86.1568455
  },
  {
    "street": "North Pennsylvania Street",
    "housenumber": "429",
    "city": "Indianapolis",
    "postcode": "46204",
    "lat": 39.7734492,
    "lon": -86.1556347
  },
  {
    "street": "North Pennsylvania Street",
    "housenumber": "429",
    "city": "Indianapolis",
    "postcode": "46204",
    "lat": 39.773509,
    "lon": -86.1557148
  },
  {
    "street": "West Ohio Street",
    "housenumber": "101",
    "city": "Indianapolis",
    "postcode": "46204",
    "lat": 39.7696401,
    "lon": -86.160189
  },
  {
    "street": "Michigan Road",
    "housenumber": "8404",
    "city": "Indianapolis",
    "postcode": "46268",
    "lat": 39.9072381,
    "lon": -86.2220443
  },
  {
    "street": "Michigan Road",
    "housenumber": "8350",
    "city": "Indianapolis",
    "postcode": "46268",
    "lat": 39.9069724,
    "lon": -86.2220233
  },
  {
    "street": "Dorman Street",
    "housenumber": "414",
    "city": "Indianapolis",
    "postcode": "46202",
    "lat": 39.7726614,
    "lon": -86.1384222
  },
  {
    "street": "East Washington Street",
    "housenumber": "2102",
    "city": "Indianapolis",
    "postcode": "46201",
    "lat": 39.7678334,
    "lon": -86.125251
  },
  {
    "street": "East Washington Street",
    "housenumber": "2104",
    "city": "Indianapolis",
    "postcode": "46201",
    "lat": 39.767854,
    "lon": -86.1250394
  },
  {
    "street": "South Illinois Street",
    "housenumber": "350",
    "city": "Indianapolis",
    "postcode": "46225",
    "lat": 39.7623048,
    "lon": -86.1596319
  },
  {
    "street": "East 82nd Street",
    "housenumber": "5151",
    "city": "Indianapolis",
    "postcode": "46250",
    "lat": 39.9039171,
    "lon": -86.0825349
  },
  {
    "street": "Marcy Lane",
    "housenumber": "4565",
    "city": "Indianapolis",
    "postcode": "46205",
    "lat": 39.8399903,
    "lon": -86.133942
  },
  {
    "street": "Marcy Lane",
    "housenumber": "4565",
    "city": "Indianapolis",
    "postcode": "46205",
    "lat": 39.8399965,
    "lon": -86.1342164
  },
  {
    "street": "Westfield Boulevard",
    "housenumber": "8512",
    "city": "Indianapolis",
    "postcode": "46240",
    "lat": 39.9114948,
    "lon": -86.1346246
  },
  {
    "street": "Westfield Boulevard",
    "housenumber": "8450",
    "city": "Indianapolis",
    "postcode": "46240",
    "lat": 39.9101197,
    "lon": -86.1350369
  },
  {
    "street": "East 86th Street",
    "housenumber": "1484",
    "city": "Indianapolis",
    "postcode": "46240",
    "lat": 39.9139344,
    "lon": -86.1344772
  },
  {
    "street": "Westfield Boulevard",
    "housenumber": "8512",
    "city": "Indianapolis",
    "postcode": "46240",
    "lat": 39.9115108,
    "lon": -86.1348786
  },
  {
    "street": "Massachusetts Avenue",
    "housenumber": "717",
    "city": "Indianapolis",
    "postcode": "46204",
    "lat": 39.7766098,
    "lon": -86.1465113
  },
  {
    "street": "North Delaware Street",
    "housenumber": "2205",
    "city": "Indianapolis",
    "postcode": "46205",
    "lat": 39.7979872,
    "lon": -86.1531396
  },
  {
    "street": "Keystone Crossing Boulevard",
    "housenumber": "8900",
    "city": "Indianapolis",
    "postcode": "46240",
    "lat": 39.9170777,
    "lon": -86.1110464
  },
  {
    "street": "S Meridian St",
    "housenumber": "11",
    "city": "Indianapolis",
    "lat": 39.7666984,
    "lon": -86.1579204
  },
  {
    "street": "West Georgia Street",
    "housenumber": "1001 #101",
    "city": "Indianapolis",
    "lat": 39.7641072,
    "lon": -86.1588699
  },
  {
    "street": "Fort Wayne Avenue",
    "housenumber": "621",
    "city": "Indianapolis",
    "lat": 39.7759344,
    "lon": -86.1550361
  },
  {
    "street": "West Washington Street",
    "housenumber": "225",
    "city": "Indianapolis",
    "postcode": "46204",
    "lat": 39.7669316,
    "lon": -86.1619915
  },
  {
    "street": "Massachusetts Avenue",
    "housenumber": "610",
    "city": "Indianapolis",
    "lat": 39.7758331,
    "lon": -86.1482219
  },
  {
    "street": "East Washington Street",
    "housenumber": "6411",
    "city": "Indianapolis",
    "postcode": "46219",
    "lat": 39.7706731,
    "lon": -86.0571163
  },
  {
    "street": "Monument Circle",
    "housenumber": "55",
    "city": "Indianapolis",
    "postcode": "46204",
    "lat": 39.7682322,
    "lon": -86.1570199
  },
  {
    "street": "Bradston Way",
    "housenumber": "5810",
    "city": "Indianapolis",
    "postcode": "46237",
    "lat": 39.6833294,
    "lon": -86.0665862
  },
  {
    "street": "East 38th Street",
    "housenumber": "8902",
    "city": "Indianapolis",
    "postcode": "46226",
    "lat": 39.827656,
    "lon": -86.0114092
  },
  {
    "street": "North Capitol Avenue",
    "housenumber": "1633",
    "city": "Indianapolis",
    "postcode": "46202",
    "lat": 39.7892941,
    "lon": -86.1612151
  },
  {
    "street": "Emerson Way",
    "housenumber": "5395",
    "city": "Indianapolis",
    "postcode": "46226",
    "lat": 39.8513916,
    "lon": -86.083039
  },
  {
    "street": "Rockville Road",
    "housenumber": "9030",
    "city": "Indianapolis",
    "postcode": "46234",
    "lat": 39.7653767,
    "lon": -86.3220885
  },
  {
    "street": "East 30th Street",
    "housenumber": "6701",
    "city": "Indianapolis",
    "postcode": "46219",
    "lat": 39.8106232,
    "lon": -86.0510846
  },
  {
    "street": "East 30th Street",
    "housenumber": "6555",
    "city": "Indianapolis",
    "postcode": "46219",
    "lat": 39.8104011,
    "lon": -86.0543408
  },
  {
    "street": "North Mitthoeffer Road",
    "housenumber": "3308",
    "city": "Indianapolis",
    "postcode": "46235",
    "lat": 39.816488,
    "lon": -85.9920713
  },
  {
    "street": "North Pennsylvania Street",
    "housenumber": "4901",
    "city": "Indianapolis",
    "postcode": "46205",
    "lat": 39.8428021,
    "lon": -86.1544302
  },
  {
    "street": "West 10th Street",
    "housenumber": "710",
    "city": "Indianapolis",
    "postcode": "46202",
    "lat": 39.7812197,
    "lon": -86.1709884
  },
  {
    "street": "E 16th St",
    "housenumber": "1101",
    "city": "Indianapolis",
    "postcode": "46202",
    "lat": 39.788229,
    "lon": -86.1395324
  },
  {
    "street": "West 10th Street",
    "housenumber": "212",
    "city": "Indianapolis",
    "postcode": "46202",
    "lat": 39.7821263,
    "lon": -86.1618069
  },
  {
    "street": "East 33rd Street",
    "housenumber": "8735",
    "city": "Indianapolis",
    "lat": 39.8139077,
    "lon": -86.0146782
  },
  {
    "street": "Shelby Street",
    "housenumber": "1845",
    "city": "Indianapolis",
    "postcode": "46203",
    "lat": 39.7426791,
    "lon": -86.1395294
  },
  {
    "street": "East Washington Street",
    "housenumber": "5543",
    "city": "Indianapolis",
    "postcode": "46219",
    "lat": 39.770513,
    "lon": -86.0720757
  },
  {
    "street": "West 10th Street",
    "housenumber": "8255",
    "city": "Indianapolis",
    "postcode": "46214",
    "lat": 39.7783589,
    "lon": -86.3072351
  },
  {
    "street": "Rockville Road",
    "housenumber": "9040",
    "city": "Indianapolis",
    "postcode": "46234",
    "lat": 39.7654068,
    "lon": -86.3226335
  },
  {
    "street": "North Meridian Street",
    "housenumber": "8935",
    "city": "Indianapolis",
    "postcode": "46260",
    "lat": 39.9181474,
    "lon": -86.1571469
  },
  {
    "street": "Twin Aire Drive",
    "housenumber": "680",
    "city": "Indianapolis",
    "postcode": "46203",
    "lat": 39.7577966,
    "lon": -86.1148039
  },
  {
    "street": "Southeastern Avenue",
    "housenumber": "3000",
    "city": "Indianapolis",
    "postcode": "46203-1446",
    "lat": 39.7589023,
    "lon": -86.1147207
  },
  {
    "street": "Kentucky Avenue",
    "housenumber": "4883",
    "city": "Indianapolis",
    "postcode": "46221-3533",
    "lat": 39.6951235,
    "lon": -86.2678821
  },
  {
    "street": "East Washington Street",
    "housenumber": "10520",
    "city": "Indianapolis",
    "postcode": "46229",
    "lat": 39.7757703,
    "lon": -85.9793028
  },
  {
    "street": "South East Street",
    "housenumber": "1104",
    "city": "Indianapolis",
    "postcode": "46225",
    "lat": 39.7520424,
    "lon": -86.150132
  },
  {
    "street": "South Emerson Avenue",
    "housenumber": "4967",
    "city": "Indianapolis",
    "postcode": "46203",
    "lat": 39.6951589,
    "lon": -86.0812584
  },
  {
    "street": "Castle Creek Parkway North Drive",
    "housenumber": "5645",
    "city": "Indianapolis",
    "postcode": "46250",
    "lat": 39.9148635,
    "lon": -86.0715408
  },
  {
    "street": "East 46th Street",
    "housenumber": "2019",
    "city": "Indianapolis",
    "postcode": "46205",
    "lat": 39.8400342,
    "lon": -86.1269664
  },
  {
    "street": "Kentucky Avenue",
    "housenumber": "3473",
    "city": "Indianapolis",
    "postcode": "46221",
    "lat": 39.713534,
    "lon": -86.236474
  },
  {
    "street": "Kentucky Avenue",
    "housenumber": "3361",
    "city": "Indianapolis",
    "postcode": "46221",
    "lat": 39.7145415,
    "lon": -86.2352253
  },
  {
    "street": "Keystone Crossing Boulevard",
    "housenumber": "8505",
    "city": "Indianapolis",
    "postcode": "46240",
    "lat": 39.9108555,
    "lon": -86.1098579
  },
  {
    "street": "Prospect Street",
    "housenumber": "2401",
    "city": "Indianapolis",
    "postcode": "46203",
    "lat": 39.7522223,
    "lon": -86.1209504
  },
  {
    "street": "Prospect Street",
    "housenumber": "2355",
    "city": "Indianapolis",
    "postcode": "46203",
    "lat": 39.7522047,
    "lon": -86.1213461
  },
  {
    "street": "South Keystone Avenue",
    "housenumber": "1035",
    "city": "Indianapolis",
    "postcode": "46203",
    "lat": 39.7530347,
    "lon": -86.1206956
  },
  {
    "street": "Prospect Street",
    "housenumber": "2226",
    "city": "Indianapolis",
    "postcode": "46203",
    "lat": 39.7526329,
    "lon": -86.123732
  },
  {
    "street": "Prospect Street",
    "housenumber": "2211",
    "city": "Indianapolis",
    "postcode": "46203",
    "lat": 39.7522504,
    "lon": -86.1237188
  },
  {
    "street": "Prospect Street",
    "housenumber": "2355",
    "city": "Indianapolis",
    "postcode": "46203",
    "lat": 39.7521431,
    "lon": -86.1215778
  },
  {
    "street": "West Jackson Place",
    "housenumber": "39",
    "city": "Indianapolis",
    "postcode": "46225",
    "lat": 39.7624461,
    "lon": -86.1601979
  },
  {
    "street": "North Illinois Street",
    "housenumber": "5640",
    "city": "Indianapolis",
    "postcode": "46208",
    "lat": 39.8550438,
    "lon": -86.1617382
  },
  {
    "street": "West 71st Street",
    "housenumber": "5025",
    "city": "Indianapolis",
    "postcode": "46268",
    "lat": 39.8807115,
    "lon": -86.2460514
  },
  {
    "street": "East 82nd Street",
    "housenumber": "6336",
    "city": "Indianapolis",
    "postcode": "46250",
    "lat": 39.9074074,
    "lon": -86.0597743
  },
  {
    "street": "East 82nd Street",
    "housenumber": "6388",
    "city": "Indianapolis",
    "postcode": "46250",
    "lat": 39.9073766,
    "lon": -86.0582769
  },
  {
    "street": "East 82nd Street",
    "housenumber": "6386",
    "city": "Indianapolis",
    "postcode": "46250",
    "lat": 39.907197,
    "lon": -86.0584895
  },
  {
    "street": "East 82nd Street",
    "housenumber": "6304",
    "city": "Indianapolis",
    "postcode": "46250",
    "lat": 39.9064313,
    "lon": -86.059762
  },
  {
    "street": "North Illinois Street",
    "housenumber": "5601",
    "city": "Veranda Village Shoppes",
    "postcode": "46208",
    "lat": 39.8542184,
    "lon": -86.1593303
  },
  {
    "street": "West Washington Street",
    "housenumber": "5331",
    "city": "Indianapolis",
    "postcode": "46241-2122",
    "lat": 39.7518247,
    "lon": -86.2512584
  },
  {
    "street": "Rockville Road",
    "housenumber": "5389",
    "city": "Indianapolis",
    "postcode": "46224",
    "lat": 39.7647005,
    "lon": -86.2527644
  },
  {
    "street": "East Washington Street",
    "housenumber": "3737",
    "city": "Indianapolis",
    "postcode": "46201",
    "lat": 39.7686123,
    "lon": -86.104111
  },
  {
    "street": "East Washington Street",
    "housenumber": "1640",
    "city": "Indianapolis",
    "postcode": "46201",
    "lat": 39.7676338,
    "lon": -86.1310039
  },
  {
    "street": "East 10th Street",
    "housenumber": "4401",
    "city": "Indianapolis",
    "postcode": "46201",
    "lat": 39.7800631,
    "lon": -86.0950957
  },
  {
    "street": "East 10th Street",
    "housenumber": "4445",
    "city": "Indianapolis",
    "postcode": "46201",
    "lat": 39.7793464,
    "lon": -86.0936415
  },
  {
    "street": "West Washington Street",
    "housenumber": "1404",
    "city": "Indianapolis",
    "postcode": "46222",
    "lat": 39.7676808,
    "lon": -86.1857827
  },
  {
    "street": "Masters Road",
    "housenumber": "9540",
    "city": "Indianapolis",
    "postcode": "46250",
    "lat": 39.9265091,
    "lon": -86.0470854
  },
  {
    "street": "South Sherman Drive",
    "housenumber": "507",
    "city": "Indianapolis",
    "postcode": "46201",
    "lat": 39.7598473,
    "lon": -86.1017292
  },
  {
    "street": "West Michigan Street",
    "housenumber": "2630",
    "city": "Indianapolis",
    "postcode": "46222",
    "lat": 39.7755491,
    "lon": -86.2046451
  },
  {
    "street": "North New Jersey Street",
    "housenumber": "585",
    "city": "Indianapolis",
    "postcode": "46204",
    "lat": 39.7751648,
    "lon": -86.1503833
  },
  {
    "street": "Massachusetts Avenue",
    "housenumber": "748",
    "city": "Indianapolis",
    "postcode": "46204",
    "lat": 39.7773119,
    "lon": -86.1460716
  },
  {
    "street": "East 96th Street",
    "housenumber": "8141",
    "city": "Indianapolis",
    "postcode": "46256",
    "lat": 39.9247717,
    "lon": -86.0241973
  },
  {
    "street": "Corporation Drive",
    "housenumber": "9533",
    "city": "Indianapolis",
    "postcode": "46256-1033",
    "lat": 39.9266082,
    "lon": -86.0325902
  },
  {
    "street": "Massachusetts Avenue",
    "housenumber": "873",
    "city": "Indianapolis",
    "lat": 39.7792277,
    "lon": -86.1426312
  },
  {
    "street": "East 52nd Street",
    "housenumber": "653",
    "city": "Indianapolis",
    "lat": 39.8468348,
    "lon": -86.146165
  },
  {
    "street": "Virginia Avenue",
    "housenumber": "1042",
    "city": "Indianapolis",
    "lat": 39.7530141,
    "lon": -86.1405504
  },
  {
    "street": "South College Avenue",
    "housenumber": "401",
    "city": "Indianapolis",
    "lat": 39.7607568,
    "lon": -86.1457083
  },
  {
    "street": "Lafayette Road",
    "housenumber": "5510",
    "city": "Indianapolis",
    "lat": 39.8515089,
    "lon": -86.263064
  },
  {
    "street": "West 10th Street",
    "housenumber": "7270",
    "city": "Indianapolis",
    "postcode": "46214",
    "lat": 39.7795053,
    "lon": -86.2887605
  },
  {
    "street": "West 10th Street",
    "housenumber": "7270",
    "city": "Indianapolis",
    "postcode": "46214",
    "lat": 39.7796843,
    "lon": -86.2887851
  },
  {
    "street": "Oxford Lane",
    "housenumber": "2811",
    "city": "Indianapolis",
    "postcode": "46218",
    "lat": 39.8037119,
    "lon": -86.1165573
  },
  {
    "street": "Oxford Lane",
    "housenumber": "2821",
    "city": "Indianapolis",
    "postcode": "46218",
    "lat": 39.8037106,
    "lon": -86.1164717
  },
  {
    "street": "Oxford Lane",
    "housenumber": "2825",
    "city": "Indianapolis",
    "postcode": "46218",
    "lat": 39.8037126,
    "lon": -86.1163884
  },
  {
    "street": "Oxford Lane",
    "housenumber": "2835",
    "city": "Indianapolis",
    "postcode": "46218",
    "lat": 39.8037129,
    "lon": -86.1162919
  },
  {
    "street": "Oxford Lane",
    "housenumber": "2845",
    "city": "Indianapolis",
    "postcode": "46218",
    "lat": 39.8036409,
    "lon": -86.1161181
  },
  {
    "street": "Oxford Lane",
    "housenumber": "2855",
    "city": "Indianapolis",
    "postcode": "46218",
    "lat": 39.8036463,
    "lon": -86.1160282
  },
  {
    "street": "Oxford Lane",
    "housenumber": "2859",
    "city": "Indianapolis",
    "postcode": "46218",
    "lat": 39.8036449,
    "lon": -86.1159601
  },
  {
    "street": "Oxford Lane",
    "housenumber": "2869",
    "city": "Indianapolis",
    "postcode": "46218",
    "lat": 39.8036435,
    "lon": -86.1158658
  },
  {
    "street": "Oxford Lane",
    "housenumber": "2820",
    "city": "Indianapolis",
    "postcode": "46218",
    "lat": 39.8041471,
    "lon": -86.1164812
  },
  {
    "street": "Oxford Lane",
    "housenumber": "2824",
    "city": "Indianapolis",
    "postcode": "46218",
    "lat": 39.8041492,
    "lon": -86.1163825
  },
  {
    "street": "Oxford Lane",
    "housenumber": "2834",
    "city": "Indianapolis",
    "postcode": "46218",
    "lat": 39.8041512,
    "lon": -86.1162947
  },
  {
    "street": "Oxford Lane",
    "housenumber": "2844",
    "city": "Indianapolis",
    "postcode": "46218",
    "lat": 39.8041212,
    "lon": -86.1161717
  },
  {
    "street": "Oxford Lane",
    "housenumber": "2854",
    "city": "Indianapolis",
    "postcode": "46218",
    "lat": 39.8041249,
    "lon": -86.1160861
  },
  {
    "street": "Oxford Lane",
    "housenumber": "2858",
    "city": "Indianapolis",
    "postcode": "46218",
    "lat": 39.8041253,
    "lon": -86.1159918
  },
  {
    "street": "Oxford Lane",
    "housenumber": "2868",
    "city": "Indianapolis",
    "postcode": "46218",
    "lat": 39.8041273,
    "lon": -86.115904
  },
  {
    "street": "Oxford Lane",
    "housenumber": "2912",
    "city": "Indianapolis",
    "postcode": "46218",
    "lat": 39.8041751,
    "lon": -86.115369
  },
  {
    "street": "Oxford Lane",
    "housenumber": "2922",
    "city": "Indianapolis",
    "postcode": "46218",
    "lat": 39.8041738,
    "lon": -86.1152703
  },
  {
    "street": "Oxford Lane",
    "housenumber": "2926",
    "city": "Indianapolis",
    "postcode": "46218",
    "lat": 39.804174,
    "lon": -86.1152067
  },
  {
    "street": "Oxford Lane",
    "housenumber": "2936",
    "city": "Indianapolis",
    "postcode": "46218",
    "lat": 39.8041727,
    "lon": -86.1151014
  },
  {
    "street": "Oxford Lane",
    "housenumber": "2911",
    "city": "Indianapolis",
    "postcode": "46218",
    "lat": 39.8036876,
    "lon": -86.1153988
  },
  {
    "street": "Oxford Lane",
    "housenumber": "2921",
    "city": "Indianapolis",
    "postcode": "46218",
    "lat": 39.8036829,
    "lon": -86.1153044
  },
  {
    "street": "Oxford Lane",
    "housenumber": "2925",
    "city": "Indianapolis",
    "postcode": "46218",
    "lat": 39.8036832,
    "lon": -86.1152364
  },
  {
    "street": "Oxford Lane",
    "housenumber": "2935",
    "city": "Indianapolis",
    "postcode": "46218",
    "lat": 39.8036819,
    "lon": -86.1151377
  },
  {
    "street": "Oxford Lane",
    "housenumber": "2945",
    "city": "Indianapolis",
    "postcode": "46218",
    "lat": 39.8036404,
    "lon": -86.1149114
  },
  {
    "street": "Oxford Lane",
    "housenumber": "2955",
    "city": "Indianapolis",
    "postcode": "46218",
    "lat": 39.8036375,
    "lon": -86.1148061
  },
  {
    "street": "Oxford Lane",
    "housenumber": "2959",
    "city": "Indianapolis",
    "postcode": "46218",
    "lat": 39.8036446,
    "lon": -86.1147162
  },
  {
    "street": "Oxford Lane",
    "housenumber": "2969",
    "city": "Indianapolis",
    "postcode": "46218",
    "lat": 39.8036433,
    "lon": -86.1145977
  },
  {
    "street": "Oxford Lane",
    "housenumber": "2946",
    "city": "Indianapolis",
    "postcode": "46218",
    "lat": 39.8041179,
    "lon": -86.1148399
  },
  {
    "street": "Oxford Lane",
    "housenumber": "2956",
    "city": "Indianapolis",
    "postcode": "46218",
    "lat": 39.8041183,
    "lon": -86.11475
  },
  {
    "street": "Oxford Lane",
    "housenumber": "2960",
    "city": "Indianapolis",
    "postcode": "46218",
    "lat": 39.8041186,
    "lon": -86.114671
  },
  {
    "street": "Oxford Lane",
    "housenumber": "2970",
    "city": "Indianapolis",
    "postcode": "46218",
    "lat": 39.8041206,
    "lon": -86.1145832
  },
  {
    "street": "East 56th Street",
    "housenumber": "651",
    "city": "Indianapolis",
    "postcode": "46220",
    "lat": 39.8540566,
    "lon": -86.1463009
  },
  {
    "street": "North Keystone Avenue",
    "housenumber": "5359",
    "city": "Indianapolis",
    "postcode": "46220",
    "lat": 39.8510856,
    "lon": -86.1216282
  },
  {
    "street": "North Keystone Avenue",
    "housenumber": "5367",
    "city": "Indianapolis",
    "postcode": "46220",
    "lat": 39.8511837,
    "lon": -86.1216155
  },
  {
    "street": "North Keystone Avenue",
    "housenumber": "5369",
    "city": "Indianapolis",
    "postcode": "46220",
    "lat": 39.8512634,
    "lon": -86.1216121
  },
  {
    "street": "7th Street",
    "housenumber": "308",
    "city": "Indianapolis",
    "postcode": "46202",
    "lat": 39.7770373,
    "lon": -86.1519893
  },
  {
    "street": "7th Street",
    "housenumber": "312",
    "city": "Indianapolis",
    "postcode": "46202",
    "lat": 39.7770378,
    "lon": -86.1518561
  },
  {
    "street": "7th Street",
    "housenumber": "309",
    "city": "Indianapolis",
    "postcode": "46202",
    "lat": 39.7771027,
    "lon": -86.1518601
  },
  {
    "street": "East Walnut Street",
    "housenumber": "316",
    "city": "Indianapolis",
    "postcode": "46202",
    "lat": 39.7769031,
    "lon": -86.151736
  },
  {
    "street": "East Walnut Street",
    "housenumber": "320",
    "city": "Indianapolis",
    "postcode": "46202",
    "lat": 39.7768057,
    "lon": -86.1517388
  },
  {
    "street": "7th Street",
    "housenumber": "332",
    "city": "Indianapolis",
    "postcode": "46202",
    "lat": 39.7770257,
    "lon": -86.1515195
  },
  {
    "street": "7th Street",
    "housenumber": "336",
    "city": "Indianapolis",
    "postcode": "46202",
    "lat": 39.7770263,
    "lon": -86.1513863
  },
  {
    "street": "East Walnut Street",
    "housenumber": "340",
    "city": "Indianapolis",
    "postcode": "46202",
    "lat": 39.7768023,
    "lon": -86.1512655
  },
  {
    "street": "East Walnut Street",
    "housenumber": "352",
    "city": "Indianapolis",
    "postcode": "46202",
    "lat": 39.7768865,
    "lon": -86.151168
  },
  {
    "street": "7th Street",
    "housenumber": "356",
    "city": "Indianapolis",
    "postcode": "46202",
    "lat": 39.7770196,
    "lon": -86.1510497
  },
  {
    "street": "7th Street",
    "housenumber": "360",
    "city": "Indianapolis",
    "postcode": "46202",
    "lat": 39.7770175,
    "lon": -86.1508989
  },
  {
    "street": "East Walnut Street",
    "housenumber": "712",
    "city": "Indianapolis",
    "postcode": "46202",
    "lat": 39.7768776,
    "lon": -86.1507052
  },
  {
    "street": "East Saint Clair Street",
    "housenumber": "363",
    "city": "Indianapolis",
    "postcode": "46202",
    "lat": 39.777651,
    "lon": -86.1507562
  },
  {
    "street": "East Saint Clair Street",
    "housenumber": "355",
    "city": "Indianapolis",
    "postcode": "46202",
    "lat": 39.7774313,
    "lon": -86.1509018
  },
  {
    "street": "East Saint Clair Street",
    "housenumber": "358",
    "city": "Indianapolis",
    "postcode": "46202",
    "lat": 39.7773718,
    "lon": -86.1509084
  },
  {
    "street": "East Saint Clair Street",
    "housenumber": "348",
    "city": "Indianapolis",
    "postcode": "46202",
    "lat": 39.777374,
    "lon": -86.1510312
  },
  {
    "street": "East Saint Clair Street",
    "housenumber": "347",
    "city": "Indianapolis",
    "postcode": "46202",
    "lat": 39.7775683,
    "lon": -86.1511447
  },
  {
    "street": "East Saint Clair Street",
    "housenumber": "315",
    "city": "Indianapolis",
    "postcode": "46202",
    "lat": 39.7775652,
    "lon": -86.1512393
  },
  {
    "street": "East Saint Clair Street",
    "housenumber": "339",
    "city": "Indianapolis",
    "postcode": "46202",
    "lat": 39.7776626,
    "lon": -86.1512295
  },
  {
    "street": "East Saint Clair Street",
    "housenumber": "331",
    "city": "Indianapolis",
    "postcode": "46202",
    "lat": 39.7774483,
    "lon": -86.1513682
  },
  {
    "street": "East Saint Clair Street",
    "housenumber": "324",
    "city": "Indianapolis",
    "postcode": "46202",
    "lat": 39.7773801,
    "lon": -86.1515009
  },
  {
    "street": "East Saint Clair Street",
    "housenumber": "323",
    "city": "Indianapolis",
    "postcode": "46202",
    "lat": 39.7775744,
    "lon": -86.151618
  },
  {
    "street": "East Saint Clair Street",
    "housenumber": "311",
    "city": "Indianapolis",
    "postcode": "46202",
    "lat": 39.7775767,
    "lon": -86.1517091
  },
  {
    "street": "East Saint Clair Street",
    "housenumber": "303",
    "city": "Indianapolis",
    "postcode": "46202",
    "lat": 39.7774593,
    "lon": -86.1519677
  },
  {
    "street": "East Saint Clair Street",
    "housenumber": "312",
    "city": "Indianapolis",
    "postcode": "46202",
    "lat": 39.7773895,
    "lon": -86.1518375
  },
  {
    "street": "East Saint Clair Street",
    "housenumber": "310",
    "city": "Indianapolis",
    "postcode": "46202",
    "lat": 39.7780441,
    "lon": -86.1518316
  },
  {
    "street": "East Saint Clair Street",
    "housenumber": "314",
    "city": "Indianapolis",
    "postcode": "46202",
    "lat": 39.7781415,
    "lon": -86.1518253
  },
  {
    "street": "East Saint Clair Street",
    "housenumber": "318",
    "city": "Indianapolis",
    "postcode": "46202",
    "lat": 39.7780391,
    "lon": -86.1517474
  },
  {
    "street": "East Arch Street",
    "housenumber": "326",
    "city": "Indianapolis",
    "postcode": "46202",
    "lat": 39.7782885,
    "lon": -86.151623
  },
  {
    "street": "East Arch Street",
    "housenumber": "330",
    "city": "Indianapolis",
    "postcode": "46202",
    "lat": 39.7782836,
    "lon": -86.1514968
  },
  {
    "street": "East Saint Clair Street",
    "housenumber": "334",
    "city": "Indianapolis",
    "postcode": "46202",
    "lat": 39.7781298,
    "lon": -86.1513905
  },
  {
    "street": "East Saint Clair Street",
    "housenumber": "338",
    "city": "Indianapolis",
    "postcode": "46202",
    "lat": 39.7780325,
    "lon": -86.1513933
  },
  {
    "street": "East Saint Clair Street",
    "housenumber": "342",
    "city": "Indianapolis",
    "postcode": "46202",
    "lat": 39.7780328,
    "lon": -86.1513022
  },
  {
    "street": "East Arch Street",
    "housenumber": "347",
    "city": "Indianapolis",
    "postcode": "46202",
    "lat": 39.7783471,
    "lon": -86.1511782
  },
  {
    "street": "East Saint Clair Street",
    "housenumber": "362",
    "city": "Indianapolis",
    "postcode": "46202",
    "lat": 39.7780262,
    "lon": -86.1509586
  },
  {
    "street": "East Saint Clair Street",
    "housenumber": "366",
    "city": "Indianapolis",
    "postcode": "46202",
    "lat": 39.7780238,
    "lon": -86.1508674
  },
  {
    "street": "East Arch Street",
    "housenumber": "374",
    "city": "Indianapolis",
    "postcode": "46202",
    "lat": 39.7782651,
    "lon": -86.1507464
  },
  {
    "street": "East Arch Street",
    "housenumber": "383",
    "city": "Indianapolis",
    "postcode": "46202",
    "lat": 39.7783305,
    "lon": -86.1506172
  },
  {
    "street": "East Saint Clair Street",
    "housenumber": "409",
    "city": "Indianapolis",
    "postcode": "46202",
    "lat": 39.7780593,
    "lon": -86.150135
  },
  {
    "street": "East Saint Clair Street",
    "housenumber": "410",
    "city": "Indianapolis",
    "postcode": "46202",
    "lat": 39.7779917,
    "lon": -86.1501416
  },
  {
    "street": "East Arch Street",
    "housenumber": "433",
    "city": "Indianapolis",
    "postcode": "46202",
    "lat": 39.7782062,
    "lon": -86.1499433
  },
  {
    "street": "East Arch Street",
    "housenumber": "427",
    "city": "Indianapolis",
    "postcode": "46202",
    "lat": 39.7783009,
    "lon": -86.1499369
  },
  {
    "street": "East Arch Street",
    "housenumber": "445",
    "city": "Indianapolis",
    "postcode": "46202",
    "lat": 39.7780448,
    "lon": -86.1497213
  },
  {
    "street": "East Arch Street",
    "housenumber": "451",
    "city": "Indianapolis",
    "postcode": "46202",
    "lat": 39.7781914,
    "lon": -86.1496101
  },
  {
    "street": "East Saint Clair Street",
    "housenumber": "475",
    "city": "Indianapolis",
    "postcode": "46202",
    "lat": 39.7780406,
    "lon": -86.1494268
  },
  {
    "street": "East Saint Clair Street",
    "housenumber": "484",
    "city": "Indianapolis",
    "postcode": "46202",
    "lat": 39.7779709,
    "lon": -86.1492931
  },
  {
    "street": "East Arch Street",
    "housenumber": "485",
    "city": "Indianapolis",
    "postcode": "46202",
    "lat": 39.7781904,
    "lon": -86.1491859
  },
  {
    "street": "East Arch Street",
    "housenumber": "493",
    "city": "Indianapolis",
    "postcode": "46202",
    "lat": 39.7782719,
    "lon": -86.1490989
  },
  {
    "street": "East Arch Street",
    "housenumber": "330",
    "city": "Indianapolis",
    "postcode": "46202",
    "lat": 39.7786356,
    "lon": -86.1514011
  },
  {
    "street": "East Arch Street",
    "housenumber": "338",
    "city": "Indianapolis",
    "postcode": "46202",
    "lat": 39.7786281,
    "lon": -86.1512538
  },
  {
    "street": "East Arch Street",
    "housenumber": "350",
    "city": "Indianapolis",
    "postcode": "46202",
    "lat": 39.7786404,
    "lon": -86.1508963
  },
  {
    "street": "East Arch Street",
    "housenumber": "358",
    "city": "Indianapolis",
    "postcode": "46202",
    "lat": 39.77873,
    "lon": -86.1508198
  },
  {
    "street": "East Arch Street",
    "housenumber": "374",
    "city": "Indianapolis",
    "postcode": "46202",
    "lat": 39.7787507,
    "lon": -86.1503958
  },
  {
    "street": "East Arch Street",
    "housenumber": "422",
    "city": "Indianapolis",
    "postcode": "46202",
    "lat": 39.7787577,
    "lon": -86.1500102
  },
  {
    "street": "East Arch Street",
    "housenumber": "416",
    "city": "Indianapolis",
    "postcode": "46202",
    "lat": 39.7786306,
    "lon": -86.1500128
  },
  {
    "street": "East Arch Street",
    "housenumber": "428",
    "city": "Indianapolis",
    "postcode": "46202",
    "lat": 39.7786255,
    "lon": -86.1499252
  },
  {
    "street": "East Arch Street",
    "housenumber": "436",
    "city": "Indianapolis",
    "postcode": "46202",
    "lat": 39.7787325,
    "lon": -86.1495788
  },
  {
    "street": "East Arch Street",
    "housenumber": "456",
    "city": "Indianapolis",
    "postcode": "46202",
    "lat": 39.7786124,
    "lon": -86.1491819
  },
  {
    "street": "North East Street",
    "housenumber": "708",
    "city": "Indianapolis",
    "postcode": "46202",
    "lat": 39.7768197,
    "lon": -86.148888
  },
  {
    "street": "North East Street",
    "housenumber": "712",
    "city": "Indianapolis",
    "postcode": "46202",
    "lat": 39.7769073,
    "lon": -86.1488886
  },
  {
    "street": "North Park Avenue",
    "housenumber": "837",
    "city": "Indianapolis",
    "postcode": "46202",
    "lat": 39.7790674,
    "lon": -86.147577
  },
  {
    "street": "North Park Avenue",
    "housenumber": "839",
    "city": "Indianapolis",
    "postcode": "46202",
    "lat": 39.7791151,
    "lon": -86.1475776
  },
  {
    "street": "North Park Avenue",
    "housenumber": "843",
    "city": "Indianapolis",
    "postcode": "46202",
    "lat": 39.7792237,
    "lon": -86.1475669
  },
  {
    "street": "North Park Avenue",
    "housenumber": "841",
    "city": "Indianapolis",
    "postcode": "46202",
    "lat": 39.7791761,
    "lon": -86.1475671
  },
  {
    "street": "North Park Avenue",
    "housenumber": "851",
    "city": "Indianapolis",
    "postcode": "46202",
    "lat": 39.779419,
    "lon": -86.1475971
  },
  {
    "street": "North Park Avenue",
    "housenumber": "853",
    "city": "Indianapolis",
    "postcode": "46202",
    "lat": 39.7794827,
    "lon": -86.1475976
  },
  {
    "street": "North Park Avenue",
    "housenumber": "857",
    "city": "Indianapolis",
    "postcode": "46202",
    "lat": 39.7795894,
    "lon": -86.1475977
  },
  {
    "street": "North Park Avenue",
    "housenumber": "855",
    "city": "Indianapolis",
    "postcode": "46202",
    "lat": 39.779535,
    "lon": -86.1475979
  },
  {
    "street": "North Park Avenue",
    "housenumber": "861",
    "city": "Indianapolis",
    "postcode": "46202",
    "lat": 39.7797018,
    "lon": -86.1475973
  },
  {
    "street": "North Park Avenue",
    "housenumber": "859",
    "city": "Indianapolis",
    "postcode": "46202",
    "lat": 39.7796337,
    "lon": -86.1475969
  },
  {
    "street": "East Saint Clair Street",
    "housenumber": "646",
    "city": "Indianapolis",
    "postcode": "46202",
    "lat": 39.777855,
    "lon": -86.1463112
  },
  {
    "street": "East Saint Clair Street",
    "housenumber": "648",
    "city": "Indianapolis",
    "postcode": "46202",
    "lat": 39.7778531,
    "lon": -86.1462213
  },
  {
    "street": "North Broadway Street",
    "housenumber": "811",
    "city": "Indianapolis",
    "postcode": "46202",
    "lat": 39.7781477,
    "lon": -86.1463379
  },
  {
    "street": "North Broadway Street",
    "housenumber": "809",
    "city": "Indianapolis",
    "postcode": "46202",
    "lat": 39.778048,
    "lon": -86.1463441
  },
  {
    "street": "North College Avenue",
    "housenumber": "858",
    "city": "Indianapolis",
    "postcode": "46202",
    "lat": 39.7795751,
    "lon": -86.1452682
  },
  {
    "street": "North College Avenue",
    "housenumber": "860",
    "city": "Indianapolis",
    "postcode": "46202",
    "lat": 39.7796482,
    "lon": -86.1452668
  },
  {
    "street": "East 46th Street",
    "housenumber": "2025",
    "city": "Indianapolis",
    "postcode": "46205",
    "lat": 39.8400419,
    "lon": -86.1268437
  },
  {
    "street": "Indianola Avenue",
    "housenumber": "4525",
    "city": "Indianapolis",
    "postcode": "46205",
    "lat": 39.8393201,
    "lon": -86.1362459
  },
  {
    "street": "Indianola Avenue",
    "housenumber": "4525",
    "city": "Indianapolis",
    "postcode": "46205",
    "lat": 39.8393199,
    "lon": -86.1362939
  },
  {
    "street": "Indianola Avenue",
    "housenumber": "4525",
    "city": "Indianapolis",
    "postcode": "46205",
    "lat": 39.8393211,
    "lon": -86.1362039
  },
  {
    "street": "Indianola Avenue",
    "housenumber": "4525",
    "city": "Indianapolis",
    "postcode": "46205",
    "lat": 39.8393205,
    "lon": -86.1361449
  },
  {
    "street": "Indianola Avenue",
    "housenumber": "4525",
    "city": "Indianapolis",
    "postcode": "46205",
    "lat": 39.8392882,
    "lon": -86.1361397
  },
  {
    "street": "Indianola Avenue",
    "housenumber": "4525",
    "city": "Indianapolis",
    "postcode": "46205",
    "lat": 39.8392389,
    "lon": -86.1361353
  },
  {
    "street": "Indianola Avenue",
    "housenumber": "4525",
    "city": "Indianapolis",
    "postcode": "46205",
    "lat": 39.8391988,
    "lon": -86.1361391
  },
  {
    "street": "Indianola Avenue",
    "housenumber": "4525",
    "city": "Indianapolis",
    "postcode": "46205",
    "lat": 39.8391517,
    "lon": -86.1361377
  },
  {
    "street": "Indianola Avenue",
    "housenumber": "4525",
    "city": "Indianapolis",
    "postcode": "46205",
    "lat": 39.8391078,
    "lon": -86.1361374
  },
  {
    "street": "Indianola Avenue",
    "housenumber": "4525",
    "city": "Indianapolis",
    "postcode": "46205",
    "lat": 39.8390593,
    "lon": -86.1361351
  },
  {
    "street": "Indianola Avenue",
    "housenumber": "4525",
    "city": "Indianapolis",
    "postcode": "46205",
    "lat": 39.8390169,
    "lon": -86.1361308
  },
  {
    "street": "Indianola Avenue",
    "housenumber": "4525",
    "city": "Indianapolis",
    "postcode": "46205",
    "lat": 39.8389706,
    "lon": -86.1361325
  },
  {
    "street": "Indianola Avenue",
    "housenumber": "4525",
    "city": "Indianapolis",
    "postcode": "46205",
    "lat": 39.8389344,
    "lon": -86.1361333
  },
  {
    "street": "Indianola Avenue",
    "housenumber": "4525",
    "city": "Indianapolis",
    "postcode": "46205",
    "lat": 39.8389334,
    "lon": -86.1361922
  },
  {
    "street": "Indianola Avenue",
    "housenumber": "4525",
    "city": "Indianapolis",
    "postcode": "46205",
    "lat": 39.8389324,
    "lon": -86.1362462
  },
  {
    "street": "Indianola Avenue",
    "housenumber": "4525",
    "city": "Indianapolis",
    "postcode": "46205",
    "lat": 39.838933,
    "lon": -86.1362922
  },
  {
    "street": "Indianola Avenue",
    "housenumber": "4455",
    "city": "Indianapolis",
    "postcode": "46205",
    "lat": 39.8386215,
    "lon": -86.1361432
  },
  {
    "street": "Indianola Avenue",
    "housenumber": "4455",
    "city": "Indianapolis",
    "postcode": "46205",
    "lat": 39.8385717,
    "lon": -86.1361405
  },
  {
    "street": "Indianola Avenue",
    "housenumber": "4455",
    "city": "Indianapolis",
    "postcode": "46205",
    "lat": 39.8385717,
    "lon": -86.1362814
  },
  {
    "street": "Indianola Avenue",
    "housenumber": "4455",
    "city": "Indianapolis",
    "postcode": "46205",
    "lat": 39.838621,
    "lon": -86.1362863
  },
  {
    "street": "Col H Weir Cook Mem Drive",
    "housenumber": "7800",
    "city": "Indianapolis",
    "postcode": "46241",
    "lat": 39.7149454,
    "lon": -86.2972882
  },
  {
    "street": "West 86th Street",
    "housenumber": "5650",
    "city": "Indianapolis",
    "lat": 39.9121966,
    "lon": -86.2611216
  },
  {
    "street": "West 86th Street",
    "housenumber": "5630",
    "city": "Indianapolis",
    "postcode": "46278",
    "lat": 39.9121959,
    "lon": -86.2608737
  },
  {
    "street": "East Thompson Road",
    "housenumber": "7215",
    "city": "Indianapolis",
    "postcode": "46239",
    "lat": 39.6935884,
    "lon": -86.0407516
  },
  {
    "street": "West 38th Street",
    "housenumber": "5130",
    "city": "Indianapolis",
    "postcode": "46254",
    "lat": 39.8243637,
    "lon": -86.248287
  },
  {
    "street": "East 86th Street",
    "housenumber": "3367",
    "city": "Indianapolis",
    "postcode": "46240",
    "lat": 39.9108499,
    "lon": -86.1082618
  },
  {
    "street": "West 34th Street",
    "housenumber": "4711",
    "city": "Indianapolis",
    "postcode": "46222",
    "lat": 39.8163149,
    "lon": -86.2389694
  },
  {
    "street": "Georgetown Road",
    "housenumber": "3401",
    "city": "Indianapolis",
    "postcode": "46224",
    "lat": 39.8169828,
    "lon": -86.2396817
  },
  {
    "street": "East Thompson Road",
    "housenumber": "1700",
    "city": "Indianapolis",
    "postcode": "46227",
    "lat": 39.6939655,
    "lon": -86.1291534
  },
  {
    "street": "S. Meridian St",
    "housenumber": "4325",
    "city": "Indianapolis",
    "postcode": "46217",
    "lat": 39.7017983,
    "lon": -86.1526276
  },
  {
    "street": "Thompson Road",
    "housenumber": "3333",
    "city": "Indianapolis",
    "postcode": "46227",
    "lat": 39.6937876,
    "lon": -86.1067988
  },
  {
    "street": "Georgetown Road",
    "housenumber": "3350",
    "city": "Indianapolis",
    "postcode": "46224",
    "lat": 39.816344,
    "lon": -86.2402954
  },
  {
    "street": "Alabama Street",
    "housenumber": "255",
    "city": "Indianapolis",
    "postcode": "46204",
    "lat": 39.7721907,
    "lon": -86.1521956
  },
  {
    "street": "Lafayette Road",
    "housenumber": "5179",
    "city": "Indianapolis",
    "postcode": "46254",
    "lat": 39.8454468,
    "lon": -86.2553521
  },
  {
    "street": "East 10th Street",
    "housenumber": "5914",
    "city": "Indianapolis",
    "postcode": "46219",
    "lat": 39.7823604,
    "lon": -86.0659971
  },
  {
    "street": "North Arlington Avenue",
    "housenumber": "1025",
    "city": "Indianapolis",
    "postcode": "46219-3223",
    "lat": 39.7822765,
    "lon": -86.0638847
  },
  {
    "street": "North Shadeland Avenue",
    "housenumber": "985",
    "city": "Indianapolis",
    "postcode": "46219",
    "lat": 39.7814729,
    "lon": -86.0448673
  },
  {
    "street": "North Shadeland Avenue",
    "housenumber": "1605",
    "city": "Indianapolis",
    "postcode": "46219",
    "lat": 39.7895421,
    "lon": -86.045017
  },
  {
    "street": "Rockville Road",
    "housenumber": "9240",
    "city": "Indianapolis",
    "postcode": "46234",
    "lat": 39.7644759,
    "lon": -86.3259986
  },
  {
    "street": "North Park Avenue",
    "housenumber": "415",
    "city": "Indianapolis",
    "postcode": "46202",
    "lat": 39.773338,
    "lon": -86.1469573
  },
  {
    "street": "North Park Avenue",
    "housenumber": "417",
    "city": "Indianapolis",
    "postcode": "46202",
    "lat": 39.7734034,
    "lon": -86.1469603
  },
  {
    "street": "North Park Avenue",
    "housenumber": "425",
    "city": "Indianapolis",
    "postcode": "46202",
    "lat": 39.7735104,
    "lon": -86.1469522
  },
  {
    "street": "North Park Avenue",
    "housenumber": "427",
    "city": "Indianapolis",
    "postcode": "46202",
    "lat": 39.7735752,
    "lon": -86.1469503
  },
  {
    "street": "North Park Avenue",
    "housenumber": "439",
    "city": "Indianapolis",
    "postcode": "46202",
    "lat": 39.7736773,
    "lon": -86.1468994
  },
  {
    "street": "North Park Avenue",
    "housenumber": "441",
    "city": "Indianapolis",
    "postcode": "46202",
    "lat": 39.7736738,
    "lon": -86.1467855
  },
  {
    "street": "East Michigan Street",
    "housenumber": "601",
    "city": "Indianapolis",
    "postcode": "46202",
    "lat": 39.7737409,
    "lon": -86.1468551
  },
  {
    "street": "East Michigan Street",
    "housenumber": "603",
    "city": "Indianapolis",
    "postcode": "46202",
    "lat": 39.7737415,
    "lon": -86.146723
  },
  {
    "street": "East Merrill Street",
    "housenumber": "655",
    "city": "Indianapolis",
    "postcode": "46203",
    "lat": 39.7586116,
    "lon": -86.1475125
  },
  {
    "street": "East Merrill Street",
    "housenumber": "657",
    "city": "Indianapolis",
    "postcode": "46203",
    "lat": 39.7586112,
    "lon": -86.1474419
  },
  {
    "street": "East Merrill Street",
    "housenumber": "659",
    "city": "Indianapolis",
    "postcode": "46203",
    "lat": 39.7586119,
    "lon": -86.1473772
  },
  {
    "street": "East Merrill Street",
    "housenumber": "661",
    "city": "Indianapolis",
    "postcode": "46203",
    "lat": 39.7586106,
    "lon": -86.1473118
  },
  {
    "street": "East Merrill Street",
    "housenumber": "663",
    "city": "Indianapolis",
    "postcode": "46203",
    "lat": 39.7586101,
    "lon": -86.1472479
  },
  {
    "street": "East Merrill Street",
    "housenumber": "667",
    "city": "Indianapolis",
    "postcode": "46203",
    "lat": 39.7586036,
    "lon": -86.1471765
  },
  {
    "street": "East Merrill Street",
    "housenumber": "669",
    "city": "Indianapolis",
    "postcode": "46203",
    "lat": 39.7586017,
    "lon": -86.1471183
  },
  {
    "street": "East Merrill Street",
    "housenumber": "671",
    "city": "Indianapolis",
    "postcode": "46203",
    "lat": 39.7586012,
    "lon": -86.1470597
  },
  {
    "street": "East Merrill Street",
    "housenumber": "673",
    "city": "Indianapolis",
    "postcode": "46203",
    "lat": 39.7586009,
    "lon": -86.1470027
  },
  {
    "street": "East Merrill Street",
    "housenumber": "675",
    "city": "Indianapolis",
    "postcode": "46203",
    "lat": 39.7585999,
    "lon": -86.1469478
  },
  {
    "street": "East Merrill Street",
    "housenumber": "677",
    "city": "Indianapolis",
    "postcode": "46203",
    "lat": 39.758599,
    "lon": -86.1468977
  },
  {
    "street": "Virginia Avenue",
    "housenumber": "902",
    "city": "Indianapolis",
    "postcode": "46203",
    "lat": 39.7547684,
    "lon": -86.1423672
  },
  {
    "street": "West 86th Street",
    "housenumber": "5555",
    "city": "Indianapolis",
    "postcode": "46268",
    "lat": 39.9100406,
    "lon": -86.2589504
  },
  {
    "street": "West 86th Street",
    "housenumber": "5555",
    "city": "Indianapolis",
    "postcode": "46268",
    "lat": 39.910281,
    "lon": -86.2589675
  },
  {
    "street": "West 86th Street",
    "housenumber": "1248",
    "city": "Indianapolis",
    "postcode": "46260",
    "lat": 39.9131863,
    "lon": -86.181684
  },
  {
    "street": "West 86th Street",
    "housenumber": "1321",
    "city": "Indianapolis",
    "postcode": "46260",
    "lat": 39.9118401,
    "lon": -86.18216
  },
  {
    "street": "West 86th",
    "housenumber": "1330",
    "city": "Indianapolis",
    "postcode": "46254",
    "lat": 39.9127768,
    "lon": -86.182563
  },
  {
    "street": "West 86th Street",
    "housenumber": "1375",
    "city": "Indianapolis",
    "postcode": "46260",
    "lat": 39.9116593,
    "lon": -86.1828002
  },
  {
    "street": "West 86th Street",
    "housenumber": "1340",
    "city": "Indianapolis",
    "postcode": "46260",
    "lat": 39.9125957,
    "lon": -86.1834843
  },
  {
    "street": "West 86th Street",
    "housenumber": "1340",
    "city": "Indianapolis",
    "postcode": "46260",
    "lat": 39.9128764,
    "lon": -86.1834176
  },
  {
    "street": "Allisonville Road",
    "housenumber": "8202",
    "city": "Indianapolis",
    "postcode": "46250",
    "lat": 39.905451,
    "lon": -86.0794378
  },
  {
    "street": "Craig Street",
    "housenumber": "8255",
    "city": "Indianapolis",
    "postcode": "46250",
    "lat": 39.9061503,
    "lon": -86.0517621
  },
  {
    "street": "East Washington Street",
    "housenumber": "10235",
    "city": "Indianapolis",
    "postcode": "46229",
    "lat": 39.773498,
    "lon": -85.9856627
  },
  {
    "street": "Pendleton Pike",
    "housenumber": "7020",
    "city": "Lawrence",
    "postcode": "46226",
    "lat": 39.8281039,
    "lon": -86.0451211
  },
  {
    "street": "Pendleton Pike",
    "housenumber": "7201C",
    "city": "Indianapolis",
    "postcode": "46226",
    "lat": 39.8272838,
    "lon": -86.0413326
  },
  {
    "street": "Pendleton Pike",
    "housenumber": "7339",
    "city": "Indianapolis",
    "postcode": "46226",
    "lat": 39.8297888,
    "lon": -86.0393452
  },
  {
    "street": "Pendleton Pike",
    "housenumber": "7339",
    "city": "Indianapolis",
    "postcode": "46226",
    "lat": 39.8299603,
    "lon": -86.039391
  },
  {
    "street": "East 65th Street",
    "housenumber": "5415",
    "city": "Indianapolis",
    "postcode": "46220",
    "lat": 39.8754659,
    "lon": -86.077112
  },
  {
    "street": "East 65th Street",
    "housenumber": "5415",
    "city": "Indianapolis",
    "postcode": "46220",
    "lat": 39.8757185,
    "lon": -86.0770496
  },
  {
    "street": "East 71st Street",
    "housenumber": "5990",
    "city": "Indianapolis",
    "postcode": "46220",
    "lat": 39.8836777,
    "lon": -86.0657689
  },
  {
    "street": "East 71st Street",
    "housenumber": "5990",
    "city": "Indianapolis",
    "postcode": "46220",
    "lat": 39.883888,
    "lon": -86.0657723
  },
  {
    "street": "North Shadeland Avenue",
    "housenumber": "4540",
    "city": "Indianapolis",
    "postcode": "46226",
    "lat": 39.8393433,
    "lon": -86.0472588
  },
  {
    "street": "North Shadeland Avenue",
    "housenumber": "4502",
    "city": "Indianapolis",
    "postcode": "46226",
    "lat": 39.838328,
    "lon": -86.0466927
  },
  {
    "street": "North Shadeland Avenue",
    "housenumber": "4590",
    "city": "Indianapolis",
    "postcode": "46226",
    "lat": 39.8399988,
    "lon": -86.0466452
  },
  {
    "street": "Emerson Way",
    "housenumber": "5450",
    "city": "Indianapolis",
    "postcode": "46226",
    "lat": 39.8534487,
    "lon": -86.0878229
  },
  {
    "street": "East 56th Street",
    "housenumber": "5005",
    "city": "Indianapolis",
    "postcode": "46226",
    "lat": 39.8544991,
    "lon": -86.0858518
  },
  {
    "street": "East 56th Street",
    "housenumber": "5050",
    "city": "Indianapolis",
    "postcode": "46220",
    "lat": 39.8556267,
    "lon": -86.0849626
  },
  {
    "street": "East 56th Street",
    "housenumber": "4960",
    "city": "Indianapolis",
    "postcode": "46220",
    "lat": 39.8553738,
    "lon": -86.0870783
  },
  {
    "street": "East 56th Street",
    "housenumber": "4960",
    "city": "Indianapolis",
    "postcode": "46220",
    "lat": 39.8555657,
    "lon": -86.0870726
  },
  {
    "street": "Allisonville Road",
    "housenumber": "6248",
    "city": "Indianapolis",
    "postcode": "46220",
    "lat": 39.8702033,
    "lon": -86.0978863
  },
  {
    "street": "Allisonville Road",
    "housenumber": "6230",
    "city": "Indianapolis",
    "postcode": "46220",
    "lat": 39.8695945,
    "lon": -86.0979187
  },
  {
    "street": "Allisonville Road",
    "housenumber": "6198",
    "city": "Indianapolis",
    "postcode": "46220",
    "lat": 39.8680215,
    "lon": -86.0976863
  },
  {
    "street": "Allisonville Road",
    "housenumber": "6198",
    "city": "Indianapolis",
    "postcode": "46220",
    "lat": 39.868021,
    "lon": -86.09804
  },
  {
    "street": "English Avenue",
    "housenumber": "1519",
    "city": "Indianapolis",
    "postcode": "46203",
    "lat": 39.7595674,
    "lon": -86.1332122
  },
  {
    "street": "English Avenue",
    "housenumber": "1521",
    "city": "Indianapolis",
    "postcode": "46203",
    "lat": 39.7595678,
    "lon": -86.1331474
  },
  {
    "street": "East 62nd Street",
    "housenumber": "2130",
    "city": "Indianapolis",
    "postcode": "46220",
    "lat": 39.8690746,
    "lon": -86.1249819
  },
  {
    "street": "North Keystone Avenue",
    "housenumber": "6191",
    "city": "Indianapolis",
    "postcode": "46220",
    "lat": 39.8679034,
    "lon": -86.1214632
  },
  {
    "street": "Michigan Road",
    "housenumber": "5880",
    "city": "Indianapolis",
    "postcode": "46228",
    "lat": 39.8604404,
    "lon": -86.1984137
  }
]