[
  {
    "street": "Avenida Victoria",
    "housenumber": "8a",
    "city": "San Francisco",
    "lat": 9.9930094,
    "lon": -84.1457558
  },
  {
    "street": "Juan XXIII",
    "housenumber": "3057",
    "city": "San Francisco",
    "postcode": "2400",
    "lat": -31.4132945,
    "lon": -62.0966968
  },
  {
    "street": "Bulevard 25 de Mayo",
    "housenumber": "2028",
    "city": "San Francisco",
    "postcode": "2400",
    "lat": -31.4287608,
    "lon": -62.0886287
  },
  {
    "street": "Marconi",
    "housenumber": "1201",
    "city": "San Francisco",
    "postcode": "2400",
    "lat": -31.4389125,
    "lon": -62.0982265
  },
  {
    "street": "Marconi",
    "housenumber": "1202",
    "city": "San Francisco",
    "postcode": "2400",
    "lat": -31.4388806,
    "lon": -62.0984134
  },
  {
    "street": "Marconi",
    "housenumber": "1299",
    "city": "San Francisco",
    "postcode": "2400",
    "lat": -31.4396619,
    "lon": -62.0984072
  },
  {
    "street": "Marconi",
    "housenumber": "1300",
    "city": "San Francisco",
    "postcode": "2400",
    "lat": -31.4396353,
    "lon": -62.0985878
  },
  {
    "street": "Lavalle",
    "housenumber": "1001",
    "city": "San Francisco",
    "postcode": "2400",
    "lat": -31.4375658,
    "lon": -62.0958564
  },
  {
    "street": "Alem",
    "housenumber": "1001",
    "city": "San Francisco",
    "postcode": "2400",
    "lat": -31.4377362,
    "lon": -62.0947702
  },
  {
    "street": "Lavalle",
    "housenumber": "1002",
    "city": "San Francisco",
    "postcode": "2400",
    "lat": -31.4375181,
    "lon": -62.09608
  },
  {
    "street": "Alem",
    "housenumber": "1002",
    "city": "San Francisco",
    "postcode": "2400",
    "lat": -31.4376817,
    "lon": -62.0950098
  },
  {
    "street": "Juan B. Justo",
    "housenumber": "1002",
    "city": "San Francisco",
    "postcode": "2400",
    "lat": -31.4378861,
    "lon": -62.0939236
  },
  {
    "street": "Lavalle",
    "housenumber": "1099",
    "city": "San Francisco",
    "postcode": "2400",
    "lat": -31.438186,
    "lon": -62.0959762
  },
  {
    "street": "Alem",
    "housenumber": "1099",
    "city": "San Francisco",
    "postcode": "2400",
    "lat": -31.4383495,
    "lon": -62.0949139
  },
  {
    "street": "Lavalle",
    "housenumber": "1100",
    "city": "San Francisco",
    "postcode": "2400",
    "lat": -31.4381451,
    "lon": -62.0962078
  },
  {
    "street": "Alem",
    "housenumber": "1100",
    "city": "San Francisco",
    "postcode": "2400",
    "lat": -31.4383086,
    "lon": -62.0951536
  },
  {
    "street": "Juan B. Justo",
    "housenumber": "1100",
    "city": "San Francisco",
    "postcode": "2400",
    "lat": -31.4384858,
    "lon": -62.0940434
  },
  {
    "street": "Caseros",
    "housenumber": "1101",
    "city": "San Francisco",
    "postcode": "2400",
    "lat": -31.4378895,
    "lon": -62.0990752
  },
  {
    "street": "Marconi",
    "housenumber": "1101",
    "city": "San Francisco",
    "postcode": "2400",
    "lat": -31.4380245,
    "lon": -62.0980508
  },
  {
    "street": "Ameghino",
    "housenumber": "1101",
    "city": "San Francisco",
    "postcode": "2400",
    "lat": -31.4381894,
    "lon": -62.0970864
  },
  {
    "street": "Lavalle",
    "housenumber": "1101",
    "city": "San Francisco",
    "postcode": "2400",
    "lat": -31.4383904,
    "lon": -62.0960162
  },
  {
    "street": "Alem",
    "housenumber": "1101",
    "city": "San Francisco",
    "postcode": "2400",
    "lat": -31.4385539,
    "lon": -62.0949938
  },
  {
    "street": "Marconi",
    "housenumber": "1102",
    "city": "San Francisco",
    "postcode": "2400",
    "lat": -31.4380211,
    "lon": -62.0982145
  },
  {
    "street": "Ameghino",
    "housenumber": "1102",
    "city": "San Francisco",
    "postcode": "2400",
    "lat": -31.4381928,
    "lon": -62.0972382
  },
  {
    "street": "Lavalle",
    "housenumber": "1102",
    "city": "San Francisco",
    "postcode": "2400",
    "lat": -31.4383461,
    "lon": -62.0961919
  },
  {
    "street": "Alem",
    "housenumber": "1102",
    "city": "San Francisco",
    "postcode": "2400",
    "lat": -31.4385267,
    "lon": -62.0952095
  },
  {
    "street": "Juan B. Justo",
    "housenumber": "1102",
    "city": "San Francisco",
    "postcode": "2400",
    "lat": -31.4386971,
    "lon": -62.0940993
  },
  {
    "street": "Caseros",
    "housenumber": "1199",
    "city": "San Francisco",
    "postcode": "2400",
    "lat": -31.4385846,
    "lon": -62.0992269
  },
  {
    "street": "Marconi",
    "housenumber": "1199",
    "city": "San Francisco",
    "postcode": "2400",
    "lat": -31.43874,
    "lon": -62.0981786
  },
  {
    "street": "Ameghino",
    "housenumber": "1199",
    "city": "San Francisco",
    "postcode": "2400",
    "lat": -31.4389117,
    "lon": -62.0972302
  },
  {
    "street": "Lavalle",
    "housenumber": "1199",
    "city": "San Francisco",
    "postcode": "2400",
    "lat": -31.4390514,
    "lon": -62.0961599
  },
  {
    "street": "Alem",
    "housenumber": "1199",
    "city": "San Francisco",
    "postcode": "2400",
    "lat": -31.4392422,
    "lon": -62.0951296
  },
  {
    "street": "Marconi",
    "housenumber": "1200",
    "city": "San Francisco",
    "postcode": "2400",
    "lat": -31.4387264,
    "lon": -62.0983543
  },
  {
    "street": "Ameghino",
    "housenumber": "1200",
    "city": "San Francisco",
    "postcode": "2400",
    "lat": -31.438864,
    "lon": -62.097366
  },
  {
    "street": "Lavalle",
    "housenumber": "1200",
    "city": "San Francisco",
    "postcode": "2400",
    "lat": -31.439048,
    "lon": -62.0963316
  },
  {
    "street": "Alem",
    "housenumber": "1200",
    "city": "San Francisco",
    "postcode": "2400",
    "lat": -31.4392013,
    "lon": -62.0953452
  },
  {
    "street": "Juan B. Justo",
    "housenumber": "1200",
    "city": "San Francisco",
    "postcode": "2400",
    "lat": -31.4393785,
    "lon": -62.094251
  },
  {
    "street": "Caseros",
    "housenumber": "1201",
    "city": "San Francisco",
    "postcode": "2400",
    "lat": -31.4387516,
    "lon": -62.0992789
  },
  {
    "street": "Ameghino",
    "housenumber": "1201",
    "city": "San Francisco",
    "postcode": "2400",
    "lat": -31.4390991,
    "lon": -62.0972382
  },
  {
    "street": "Lavalle",
    "housenumber": "1201",
    "city": "San Francisco",
    "postcode": "2400",
    "lat": -31.4392558,
    "lon": -62.0962078
  },
  {
    "street": "Alem",
    "housenumber": "1201",
    "city": "San Francisco",
    "postcode": "2400",
    "lat": -31.4394466,
    "lon": -62.0951775
  },
  {
    "street": "Ameghino",
    "housenumber": "1202",
    "city": "San Francisco",
    "postcode": "2400",
    "lat": -31.4390446,
    "lon": -62.0974299
  },
  {
    "street": "Lavalle",
    "housenumber": "1202",
    "city": "San Francisco",
    "postcode": "2400",
    "lat": -31.439215,
    "lon": -62.0964235
  },
  {
    "street": "Alem",
    "housenumber": "1202",
    "city": "San Francisco",
    "postcode": "2400",
    "lat": -31.4394058,
    "lon": -62.0953932
  },
  {
    "street": "Juan B. Justo",
    "housenumber": "1202",
    "city": "San Francisco",
    "postcode": "2400",
    "lat": -31.4395898,
    "lon": -62.0943069
  },
  {
    "street": "Caseros",
    "housenumber": "1299",
    "city": "San Francisco",
    "postcode": "2400",
    "lat": -31.4394678,
    "lon": -62.09944
  },
  {
    "street": "Ameghino",
    "housenumber": "1299",
    "city": "San Francisco",
    "postcode": "2400",
    "lat": -31.4397874,
    "lon": -62.0973899
  },
  {
    "street": "Lavalle",
    "housenumber": "1299",
    "city": "San Francisco",
    "postcode": "2400",
    "lat": -31.439985,
    "lon": -62.0963596
  },
  {
    "street": "Alem",
    "housenumber": "1299",
    "city": "San Francisco",
    "postcode": "2400",
    "lat": -31.4401349,
    "lon": -62.0953293
  },
  {
    "street": "Ameghino",
    "housenumber": "1300",
    "city": "San Francisco",
    "postcode": "2400",
    "lat": -31.4397669,
    "lon": -62.0975896
  },
  {
    "street": "Lavalle",
    "housenumber": "1300",
    "city": "San Francisco",
    "postcode": "2400",
    "lat": -31.4399509,
    "lon": -62.0965673
  },
  {
    "street": "Alem",
    "housenumber": "1300",
    "city": "San Francisco",
    "postcode": "2400",
    "lat": -31.4401213,
    "lon": -62.0955449
  },
  {
    "street": "Juan B. Justo",
    "housenumber": "1300",
    "city": "San Francisco",
    "postcode": "2400",
    "lat": -31.440278,
    "lon": -62.0944427
  },
  {
    "street": "Caseros",
    "housenumber": "1301",
    "city": "San Francisco",
    "postcode": "2400",
    "lat": -31.4396715,
    "lon": -62.0994665
  },
  {
    "street": "Marconi",
    "housenumber": "1301",
    "city": "San Francisco",
    "postcode": "2400",
    "lat": -31.4398238,
    "lon": -62.0984515
  },
  {
    "street": "Lavalle",
    "housenumber": "1301",
    "city": "San Francisco",
    "postcode": "2400",
    "lat": -31.4402114,
    "lon": -62.0964152
  },
  {
    "street": "Alem",
    "housenumber": "1301",
    "city": "San Francisco",
    "postcode": "2400",
    "lat": -31.4403462,
    "lon": -62.0953452
  },
  {
    "street": "Marconi",
    "housenumber": "1302",
    "city": "San Francisco",
    "postcode": "2400",
    "lat": -31.4397997,
    "lon": -62.0986379
  },
  {
    "street": "Ameghino",
    "housenumber": "1302",
    "city": "San Francisco",
    "postcode": "2400",
    "lat": -31.4399729,
    "lon": -62.0976491
  },
  {
    "street": "Alem",
    "housenumber": "1302",
    "city": "San Francisco",
    "postcode": "2400",
    "lat": -31.4403068,
    "lon": -62.0956085
  },
  {
    "street": "Juan B. Justo",
    "housenumber": "1302",
    "city": "San Francisco",
    "postcode": "2400",
    "lat": -31.4404824,
    "lon": -62.0944906
  },
  {
    "street": "Caseros",
    "housenumber": "1399",
    "city": "San Francisco",
    "postcode": "2400",
    "lat": -31.4403802,
    "lon": -62.0995983
  },
  {
    "street": "Marconi",
    "housenumber": "1399",
    "city": "San Francisco",
    "postcode": "2400",
    "lat": -31.4405418,
    "lon": -62.0986209
  },
  {
    "street": "Lavalle",
    "housenumber": "1399",
    "city": "San Francisco",
    "postcode": "2400",
    "lat": -31.4408588,
    "lon": -62.0965589
  },
  {
    "street": "Alem",
    "housenumber": "1399",
    "city": "San Francisco",
    "postcode": "2400",
    "lat": -31.4410276,
    "lon": -62.095513
  },
  {
    "street": "Marconi",
    "housenumber": "1400",
    "city": "San Francisco",
    "postcode": "2400",
    "lat": -31.4405168,
    "lon": -62.098809
  },
  {
    "street": "Ameghino",
    "housenumber": "1400",
    "city": "San Francisco",
    "postcode": "2400",
    "lat": -31.440668,
    "lon": -62.0977929
  },
  {
    "street": "Alem",
    "housenumber": "1400",
    "city": "San Francisco",
    "postcode": "2400",
    "lat": -31.4410019,
    "lon": -62.0957522
  },
  {
    "street": "Juan B. Justo",
    "housenumber": "1400",
    "city": "San Francisco",
    "postcode": "2400",
    "lat": -31.4411707,
    "lon": -62.0946424
  },
  {
    "street": "Caseros",
    "housenumber": "1401",
    "city": "San Francisco",
    "postcode": "2400",
    "lat": -31.4405642,
    "lon": -62.0996343
  },
  {
    "street": "Marconi",
    "housenumber": "1401",
    "city": "San Francisco",
    "postcode": "2400",
    "lat": -31.4407056,
    "lon": -62.0986605
  },
  {
    "street": "Ameghino",
    "housenumber": "1401",
    "city": "San Francisco",
    "postcode": "2400",
    "lat": -31.4408861,
    "lon": -62.0976372
  },
  {
    "street": "Lavalle",
    "housenumber": "1401",
    "city": "San Francisco",
    "postcode": "2400",
    "lat": -31.4410821,
    "lon": -62.0965992
  },
  {
    "street": "Alem",
    "housenumber": "1401",
    "city": "San Francisco",
    "postcode": "2400",
    "lat": -31.4412116,
    "lon": -62.0955769
  },
  {
    "street": "Marconi",
    "housenumber": "1402",
    "city": "San Francisco",
    "postcode": "2400",
    "lat": -31.4406719,
    "lon": -62.0988694
  },
  {
    "street": "Ameghino",
    "housenumber": "1402",
    "city": "San Francisco",
    "postcode": "2400",
    "lat": -31.4408724,
    "lon": -62.0978528
  },
  {
    "street": "Lavalle",
    "housenumber": "1402",
    "city": "San Francisco",
    "postcode": "2400",
    "lat": -31.4410292,
    "lon": -62.0968105
  },
  {
    "street": "Alem",
    "housenumber": "1402",
    "city": "San Francisco",
    "postcode": "2400",
    "lat": -31.4411791,
    "lon": -62.0958001
  },
  {
    "street": "Juan B. Justo",
    "housenumber": "1402",
    "city": "San Francisco",
    "postcode": "2400",
    "lat": -31.4413751,
    "lon": -62.0947063
  },
  {
    "street": "Caseros",
    "housenumber": "1499",
    "city": "San Francisco",
    "postcode": "2400",
    "lat": -31.4412797,
    "lon": -62.0997701
  },
  {
    "street": "Marconi",
    "housenumber": "1499",
    "city": "San Francisco",
    "postcode": "2400",
    "lat": -31.4414573,
    "lon": -62.0988186
  },
  {
    "street": "Ameghino",
    "housenumber": "1499",
    "city": "San Francisco",
    "postcode": "2400",
    "lat": -31.4415879,
    "lon": -62.0977969
  },
  {
    "street": "Lavalle",
    "housenumber": "1499",
    "city": "San Francisco",
    "postcode": "2400",
    "lat": -31.4417567,
    "lon": -62.0967669
  },
  {
    "street": "Alem",
    "housenumber": "1499",
    "city": "San Francisco",
    "postcode": "2400",
    "lat": -31.4419407,
    "lon": -62.0957286
  },
  {
    "street": "Marconi",
    "housenumber": "1500",
    "city": "San Francisco",
    "postcode": "2400",
    "lat": -31.4414139,
    "lon": -62.0990106
  },
  {
    "street": "Ameghino",
    "housenumber": "1500",
    "city": "San Francisco",
    "postcode": "2400",
    "lat": -31.4415539,
    "lon": -62.0980205
  },
  {
    "street": "Lavalle",
    "housenumber": "1500",
    "city": "San Francisco",
    "postcode": "2400",
    "lat": -31.4417379,
    "lon": -62.0969702
  },
  {
    "street": "Alem",
    "housenumber": "1500",
    "city": "San Francisco",
    "postcode": "2400",
    "lat": -31.441881,
    "lon": -62.0959519
  },
  {
    "street": "Juan B. Justo",
    "housenumber": "1500",
    "city": "San Francisco",
    "postcode": "2400",
    "lat": -31.442077,
    "lon": -62.09485
  },
  {
    "street": "Alem",
    "housenumber": "1501",
    "city": "San Francisco",
    "postcode": "2400",
    "lat": -31.442152,
    "lon": -62.0957686
  },
  {
    "street": "Caseros",
    "housenumber": "1501",
    "city": "San Francisco",
    "postcode": "2400",
    "lat": -31.4414773,
    "lon": -62.099826
  },
  {
    "street": "Marconi",
    "housenumber": "1501",
    "city": "San Francisco",
    "postcode": "2400",
    "lat": -31.4416157,
    "lon": -62.0988495
  },
  {
    "street": "Ameghino",
    "housenumber": "1501",
    "city": "San Francisco",
    "postcode": "2400",
    "lat": -31.4417992,
    "lon": -62.0978368
  },
  {
    "street": "Lavalle",
    "housenumber": "1501",
    "city": "San Francisco",
    "postcode": "2400",
    "lat": -31.441968,
    "lon": -62.0968228
  },
  {
    "street": "Marconi",
    "housenumber": "1502",
    "city": "San Francisco",
    "postcode": "2400",
    "lat": -31.4415748,
    "lon": -62.0990571
  },
  {
    "street": "Ameghino",
    "housenumber": "1502",
    "city": "San Francisco",
    "postcode": "2400",
    "lat": -31.4417817,
    "lon": -62.0980895
  },
  {
    "street": "Lavalle",
    "housenumber": "1502",
    "city": "San Francisco",
    "postcode": "2400",
    "lat": -31.4419287,
    "lon": -62.0970222
  },
  {
    "street": "Alem",
    "housenumber": "1502",
    "city": "San Francisco",
    "postcode": "2400",
    "lat": -31.4420854,
    "lon": -62.0959998
  },
  {
    "street": "Juan B. Justo",
    "housenumber": "1502",
    "city": "San Francisco",
    "postcode": "2400",
    "lat": -31.442261,
    "lon": -62.094898
  },
  {
    "street": "Alem",
    "housenumber": "1599",
    "city": "San Francisco",
    "postcode": "2400",
    "lat": -31.4429492,
    "lon": -62.0959443
  },
  {
    "street": "Caseros",
    "housenumber": "1599",
    "city": "San Francisco",
    "postcode": "2400",
    "lat": -31.4422542,
    "lon": -62.0999458
  },
  {
    "street": "Marconi",
    "housenumber": "1599",
    "city": "San Francisco",
    "postcode": "2400",
    "lat": -31.4424198,
    "lon": -62.0990172
  },
  {
    "street": "Ameghino",
    "housenumber": "1599",
    "city": "San Francisco",
    "postcode": "2400",
    "lat": -31.4425828,
    "lon": -62.0980285
  },
  {
    "street": "Lavalle",
    "housenumber": "1599",
    "city": "San Francisco",
    "postcode": "2400",
    "lat": -31.4427448,
    "lon": -62.0970065
  },
  {
    "street": "Marconi",
    "housenumber": "1600",
    "city": "San Francisco",
    "postcode": "2400",
    "lat": -31.4423857,
    "lon": -62.0992329
  },
  {
    "street": "Ameghino",
    "housenumber": "1600",
    "city": "San Francisco",
    "postcode": "2400",
    "lat": -31.4425238,
    "lon": -62.0982477
  },
  {
    "street": "Lavalle",
    "housenumber": "1600",
    "city": "San Francisco",
    "postcode": "2400",
    "lat": -31.4427123,
    "lon": -62.0972059
  },
  {
    "street": "Alem",
    "housenumber": "1600",
    "city": "San Francisco",
    "postcode": "2400",
    "lat": -31.4428826,
    "lon": -62.0961755
  },
  {
    "street": "Juan B. Justo",
    "housenumber": "1600",
    "city": "San Francisco",
    "postcode": "2400",
    "lat": -31.4430651,
    "lon": -62.0950657
  },
  {
    "street": "Caseros",
    "housenumber": "1601",
    "city": "San Francisco",
    "postcode": "2400",
    "lat": -31.4424586,
    "lon": -62.1000017
  },
  {
    "street": "Marconi",
    "housenumber": "1601",
    "city": "San Francisco",
    "postcode": "2400",
    "lat": -31.4426038,
    "lon": -62.0990731
  },
  {
    "street": "Ameghino",
    "housenumber": "1601",
    "city": "San Francisco",
    "postcode": "2400",
    "lat": -31.4427668,
    "lon": -62.0980844
  },
  {
    "street": "Lavalle",
    "housenumber": "1601",
    "city": "San Francisco",
    "postcode": "2400",
    "lat": -31.442944,
    "lon": -62.0970461
  },
  {
    "street": "Alem",
    "housenumber": "1601",
    "city": "San Francisco",
    "postcode": "2400",
    "lat": -31.4431128,
    "lon": -62.0960002
  },
  {
    "street": "Marconi",
    "housenumber": "1602",
    "city": "San Francisco",
    "postcode": "2400",
    "lat": -31.4425765,
    "lon": -62.0992808
  },
  {
    "street": "Ameghino",
    "housenumber": "1602",
    "city": "San Francisco",
    "postcode": "2400",
    "lat": -31.4427647,
    "lon": -62.0983268
  },
  {
    "street": "Lavalle",
    "housenumber": "1602",
    "city": "San Francisco",
    "postcode": "2400",
    "lat": -31.4428963,
    "lon": -62.0972698
  },
  {
    "street": "Alem",
    "housenumber": "1602",
    "city": "San Francisco",
    "postcode": "2400",
    "lat": -31.4430803,
    "lon": -62.0962075
  },
  {
    "street": "Juan B. Justo",
    "housenumber": "1602",
    "city": "San Francisco",
    "postcode": "2400",
    "lat": -31.4432627,
    "lon": -62.0951136
  },
  {
    "street": "Caseros",
    "housenumber": "1699",
    "city": "San Francisco",
    "postcode": "2400",
    "lat": -31.4431468,
    "lon": -62.1001614
  },
  {
    "street": "Marconi",
    "housenumber": "1699",
    "city": "San Francisco",
    "postcode": "2400",
    "lat": -31.4432852,
    "lon": -62.0992089
  },
  {
    "street": "Ameghino",
    "housenumber": "1699",
    "city": "San Francisco",
    "postcode": "2400",
    "lat": -31.4434482,
    "lon": -62.0982202
  },
  {
    "street": "Lavalle",
    "housenumber": "1699",
    "city": "San Francisco",
    "postcode": "2400",
    "lat": -31.443605,
    "lon": -62.0971899
  },
  {
    "street": "Alem",
    "housenumber": "1699",
    "city": "San Francisco",
    "postcode": "2400",
    "lat": -31.4437805,
    "lon": -62.0961519
  },
  {
    "street": "Marconi",
    "housenumber": "1700",
    "city": "San Francisco",
    "postcode": "2400",
    "lat": -31.4432648,
    "lon": -62.0994245
  },
  {
    "street": "Ameghino",
    "housenumber": "1700",
    "city": "San Francisco",
    "postcode": "2400",
    "lat": -31.4433911,
    "lon": -62.0984623
  },
  {
    "street": "Lavalle",
    "housenumber": "1700",
    "city": "San Francisco",
    "postcode": "2400",
    "lat": -31.4435777,
    "lon": -62.0974055
  },
  {
    "street": "Alem",
    "housenumber": "1700",
    "city": "San Francisco",
    "postcode": "2400",
    "lat": -31.4437549,
    "lon": -62.0963513
  },
  {
    "street": "Juan B. Justo",
    "housenumber": "1700",
    "city": "San Francisco",
    "postcode": "2400",
    "lat": -31.4439305,
    "lon": -62.0952494
  },
  {
    "street": "Caseros",
    "housenumber": "1701",
    "city": "San Francisco",
    "postcode": "2400",
    "lat": -31.4433376,
    "lon": -62.1001934
  },
  {
    "street": "Marconi",
    "housenumber": "1701",
    "city": "San Francisco",
    "postcode": "2400",
    "lat": -31.4434624,
    "lon": -62.0992568
  },
  {
    "street": "Ameghino",
    "housenumber": "1701",
    "city": "San Francisco",
    "postcode": "2400",
    "lat": -31.4436511,
    "lon": -62.0982445
  },
  {
    "street": "Lavalle",
    "housenumber": "1701",
    "city": "San Francisco",
    "postcode": "2400",
    "lat": -31.4438419,
    "lon": -62.0972302
  },
  {
    "street": "Alem",
    "housenumber": "1701",
    "city": "San Francisco",
    "postcode": "2400",
    "lat": -31.443985,
    "lon": -62.0961679
  },
  {
    "street": "Marconi",
    "housenumber": "1702",
    "city": "San Francisco",
    "postcode": "2400",
    "lat": -31.4434215,
    "lon": -62.0994485
  },
  {
    "street": "Ameghino",
    "housenumber": "1702",
    "city": "San Francisco",
    "postcode": "2400",
    "lat": -31.4435934,
    "lon": -62.0984962
  },
  {
    "street": "Lavalle",
    "housenumber": "1702",
    "city": "San Francisco",
    "postcode": "2400",
    "lat": -31.4437942,
    "lon": -62.0974618
  },
  {
    "street": "Alem",
    "housenumber": "1702",
    "city": "San Francisco",
    "postcode": "2400",
    "lat": -31.4439509,
    "lon": -62.0964075
  },
  {
    "street": "Juan B. Justo",
    "housenumber": "1702",
    "city": "San Francisco",
    "postcode": "2400",
    "lat": -31.4441349,
    "lon": -62.0953293
  },
  {
    "street": "Caseros",
    "housenumber": "1751",
    "city": "San Francisco",
    "postcode": "2400",
    "lat": -31.4437601,
    "lon": -62.1002732
  },
  {
    "street": "Marconi",
    "housenumber": "1751",
    "city": "San Francisco",
    "postcode": "2400",
    "lat": -31.4438644,
    "lon": -62.0993367
  },
  {
    "street": "Ameghino",
    "housenumber": "1751",
    "city": "San Francisco",
    "postcode": "2400",
    "lat": -31.4440122,
    "lon": -62.0983244
  },
  {
    "street": "Lavalle",
    "housenumber": "1751",
    "city": "San Francisco",
    "postcode": "2400",
    "lat": -31.4441758,
    "lon": -62.0973021
  },
  {
    "street": "Alem",
    "housenumber": "1751",
    "city": "San Francisco",
    "postcode": "2400",
    "lat": -31.4443802,
    "lon": -62.0962478
  },
  {
    "street": "Marconi",
    "housenumber": "1752",
    "city": "San Francisco",
    "postcode": "2400",
    "lat": -31.4438303,
    "lon": -62.0995364
  },
  {
    "street": "Ameghino",
    "housenumber": "1752",
    "city": "San Francisco",
    "postcode": "2400",
    "lat": -31.4439404,
    "lon": -62.0985752
  },
  {
    "street": "Lavalle",
    "housenumber": "1752",
    "city": "San Francisco",
    "postcode": "2400",
    "lat": -31.4441213,
    "lon": -62.0975257
  },
  {
    "street": "Alem",
    "housenumber": "1752",
    "city": "San Francisco",
    "postcode": "2400",
    "lat": -31.4443052,
    "lon": -62.0964794
  },
  {
    "street": "Juan B. Justo",
    "housenumber": "1752",
    "city": "San Francisco",
    "postcode": "2400",
    "lat": -31.4445097,
    "lon": -62.0954012
  },
  {
    "street": "French y Berutti",
    "housenumber": "2499",
    "city": "San Francisco",
    "postcode": "2400",
    "lat": -31.437533,
    "lon": -62.0958097
  },
  {
    "street": "French y Berutti",
    "housenumber": "2401",
    "city": "San Francisco",
    "postcode": "2400",
    "lat": -31.4376487,
    "lon": -62.0950585
  },
  {
    "street": "Avenida 9 de Septiembre",
    "housenumber": "2799",
    "city": "San Francisco",
    "postcode": "2400",
    "lat": -31.4378623,
    "lon": -62.099043
  },
  {
    "street": "Avenida 9 de Septiembre",
    "housenumber": "2701",
    "city": "San Francisco",
    "postcode": "2400",
    "lat": -31.4379952,
    "lon": -62.0981963
  },
  {
    "street": "Avenida 9 de Septiembre",
    "housenumber": "2699",
    "city": "San Francisco",
    "postcode": "2400",
    "lat": -31.4380271,
    "lon": -62.0980033
  },
  {
    "street": "Avenida 9 de Septiembre",
    "housenumber": "2601",
    "city": "San Francisco",
    "postcode": "2400",
    "lat": -31.4381361,
    "lon": -62.0972725
  },
  {
    "street": "Avenida 9 de Septiembre",
    "housenumber": "2599",
    "city": "San Francisco",
    "postcode": "2400",
    "lat": -31.4381736,
    "lon": -62.0970289
  },
  {
    "street": "Avenida 9 de Septiembre",
    "housenumber": "2402",
    "city": "San Francisco",
    "postcode": "2400",
    "lat": -31.438203,
    "lon": -62.095956
  },
  {
    "street": "Avenida 9 de Septiembre",
    "housenumber": "2501",
    "city": "San Francisco",
    "postcode": "2400",
    "lat": -31.4383065,
    "lon": -62.0962142
  },
  {
    "street": "Avenida 9 de Septiembre",
    "housenumber": "2500",
    "city": "San Francisco",
    "postcode": "2400",
    "lat": -31.4383291,
    "lon": -62.0951693
  },
  {
    "street": "Avenida 9 de Septiembre",
    "housenumber": "2499",
    "city": "San Francisco",
    "postcode": "2400",
    "lat": -31.438374,
    "lon": -62.0959558
  },
  {
    "street": "Avenida 9 de Septiembre",
    "housenumber": "2401",
    "city": "San Francisco",
    "postcode": "2400",
    "lat": -31.4384968,
    "lon": -62.0952216
  },
  {
    "street": "Avenida 9 de Septiembre",
    "housenumber": "2399",
    "city": "San Francisco",
    "postcode": "2400",
    "lat": -31.4385306,
    "lon": -62.0949364
  },
  {
    "street": "Carlos Gilli",
    "housenumber": "2800",
    "city": "San Francisco",
    "postcode": "2400",
    "lat": -31.4386063,
    "lon": -62.0991973
  },
  {
    "street": "Avenida 9 de Septiembre",
    "housenumber": "2301",
    "city": "San Francisco",
    "postcode": "2400",
    "lat": -31.4386655,
    "lon": -62.0940807
  },
  {
    "street": "Carlos Gilli",
    "housenumber": "2799",
    "city": "San Francisco",
    "postcode": "2400",
    "lat": -31.4387153,
    "lon": -62.0992652
  },
  {
    "street": "Carlos Gilli",
    "housenumber": "2702",
    "city": "San Francisco",
    "postcode": "2400",
    "lat": -31.4387358,
    "lon": -62.0984026
  },
  {
    "street": "Carlos Gilli",
    "housenumber": "2700",
    "city": "San Francisco",
    "postcode": "2400",
    "lat": -31.4387733,
    "lon": -62.098191
  },
  {
    "street": "Carlos Gilli",
    "housenumber": "2701",
    "city": "San Francisco",
    "postcode": "2400",
    "lat": -31.4388482,
    "lon": -62.0984386
  },
  {
    "street": "Carlos Gilli",
    "housenumber": "2699",
    "city": "San Francisco",
    "postcode": "2400",
    "lat": -31.4388755,
    "lon": -62.0982069
  },
  {
    "street": "Carlos Gilli",
    "housenumber": "2602",
    "city": "San Francisco",
    "postcode": "2400",
    "lat": -31.4388959,
    "lon": -62.0973803
  },
  {
    "street": "Carlos Gilli",
    "housenumber": "2600",
    "city": "San Francisco",
    "postcode": "2400",
    "lat": -31.4389164,
    "lon": -62.0971766
  },
  {
    "street": "Carlos Gilli",
    "housenumber": "2601",
    "city": "San Francisco",
    "postcode": "2400",
    "lat": -31.4390015,
    "lon": -62.0974242
  },
  {
    "street": "Carlos Gilli",
    "housenumber": "2502",
    "city": "San Francisco",
    "postcode": "2400",
    "lat": -31.4390492,
    "lon": -62.0963819
  },
  {
    "street": "Carlos Gilli",
    "housenumber": "2599",
    "city": "San Francisco",
    "postcode": "2400",
    "lat": -31.4390527,
    "lon": -62.0972285
  },
  {
    "street": "Carlos Gilli",
    "housenumber": "2500",
    "city": "San Francisco",
    "postcode": "2400",
    "lat": -31.4390849,
    "lon": -62.0961159
  },
  {
    "street": "Carlos Gilli",
    "housenumber": "2501",
    "city": "San Francisco",
    "postcode": "2400",
    "lat": -31.4391753,
    "lon": -62.0964218
  },
  {
    "street": "Carlos Gilli",
    "housenumber": "2402",
    "city": "San Francisco",
    "postcode": "2400",
    "lat": -31.439211,
    "lon": -62.0954011
  },
  {
    "street": "Carlos Gilli",
    "housenumber": "2499",
    "city": "San Francisco",
    "postcode": "2400",
    "lat": -31.4392246,
    "lon": -62.0961678
  },
  {
    "street": "Carlos Gilli",
    "housenumber": "2400",
    "city": "San Francisco",
    "postcode": "2400",
    "lat": -31.4392518,
    "lon": -62.0950616
  },
  {
    "street": "Carlos Gilli",
    "housenumber": "2401",
    "city": "San Francisco",
    "postcode": "2400",
    "lat": -31.4393472,
    "lon": -62.0953811
  },
  {
    "street": "Carlos Gilli",
    "housenumber": "2302",
    "city": "San Francisco",
    "postcode": "2400",
    "lat": -31.4393745,
    "lon": -62.0942989
  },
  {
    "street": "Carlos Gilli",
    "housenumber": "2399",
    "city": "San Francisco",
    "postcode": "2400",
    "lat": -31.4393984,
    "lon": -62.0951575
  },
  {
    "street": "Carlos Gilli",
    "housenumber": "2301",
    "city": "San Francisco",
    "postcode": "2400",
    "lat": -31.4395346,
    "lon": -62.0943028
  },
  {
    "street": "Doctor Enrique J. Carrá",
    "housenumber": "2799",
    "city": "San Francisco",
    "postcode": "2400",
    "lat": -31.4396251,
    "lon": -62.0994529
  },
  {
    "street": "Doctor Enrique J. Carrá",
    "housenumber": "2702",
    "city": "San Francisco",
    "postcode": "2400",
    "lat": -31.4396387,
    "lon": -62.0986462
  },
  {
    "street": "Doctor Enrique J. Carrá",
    "housenumber": "2700",
    "city": "San Francisco",
    "postcode": "2400",
    "lat": -31.4396898,
    "lon": -62.0983827
  },
  {
    "street": "Doctor Enrique J. Carrá",
    "housenumber": "2701",
    "city": "San Francisco",
    "postcode": "2400",
    "lat": -31.4397682,
    "lon": -62.0986742
  },
  {
    "street": "Doctor Enrique J. Carrá",
    "housenumber": "2602",
    "city": "San Francisco",
    "postcode": "2400",
    "lat": -31.4398125,
    "lon": -62.0975919
  },
  {
    "street": "Doctor Enrique J. Carrá",
    "housenumber": "2699",
    "city": "San Francisco",
    "postcode": "2400",
    "lat": -31.4398261,
    "lon": -62.0984066
  },
  {
    "street": "Doctor Enrique J. Carrá",
    "housenumber": "2600",
    "city": "San Francisco",
    "postcode": "2400",
    "lat": -31.4398363,
    "lon": -62.0974042
  },
  {
    "street": "Doctor Enrique J. Carrá",
    "housenumber": "2601",
    "city": "San Francisco",
    "postcode": "2400",
    "lat": -31.4399385,
    "lon": -62.0976518
  },
  {
    "street": "Doctor Enrique J. Carrá",
    "housenumber": "2502",
    "city": "San Francisco",
    "postcode": "2400",
    "lat": -31.4399692,
    "lon": -62.0966055
  },
  {
    "street": "Doctor Enrique J. Carrá",
    "housenumber": "2500",
    "city": "San Francisco",
    "postcode": "2400",
    "lat": -31.4400117,
    "lon": -62.0963196
  },
  {
    "street": "Doctor Enrique J. Carrá",
    "housenumber": "2402",
    "city": "San Francisco",
    "postcode": "2400",
    "lat": -31.4401275,
    "lon": -62.0956167
  },
  {
    "street": "Doctor Enrique J. Carrá",
    "housenumber": "2499",
    "city": "San Francisco",
    "postcode": "2400",
    "lat": -31.4401659,
    "lon": -62.0963891
  },
  {
    "street": "Doctor Enrique J. Carrá",
    "housenumber": "2400",
    "city": "San Francisco",
    "postcode": "2400",
    "lat": -31.4401829,
    "lon": -62.0953029
  },
  {
    "street": "Doctor Enrique J. Carrá",
    "housenumber": "2401",
    "city": "San Francisco",
    "postcode": "2400",
    "lat": -31.4402715,
    "lon": -62.0956423
  },
  {
    "street": "Doctor Enrique J. Carrá",
    "housenumber": "2302",
    "city": "San Francisco",
    "postcode": "2400",
    "lat": -31.4403192,
    "lon": -62.0944603
  },
  {
    "street": "Rioja",
    "housenumber": "2800",
    "city": "San Francisco",
    "postcode": "2400",
    "lat": -31.4404019,
    "lon": -62.0995488
  },
  {
    "street": "Rioja",
    "housenumber": "2702",
    "city": "San Francisco",
    "postcode": "2400",
    "lat": -31.440528,
    "lon": -62.0988579
  },
  {
    "street": "Rioja",
    "housenumber": "2799",
    "city": "San Francisco",
    "postcode": "2400",
    "lat": -31.4405382,
    "lon": -62.0996007
  },
  {
    "street": "Rioja",
    "housenumber": "2700",
    "city": "San Francisco",
    "postcode": "2400",
    "lat": -31.4405621,
    "lon": -62.0985823
  },
  {
    "street": "Rioja",
    "housenumber": "2701",
    "city": "San Francisco",
    "postcode": "2400",
    "lat": -31.4406404,
    "lon": -62.0988978
  },
  {
    "street": "Rioja",
    "housenumber": "2602",
    "city": "San Francisco",
    "postcode": "2400",
    "lat": -31.4406881,
    "lon": -62.0978395
  },
  {
    "street": "Rioja",
    "housenumber": "2699",
    "city": "San Francisco",
    "postcode": "2400",
    "lat": -31.4407052,
    "lon": -62.0986183
  },
  {
    "street": "Rioja",
    "housenumber": "2601",
    "city": "San Francisco",
    "postcode": "2400",
    "lat": -31.4408414,
    "lon": -62.0978355
  },
  {
    "street": "Rioja",
    "housenumber": "2599",
    "city": "San Francisco",
    "postcode": "2400",
    "lat": -31.4408619,
    "lon": -62.0975999
  },
  {
    "street": "Rioja",
    "housenumber": "2500",
    "city": "San Francisco",
    "postcode": "2400",
    "lat": -31.4408882,
    "lon": -62.0965009
  },
  {
    "street": "Rioja",
    "housenumber": "2501",
    "city": "San Francisco",
    "postcode": "2400",
    "lat": -31.4409914,
    "lon": -62.0967972
  },
  {
    "street": "Rioja",
    "housenumber": "2402",
    "city": "San Francisco",
    "postcode": "2400",
    "lat": -31.4410143,
    "lon": -62.0958101
  },
  {
    "street": "Rioja",
    "housenumber": "2499",
    "city": "San Francisco",
    "postcode": "2400",
    "lat": -31.4410279,
    "lon": -62.0965968
  },
  {
    "street": "Rioja",
    "housenumber": "2400",
    "city": "San Francisco",
    "postcode": "2400",
    "lat": -31.4410654,
    "lon": -62.0954506
  },
  {
    "street": "Rioja",
    "housenumber": "2401",
    "city": "San Francisco",
    "postcode": "2400",
    "lat": -31.4411574,
    "lon": -62.095838
  },
  {
    "street": "Rioja",
    "housenumber": "2302",
    "city": "San Francisco",
    "postcode": "2400",
    "lat": -31.441188,
    "lon": -62.0946959
  },
  {
    "street": "Rioja",
    "housenumber": "2399",
    "city": "San Francisco",
    "postcode": "2400",
    "lat": -31.4412085,
    "lon": -62.0955145
  },
  {
    "street": "Catamarca",
    "housenumber": "2800",
    "city": "San Francisco",
    "postcode": "2400",
    "lat": -31.4413116,
    "lon": -62.0997524
  },
  {
    "street": "Rioja",
    "housenumber": "2301",
    "city": "San Francisco",
    "postcode": "2400",
    "lat": -31.4413277,
    "lon": -62.0947198
  },
  {
    "street": "Catamarca",
    "housenumber": "2702",
    "city": "San Francisco",
    "postcode": "2400",
    "lat": -31.4414241,
    "lon": -62.0990576
  },
  {
    "street": "Catamarca",
    "housenumber": "2799",
    "city": "San Francisco",
    "postcode": "2400",
    "lat": -31.4414513,
    "lon": -62.0997844
  },
  {
    "street": "Catamarca",
    "housenumber": "2700",
    "city": "San Francisco",
    "postcode": "2400",
    "lat": -31.4414684,
    "lon": -62.098774
  },
  {
    "street": "Catamarca",
    "housenumber": "2701",
    "city": "San Francisco",
    "postcode": "2400",
    "lat": -31.4415672,
    "lon": -62.0990975
  },
  {
    "street": "Catamarca",
    "housenumber": "2602",
    "city": "San Francisco",
    "postcode": "2400",
    "lat": -31.4415842,
    "lon": -62.0980472
  },
  {
    "street": "Catamarca",
    "housenumber": "2699",
    "city": "San Francisco",
    "postcode": "2400",
    "lat": -31.4416081,
    "lon": -62.098802
  },
  {
    "street": "Catamarca",
    "housenumber": "2600",
    "city": "San Francisco",
    "postcode": "2400",
    "lat": -31.4416319,
    "lon": -62.0977836
  },
  {
    "street": "Catamarca",
    "housenumber": "2601",
    "city": "San Francisco",
    "postcode": "2400",
    "lat": -31.4417307,
    "lon": -62.0980712
  },
  {
    "street": "Catamarca",
    "housenumber": "2502",
    "city": "San Francisco",
    "postcode": "2400",
    "lat": -31.4417512,
    "lon": -62.0970249
  },
  {
    "street": "Catamarca",
    "housenumber": "2500",
    "city": "San Francisco",
    "postcode": "2400",
    "lat": -31.4417722,
    "lon": -62.0967107
  },
  {
    "street": "Catamarca",
    "housenumber": "2599",
    "city": "San Francisco",
    "postcode": "2400",
    "lat": -31.441775,
    "lon": -62.0977916
  },
  {
    "street": "Catamarca",
    "housenumber": "2501",
    "city": "San Francisco",
    "postcode": "2400",
    "lat": -31.4418908,
    "lon": -62.0970448
  },
  {
    "street": "Catamarca",
    "housenumber": "2402",
    "city": "San Francisco",
    "postcode": "2400",
    "lat": -31.4419051,
    "lon": -62.0960038
  },
  {
    "street": "Catamarca",
    "housenumber": "2499",
    "city": "San Francisco",
    "postcode": "2400",
    "lat": -31.4419494,
    "lon": -62.0967746
  },
  {
    "street": "Catamarca",
    "housenumber": "2400",
    "city": "San Francisco",
    "postcode": "2400",
    "lat": -31.4419528,
    "lon": -62.0956764
  },
  {
    "street": "Catamarca",
    "housenumber": "2401",
    "city": "San Francisco",
    "postcode": "2400",
    "lat": -31.4420686,
    "lon": -62.0960637
  },
  {
    "street": "Catamarca",
    "housenumber": "2302",
    "city": "San Francisco",
    "postcode": "2400",
    "lat": -31.4420856,
    "lon": -62.0949016
  },
  {
    "street": "Catamarca",
    "housenumber": "2399",
    "city": "San Francisco",
    "postcode": "2400",
    "lat": -31.4421095,
    "lon": -62.0957243
  },
  {
    "street": "Catamarca",
    "housenumber": "2301",
    "city": "San Francisco",
    "postcode": "2400",
    "lat": -31.4422253,
    "lon": -62.0949296
  },
  {
    "street": "Antártida Argentina",
    "housenumber": "2800",
    "city": "San Francisco",
    "postcode": "2400",
    "lat": -31.4422793,
    "lon": -62.0999042
  },
  {
    "street": "Antártida Argentina",
    "housenumber": "2702",
    "city": "San Francisco",
    "postcode": "2400",
    "lat": -31.4423815,
    "lon": -62.0992892
  },
  {
    "street": "Antártida Argentina",
    "housenumber": "2799",
    "city": "San Francisco",
    "postcode": "2400",
    "lat": -31.4424326,
    "lon": -62.0999441
  },
  {
    "street": "Antártida Argentina",
    "housenumber": "2700",
    "city": "San Francisco",
    "postcode": "2400",
    "lat": -31.4424428,
    "lon": -62.0989697
  },
  {
    "street": "Antártida Argentina",
    "housenumber": "2701",
    "city": "San Francisco",
    "postcode": "2400",
    "lat": -31.4425382,
    "lon": -62.0993012
  },
  {
    "street": "Antártida Argentina",
    "housenumber": "2602",
    "city": "San Francisco",
    "postcode": "2400",
    "lat": -31.4425621,
    "lon": -62.0982708
  },
  {
    "street": "Antártida Argentina",
    "housenumber": "2699",
    "city": "San Francisco",
    "postcode": "2400",
    "lat": -31.4425927,
    "lon": -62.0990096
  },
  {
    "street": "Antártida Argentina",
    "housenumber": "2600",
    "city": "San Francisco",
    "postcode": "2400",
    "lat": -31.4426029,
    "lon": -62.0979833
  },
  {
    "street": "Antártida Argentina",
    "housenumber": "2601",
    "city": "San Francisco",
    "postcode": "2400",
    "lat": -31.442712,
    "lon": -62.0982988
  },
  {
    "street": "Antártida Argentina",
    "housenumber": "2502",
    "city": "San Francisco",
    "postcode": "2400",
    "lat": -31.4427154,
    "lon": -62.0972645
  },
  {
    "street": "Antártida Argentina",
    "housenumber": "2500",
    "city": "San Francisco",
    "postcode": "2400",
    "lat": -31.4427665,
    "lon": -62.096945
  },
  {
    "street": "Antártida Argentina",
    "housenumber": "2599",
    "city": "San Francisco",
    "postcode": "2400",
    "lat": -31.4427733,
    "lon": -62.0979913
  },
  {
    "street": "Antártida Argentina",
    "housenumber": "2501",
    "city": "San Francisco",
    "postcode": "2400",
    "lat": -31.4428789,
    "lon": -62.0973244
  },
  {
    "street": "Antártida Argentina",
    "housenumber": "2402",
    "city": "San Francisco",
    "postcode": "2400",
    "lat": -31.4428823,
    "lon": -62.0962381
  },
  {
    "street": "Antártida Argentina",
    "housenumber": "2499",
    "city": "San Francisco",
    "postcode": "2400",
    "lat": -31.4429232,
    "lon": -62.096969
  },
  {
    "street": "Antártida Argentina",
    "housenumber": "2400",
    "city": "San Francisco",
    "postcode": "2400",
    "lat": -31.442951,
    "lon": -62.0958641
  },
  {
    "street": "Antártida Argentina",
    "housenumber": "2401",
    "city": "San Francisco",
    "postcode": "2400",
    "lat": -31.4430425,
    "lon": -62.0962222
  },
  {
    "street": "Antártida Argentina",
    "housenumber": "2302",
    "city": "San Francisco",
    "postcode": "2400",
    "lat": -31.4430737,
    "lon": -62.0951133
  },
  {
    "street": "Antártida Argentina",
    "housenumber": "2399",
    "city": "San Francisco",
    "postcode": "2400",
    "lat": -31.4431078,
    "lon": -62.0959439
  },
  {
    "street": "Juan de Solís",
    "housenumber": "2800",
    "city": "San Francisco",
    "postcode": "2400",
    "lat": -31.4431549,
    "lon": -62.1001059
  },
  {
    "street": "Antártida Argentina",
    "housenumber": "2301",
    "city": "San Francisco",
    "postcode": "2400",
    "lat": -31.4432304,
    "lon": -62.0951452
  },
  {
    "street": "Juan de Solís",
    "housenumber": "2702",
    "city": "San Francisco",
    "postcode": "2400",
    "lat": -31.4432571,
    "lon": -62.0994709
  },
  {
    "street": "Juan de Solís",
    "housenumber": "2700",
    "city": "San Francisco",
    "postcode": "2400",
    "lat": -31.443298,
    "lon": -62.0991294
  },
  {
    "street": "Juan de Solís",
    "housenumber": "2799",
    "city": "San Francisco",
    "postcode": "2400",
    "lat": -31.4433457,
    "lon": -62.1001218
  },
  {
    "street": "Juan de Solís",
    "housenumber": "2602",
    "city": "San Francisco",
    "postcode": "2400",
    "lat": -31.4434002,
    "lon": -62.0985144
  },
  {
    "street": "Juan de Solís",
    "housenumber": "2701",
    "city": "San Francisco",
    "postcode": "2400",
    "lat": -31.4434275,
    "lon": -62.0995148
  },
  {
    "street": "Juan de Solís",
    "housenumber": "2600",
    "city": "San Francisco",
    "postcode": "2400",
    "lat": -31.4434615,
    "lon": -62.098151
  },
  {
    "street": "Juan de Solís",
    "housenumber": "2699",
    "city": "San Francisco",
    "postcode": "2400",
    "lat": -31.4434615,
    "lon": -62.0991814
  },
  {
    "street": "Juan de Solís",
    "housenumber": "2601",
    "city": "San Francisco",
    "postcode": "2400",
    "lat": -31.4435603,
    "lon": -62.0985224
  },
  {
    "street": "Juan de Solís",
    "housenumber": "2502",
    "city": "San Francisco",
    "postcode": "2400",
    "lat": -31.4435774,
    "lon": -62.0974522
  },
  {
    "street": "Juan de Solís",
    "housenumber": "2500",
    "city": "San Francisco",
    "postcode": "2400",
    "lat": -31.4436183,
    "lon": -62.0970928
  },
  {
    "street": "Juan de Solís",
    "housenumber": "2599",
    "city": "San Francisco",
    "postcode": "2400",
    "lat": -31.4436455,
    "lon": -62.098175
  },
  {
    "street": "Juan de Solís",
    "housenumber": "2402",
    "city": "San Francisco",
    "postcode": "2400",
    "lat": -31.4437341,
    "lon": -62.0964139
  },
  {
    "street": "Juan de Solís",
    "housenumber": "2501",
    "city": "San Francisco",
    "postcode": "2400",
    "lat": -31.4437443,
    "lon": -62.0974801
  },
  {
    "street": "Juan de Solís",
    "housenumber": "2499",
    "city": "San Francisco",
    "postcode": "2400",
    "lat": -31.443792,
    "lon": -62.0972006
  },
  {
    "street": "Juan de Solís",
    "housenumber": "2400",
    "city": "San Francisco",
    "postcode": "2400",
    "lat": -31.4438062,
    "lon": -62.0960997
  },
  {
    "street": "Juan de Solís",
    "housenumber": "2401",
    "city": "San Francisco",
    "postcode": "2400",
    "lat": -31.4439181,
    "lon": -62.0963859
  },
  {
    "street": "Juan de Solís",
    "housenumber": "2302",
    "city": "San Francisco",
    "postcode": "2400",
    "lat": -31.4439493,
    "lon": -62.095293
  },
  {
    "street": "Juan de Solís",
    "housenumber": "2399",
    "city": "San Francisco",
    "postcode": "2400",
    "lat": -31.4439766,
    "lon": -62.0961157
  },
  {
    "street": "Juan de Solís",
    "housenumber": "2301",
    "city": "San Francisco",
    "postcode": "2400",
    "lat": -31.4440958,
    "lon": -62.0953569
  },
  {
    "street": "Caseros",
    "housenumber": "1001",
    "city": "San Francisco",
    "postcode": "2400",
    "lat": -31.4370071,
    "lon": -62.0988935
  },
  {
    "street": "Caseros",
    "housenumber": "1099",
    "city": "San Francisco",
    "postcode": "2400",
    "lat": -31.4377329,
    "lon": -62.0990492
  },
  {
    "street": "French y Berutti",
    "housenumber": "2301",
    "city": "San Francisco",
    "postcode": "2400",
    "lat": -31.4378402,
    "lon": -62.0939136
  },
  {
    "street": "Avenida 9 de Septiembre",
    "housenumber": "2302",
    "city": "San Francisco",
    "postcode": "2400",
    "lat": -31.4384944,
    "lon": -62.0941013
  },
  {
    "street": "French y Berutti",
    "housenumber": "2399",
    "city": "San Francisco",
    "postcode": "2400",
    "lat": -31.4377005,
    "lon": -62.0947482
  },
  {
    "street": "Avenida 9 de Septiembre",
    "housenumber": "2400",
    "city": "San Francisco",
    "postcode": "2400",
    "lat": -31.4383819,
    "lon": -62.094892
  },
  {
    "street": "Avenida 9 de Septiembre",
    "housenumber": "2502",
    "city": "San Francisco",
    "postcode": "2400",
    "lat": -31.4381826,
    "lon": -62.0962178
  },
  {
    "street": "Avenida 9 de Septiembre",
    "housenumber": "2800",
    "city": "San Francisco",
    "postcode": "2400",
    "lat": -31.4377363,
    "lon": -62.0989853
  },
  {
    "street": "French y Berutti",
    "housenumber": "2799",
    "city": "San Francisco",
    "postcode": "2400",
    "lat": -31.4370105,
    "lon": -62.0988496
  },
  {
    "street": "French y Berutti",
    "housenumber": "2501",
    "city": "San Francisco",
    "postcode": "2400",
    "lat": -31.4374705,
    "lon": -62.0960741
  },
  {
    "street": "French y Berutti",
    "housenumber": "2299",
    "city": "San Francisco",
    "postcode": "2400",
    "lat": -31.4378915,
    "lon": -62.0937155
  },
  {
    "street": "French y Berutti",
    "housenumber": "2201",
    "city": "San Francisco",
    "postcode": "2400",
    "lat": -31.4380891,
    "lon": -62.0925254
  },
  {
    "street": "French y Berutti",
    "housenumber": "2199",
    "city": "San Francisco",
    "postcode": "2400",
    "lat": -31.4381232,
    "lon": -62.0923417
  },
  {
    "street": "French y Berutti",
    "housenumber": "2101",
    "city": "San Francisco",
    "postcode": "2400",
    "lat": -31.4382595,
    "lon": -62.0914791
  },
  {
    "street": "French y Berutti",
    "housenumber": "2099",
    "city": "San Francisco",
    "postcode": "2400",
    "lat": -31.4383004,
    "lon": -62.0912714
  },
  {
    "street": "French y Berutti",
    "housenumber": "2001",
    "city": "San Francisco",
    "postcode": "2400",
    "lat": -31.4384298,
    "lon": -62.0904568
  },
  {
    "street": "French y Berutti",
    "housenumber": "1999",
    "city": "San Francisco",
    "postcode": "2400",
    "lat": -31.4384844,
    "lon": -62.0902411
  },
  {
    "street": "Avenida 9 de Septiembre",
    "housenumber": "2300",
    "city": "San Francisco",
    "postcode": "2400",
    "lat": -31.4385252,
    "lon": -62.0938353
  },
  {
    "street": "French y Berutti",
    "housenumber": "1901",
    "city": "San Francisco",
    "postcode": "2400",
    "lat": -31.4386275,
    "lon": -62.0893705
  },
  {
    "street": "French y Berutti",
    "housenumber": "1899",
    "city": "San Francisco",
    "postcode": "2400",
    "lat": -31.4386479,
    "lon": -62.0891788
  },
  {
    "street": "Avenida 9 de Septiembre",
    "housenumber": "2202",
    "city": "San Francisco",
    "postcode": "2400",
    "lat": -31.4387161,
    "lon": -62.0926612
  },
  {
    "street": "Avenida 9 de Septiembre",
    "housenumber": "2200",
    "city": "San Francisco",
    "postcode": "2400",
    "lat": -31.4387365,
    "lon": -62.0924775
  },
  {
    "street": "Avenida 9 de Septiembre",
    "housenumber": "2299",
    "city": "San Francisco",
    "postcode": "2400",
    "lat": -31.4387433,
    "lon": -62.0938672
  },
  {
    "street": "French y Berutti",
    "housenumber": "1801",
    "city": "San Francisco",
    "postcode": "2400",
    "lat": -31.4387842,
    "lon": -62.0883083
  },
  {
    "street": "French y Berutti",
    "housenumber": "1799",
    "city": "San Francisco",
    "postcode": "2400",
    "lat": -31.4388251,
    "lon": -62.0881086
  },
  {
    "street": "Avenida 9 de Septiembre",
    "housenumber": "2102",
    "city": "San Francisco",
    "postcode": "2400",
    "lat": -31.4388592,
    "lon": -62.0916468
  },
  {
    "street": "Avenida 9 de Septiembre",
    "housenumber": "2201",
    "city": "San Francisco",
    "postcode": "2400",
    "lat": -31.4389,
    "lon": -62.092749
  },
  {
    "street": "Avenida 9 de Septiembre",
    "housenumber": "2100",
    "city": "San Francisco",
    "postcode": "2400",
    "lat": -31.4389069,
    "lon": -62.0914072
  },
  {
    "street": "Avenida 9 de Septiembre",
    "housenumber": "2199",
    "city": "San Francisco",
    "postcode": "2400",
    "lat": -31.4389409,
    "lon": -62.0925094
  },
  {
    "street": "French y Berutti",
    "housenumber": "1701",
    "city": "San Francisco",
    "postcode": "2400",
    "lat": -31.4389818,
    "lon": -62.0871901
  },
  {
    "street": "French y Berutti",
    "housenumber": "1699",
    "city": "San Francisco",
    "postcode": "2400",
    "lat": -31.4390295,
    "lon": -62.0869744
  },
  {
    "street": "Avenida 9 de Septiembre",
    "housenumber": "2002",
    "city": "San Francisco",
    "postcode": "2400",
    "lat": -31.4390363,
    "lon": -62.0905925
  },
  {
    "street": "Avenida 9 de Septiembre",
    "housenumber": "2000",
    "city": "San Francisco",
    "postcode": "2400",
    "lat": -31.4390568,
    "lon": -62.0903689
  },
  {
    "street": "Avenida 9 de Septiembre",
    "housenumber": "2101",
    "city": "San Francisco",
    "postcode": "2400",
    "lat": -31.4390636,
    "lon": -62.0916788
  },
  {
    "street": "Avenida 9 de Septiembre",
    "housenumber": "2099",
    "city": "San Francisco",
    "postcode": "2400",
    "lat": -31.4391181,
    "lon": -62.0914551
  },
  {
    "street": "French y Berutti",
    "housenumber": "1601",
    "city": "San Francisco",
    "postcode": "2400",
    "lat": -31.4391658,
    "lon": -62.0861198
  },
  {
    "street": "Avenida 9 de Septiembre",
    "housenumber": "1902",
    "city": "San Francisco",
    "postcode": "2400",
    "lat": -31.4391931,
    "lon": -62.0895063
  },
  {
    "street": "French y Berutti",
    "housenumber": "1599",
    "city": "San Francisco",
    "postcode": "2400",
    "lat": -31.4391999,
    "lon": -62.0859042
  },
  {
    "street": "Avenida 9 de Septiembre",
    "housenumber": "2001",
    "city": "San Francisco",
    "postcode": "2400",
    "lat": -31.4392408,
    "lon": -62.0906325
  },
  {
    "street": "Avenida 9 de Septiembre",
    "housenumber": "1900",
    "city": "San Francisco",
    "postcode": "2400",
    "lat": -31.4392476,
    "lon": -62.0892907
  },
  {
    "street": "Avenida 9 de Septiembre",
    "housenumber": "1999",
    "city": "San Francisco",
    "postcode": "2400",
    "lat": -31.4392748,
    "lon": -62.0904328
  },
  {
    "street": "French y Berutti",
    "housenumber": "1501",
    "city": "San Francisco",
    "postcode": "2400",
    "lat": -31.4393294,
    "lon": -62.0850575
  },
  {
    "street": "French y Berutti",
    "housenumber": "1499",
    "city": "San Francisco",
    "postcode": "2400",
    "lat": -31.4393839,
    "lon": -62.0848499
  },
  {
    "street": "Avenida 9 de Septiembre",
    "housenumber": "1802",
    "city": "San Francisco",
    "postcode": "2400",
    "lat": -31.4393839,
    "lon": -62.08846
  },
  {
    "street": "Avenida 9 de Septiembre",
    "housenumber": "1800",
    "city": "San Francisco",
    "postcode": "2400",
    "lat": -31.4394179,
    "lon": -62.0882204
  },
  {
    "street": "Carlos Gilli",
    "housenumber": "2300",
    "city": "San Francisco",
    "postcode": "2400",
    "lat": -31.4394179,
    "lon": -62.094027
  },
  {
    "street": "Avenida 9 de Septiembre",
    "housenumber": "1901",
    "city": "San Francisco",
    "postcode": "2400",
    "lat": -31.4394248,
    "lon": -62.0895542
  },
  {
    "street": "Avenida 9 de Septiembre",
    "housenumber": "1899",
    "city": "San Francisco",
    "postcode": "2400",
    "lat": -31.439452,
    "lon": -62.0893306
  },
  {
    "street": "French y Berutti",
    "housenumber": "1401",
    "city": "San Francisco",
    "postcode": "2400",
    "lat": -31.439527,
    "lon": -62.0840272
  },
  {
    "street": "French y Berutti",
    "housenumber": "1399",
    "city": "San Francisco",
    "postcode": "2400",
    "lat": -31.4395542,
    "lon": -62.0837876
  },
  {
    "street": "Avenida 9 de Septiembre",
    "housenumber": "1702",
    "city": "San Francisco",
    "postcode": "2400",
    "lat": -31.4395679,
    "lon": -62.0873418
  },
  {
    "street": "Carlos Gilli",
    "housenumber": "2202",
    "city": "San Francisco",
    "postcode": "2400",
    "lat": -31.4395747,
    "lon": -62.0928928
  },
  {
    "street": "Avenida 9 de Septiembre",
    "housenumber": "1801",
    "city": "San Francisco",
    "postcode": "2400",
    "lat": -31.4395815,
    "lon": -62.0884999
  },
  {
    "street": "Avenida 9 de Septiembre",
    "housenumber": "1700",
    "city": "San Francisco",
    "postcode": "2400",
    "lat": -31.4396087,
    "lon": -62.0871022
  },
  {
    "street": "Avenida 9 de Septiembre",
    "housenumber": "1799",
    "city": "San Francisco",
    "postcode": "2400",
    "lat": -31.4396087,
    "lon": -62.0882364
  },
  {
    "street": "Carlos Gilli",
    "housenumber": "2299",
    "city": "San Francisco",
    "postcode": "2400",
    "lat": -31.4396224,
    "lon": -62.0940749
  },
  {
    "street": "Carlos Gilli",
    "housenumber": "2200",
    "city": "San Francisco",
    "postcode": "2400",
    "lat": -31.439636,
    "lon": -62.0926532
  },
  {
    "street": "French y Berutti",
    "housenumber": "1301",
    "city": "San Francisco",
    "postcode": "2400",
    "lat": -31.4396837,
    "lon": -62.0829729
  },
  {
    "street": "French y Berutti",
    "housenumber": "1299",
    "city": "San Francisco",
    "postcode": "2400",
    "lat": -31.4397178,
    "lon": -62.0827573
  },
  {
    "street": "Avenida 9 de Septiembre",
    "housenumber": "1602",
    "city": "San Francisco",
    "postcode": "2400",
    "lat": -31.4397246,
    "lon": -62.0862716
  },
  {
    "street": "Avenida 9 de Septiembre",
    "housenumber": "1701",
    "city": "San Francisco",
    "postcode": "2400",
    "lat": -31.4397655,
    "lon": -62.0873818
  },
  {
    "street": "Carlos Gilli",
    "housenumber": "2102",
    "city": "San Francisco",
    "postcode": "2400",
    "lat": -31.4397723,
    "lon": -62.0918305
  },
  {
    "street": "Avenida 9 de Septiembre",
    "housenumber": "1600",
    "city": "San Francisco",
    "postcode": "2400",
    "lat": -31.4397791,
    "lon": -62.0860479
  },
  {
    "street": "Carlos Gilli",
    "housenumber": "2201",
    "city": "San Francisco",
    "postcode": "2400",
    "lat": -31.4397791,
    "lon": -62.0929807
  },
  {
    "street": "Avenida 9 de Septiembre",
    "housenumber": "1699",
    "city": "San Francisco",
    "postcode": "2400",
    "lat": -31.4397996,
    "lon": -62.0871421
  },
  {
    "street": "Carlos Gilli",
    "housenumber": "2100",
    "city": "San Francisco",
    "postcode": "2400",
    "lat": -31.4398132,
    "lon": -62.0916069
  },
  {
    "street": "Carlos Gilli",
    "housenumber": "2199",
    "city": "San Francisco",
    "postcode": "2400",
    "lat": -31.4398132,
    "lon": -62.0927011
  },
  {
    "street": "French y Berutti",
    "housenumber": "1201",
    "city": "San Francisco",
    "postcode": "2400",
    "lat": -31.4398609,
    "lon": -62.0818707
  },
  {
    "street": "Avenida 9 de Septiembre",
    "housenumber": "1502",
    "city": "San Francisco",
    "postcode": "2400",
    "lat": -31.4399086,
    "lon": -62.0851933
  },
  {
    "street": "Carlos Gilli",
    "housenumber": "2002",
    "city": "San Francisco",
    "postcode": "2400",
    "lat": -31.4399358,
    "lon": -62.0907683
  },
  {
    "street": "Avenida 9 de Septiembre",
    "housenumber": "1500",
    "city": "San Francisco",
    "postcode": "2400",
    "lat": -31.4399427,
    "lon": -62.0849777
  },
  {
    "street": "Carlos Gilli",
    "housenumber": "2101",
    "city": "San Francisco",
    "postcode": "2400",
    "lat": -31.4399631,
    "lon": -62.0918705
  },
  {
    "street": "Carlos Gilli",
    "housenumber": "2000",
    "city": "San Francisco",
    "postcode": "2400",
    "lat": -31.4399904,
    "lon": -62.0905686
  },
  {
    "street": "Carlos Gilli",
    "housenumber": "2099",
    "city": "San Francisco",
    "postcode": "2400",
    "lat": -31.4399904,
    "lon": -62.0916388
  },
  {
    "street": "Avenida 9 de Septiembre",
    "housenumber": "1601",
    "city": "San Francisco",
    "postcode": "2400",
    "lat": -31.4399972,
    "lon": -62.0858802
  },
  {
    "street": "Avenida 9 de Septiembre",
    "housenumber": "1599",
    "city": "San Francisco",
    "postcode": "2400",
    "lat": -31.4400449,
    "lon": -62.0856326
  },
  {
    "street": "Avenida 9 de Septiembre",
    "housenumber": "1402",
    "city": "San Francisco",
    "postcode": "2400",
    "lat": -31.4400721,
    "lon": -62.084155
  },
  {
    "street": "Avenida 9 de Septiembre",
    "housenumber": "1400",
    "city": "San Francisco",
    "postcode": "2400",
    "lat": -31.440113,
    "lon": -62.0839154
  },
  {
    "street": "Carlos Gilli",
    "housenumber": "1902",
    "city": "San Francisco",
    "postcode": "2400",
    "lat": -31.4401266,
    "lon": -62.089698
  },
  {
    "street": "Carlos Gilli",
    "housenumber": "2001",
    "city": "San Francisco",
    "postcode": "2400",
    "lat": -31.4401266,
    "lon": -62.0908242
  },
  {
    "street": "Carlos Gilli",
    "housenumber": "1900",
    "city": "San Francisco",
    "postcode": "2400",
    "lat": -31.4401539,
    "lon": -62.0894903
  },
  {
    "street": "Carlos Gilli",
    "housenumber": "1999",
    "city": "San Francisco",
    "postcode": "2400",
    "lat": -31.4401675,
    "lon": -62.0905846
  },
  {
    "street": "Avenida 9 de Septiembre",
    "housenumber": "1302",
    "city": "San Francisco",
    "postcode": "2400",
    "lat": -31.4402561,
    "lon": -62.0830767
  },
  {
    "street": "Avenida 9 de Septiembre",
    "housenumber": "1300",
    "city": "San Francisco",
    "postcode": "2400",
    "lat": -31.4402834,
    "lon": -62.0828291
  },
  {
    "street": "Carlos Gilli",
    "housenumber": "1802",
    "city": "San Francisco",
    "postcode": "2400",
    "lat": -31.4402834,
    "lon": -62.0886517
  },
  {
    "street": "Carlos Gilli",
    "housenumber": "1901",
    "city": "San Francisco",
    "postcode": "2400",
    "lat": -31.4403106,
    "lon": -62.0897619
  },
  {
    "street": "Doctor Enrique J. Carrá",
    "housenumber": "2300",
    "city": "San Francisco",
    "postcode": "2400",
    "lat": -31.4403106,
    "lon": -62.0942266
  },
  {
    "street": "Carlos Gilli",
    "housenumber": "1800",
    "city": "San Francisco",
    "postcode": "2400",
    "lat": -31.4403174,
    "lon": -62.0884121
  },
  {
    "street": "Carlos Gilli",
    "housenumber": "1899",
    "city": "San Francisco",
    "postcode": "2400",
    "lat": -31.4403515,
    "lon": -62.0895223
  },
  {
    "street": "Avenida 9 de Septiembre",
    "housenumber": "1202",
    "city": "San Francisco",
    "postcode": "2400",
    "lat": -31.440406,
    "lon": -62.0820145
  },
  {
    "street": "Avenida 9 de Septiembre",
    "housenumber": "1301",
    "city": "San Francisco",
    "postcode": "2400",
    "lat": -31.4404469,
    "lon": -62.0831247
  },
  {
    "street": "Carlos Gilli",
    "housenumber": "1702",
    "city": "San Francisco",
    "postcode": "2400",
    "lat": -31.4404674,
    "lon": -62.0875974
  },
  {
    "street": "Avenida 9 de Septiembre",
    "housenumber": "1299",
    "city": "San Francisco",
    "postcode": "2400",
    "lat": -31.4404878,
    "lon": -62.0828771
  },
  {
    "street": "Doctor Enrique J. Carrá",
    "housenumber": "2202",
    "city": "San Francisco",
    "postcode": "2400",
    "lat": -31.4404878,
    "lon": -62.0930685
  },
  {
    "street": "Carlos Gilli",
    "housenumber": "1801",
    "city": "San Francisco",
    "postcode": "2400",
    "lat": -31.4404946,
    "lon": -62.0886836
  },
  {
    "street": "Carlos Gilli",
    "housenumber": "1799",
    "city": "San Francisco",
    "postcode": "2400",
    "lat": -31.4405083,
    "lon": -62.088452
  },
  {
    "street": "Carlos Gilli",
    "housenumber": "1700",
    "city": "San Francisco",
    "postcode": "2400",
    "lat": -31.4405151,
    "lon": -62.0873099
  },
  {
    "street": "Doctor Enrique J. Carrá",
    "housenumber": "2200",
    "city": "San Francisco",
    "postcode": "2400",
    "lat": -31.4405423,
    "lon": -62.0928449
  },
  {
    "street": "Avenida 9 de Septiembre",
    "housenumber": "1201",
    "city": "San Francisco",
    "postcode": "2400",
    "lat": -31.4406173,
    "lon": -62.0820624
  },
  {
    "street": "Doctor Enrique J. Carrá",
    "housenumber": "2102",
    "city": "San Francisco",
    "postcode": "2400",
    "lat": -31.4406582,
    "lon": -62.0920142
  },
  {
    "street": "Carlos Gilli",
    "housenumber": "1701",
    "city": "San Francisco",
    "postcode": "2400",
    "lat": -31.4406718,
    "lon": -62.0875974
  },
  {
    "street": "Doctor Enrique J. Carrá",
    "housenumber": "2100",
    "city": "San Francisco",
    "postcode": "2400",
    "lat": -31.4406922,
    "lon": -62.0917906
  },
  {
    "street": "Carlos Gilli",
    "housenumber": "1699",
    "city": "San Francisco",
    "postcode": "2400",
    "lat": -31.4407059,
    "lon": -62.0873498
  },
  {
    "street": "Carlos Gilli",
    "housenumber": "1602",
    "city": "San Francisco",
    "postcode": "2400",
    "lat": -31.4407399,
    "lon": -62.0860559
  },
  {
    "street": "Doctor Enrique J. Carrá",
    "housenumber": "2002",
    "city": "San Francisco",
    "postcode": "2400",
    "lat": -31.4408353,
    "lon": -62.0909679
  },
  {
    "street": "Doctor Enrique J. Carrá",
    "housenumber": "2000",
    "city": "San Francisco",
    "postcode": "2400",
    "lat": -31.4408694,
    "lon": -62.0907603
  },
  {
    "street": "Carlos Gilli",
    "housenumber": "1601",
    "city": "San Francisco",
    "postcode": "2400",
    "lat": -31.4409307,
    "lon": -62.0860799
  },
  {
    "street": "Doctor Enrique J. Carrá",
    "housenumber": "1902",
    "city": "San Francisco",
    "postcode": "2400",
    "lat": -31.4410125,
    "lon": -62.0899057
  },
  {
    "street": "Doctor Enrique J. Carrá",
    "housenumber": "1900",
    "city": "San Francisco",
    "postcode": "2400",
    "lat": -31.4410261,
    "lon": -62.08969
  },
  {
    "street": "Carlos Gilli",
    "housenumber": "1300",
    "city": "San Francisco",
    "postcode": "2400",
    "lat": -31.4411011,
    "lon": -62.0830368
  },
  {
    "street": "Doctor Enrique J. Carrá",
    "housenumber": "1802",
    "city": "San Francisco",
    "postcode": "2400",
    "lat": -31.4411692,
    "lon": -62.0888354
  },
  {
    "street": "Carlos Gilli",
    "housenumber": "1202",
    "city": "San Francisco",
    "postcode": "2400",
    "lat": -31.4412306,
    "lon": -62.0822062
  },
  {
    "street": "Doctor Enrique J. Carrá",
    "housenumber": "1800",
    "city": "San Francisco",
    "postcode": "2400",
    "lat": -31.4412306,
    "lon": -62.0885958
  },
  {
    "street": "Carlos Gilli",
    "housenumber": "1299",
    "city": "San Francisco",
    "postcode": "2400",
    "lat": -31.4412919,
    "lon": -62.0830688
  },
  {
    "street": "Doctor Enrique J. Carrá",
    "housenumber": "1702",
    "city": "San Francisco",
    "postcode": "2400",
    "lat": -31.4413669,
    "lon": -62.0877571
  },
  {
    "street": "Doctor Enrique J. Carrá",
    "housenumber": "1700",
    "city": "San Francisco",
    "postcode": "2400",
    "lat": -31.4414009,
    "lon": -62.0875335
  },
  {
    "street": "Carlos Gilli",
    "housenumber": "1201",
    "city": "San Francisco",
    "postcode": "2400",
    "lat": -31.4414282,
    "lon": -62.0822301
  },
  {
    "street": "Doctor Enrique J. Carrá",
    "housenumber": "1602",
    "city": "San Francisco",
    "postcode": "2400",
    "lat": -31.4415917,
    "lon": -62.0862236
  },
  {
    "street": "Doctor Enrique J. Carrá",
    "housenumber": "1300",
    "city": "San Francisco",
    "postcode": "2400",
    "lat": -31.4421437,
    "lon": -62.0832525
  },
  {
    "street": "Doctor Enrique J. Carrá",
    "housenumber": "1202",
    "city": "San Francisco",
    "postcode": "2400",
    "lat": -31.4422663,
    "lon": -62.0824458
  },
  {
    "street": "Doctor Enrique J. Carrá",
    "housenumber": "1299",
    "city": "San Francisco",
    "postcode": "2400",
    "lat": -31.4423277,
    "lon": -62.0833084
  },
  {
    "street": "Doctor Enrique J. Carrá",
    "housenumber": "1201",
    "city": "San Francisco",
    "postcode": "2400",
    "lat": -31.442464,
    "lon": -62.0824617
  },
  {
    "street": "Jujuy",
    "housenumber": "201",
    "city": "San Francisco",
    "postcode": "2400",
    "lat": -31.4291433,
    "lon": -62.0749511
  },
  {
    "street": "Independencia Norte",
    "housenumber": "3927",
    "city": "San Francisco",
    "postcode": "2400",
    "lat": -31.422003,
    "lon": -62.1065396
  },
  {
    "street": "Avenida de la Universidad",
    "housenumber": "271",
    "city": "San Francisco",
    "postcode": "2400",
    "lat": -31.4228316,
    "lon": -62.1107828
  },
  {
    "street": "Fleming",
    "housenumber": "1001",
    "city": "San Francisco",
    "postcode": "2400",
    "lat": -31.4383274,
    "lon": -62.0913014
  },
  {
    "street": "General Paz",
    "housenumber": "1001",
    "city": "San Francisco",
    "postcode": "2400",
    "lat": -31.4384998,
    "lon": -62.0902799
  },
  {
    "street": "Córdoba",
    "housenumber": "1001",
    "city": "San Francisco",
    "postcode": "2400",
    "lat": -31.4386822,
    "lon": -62.0892001
  },
  {
    "street": "Jonas Salk",
    "housenumber": "1001",
    "city": "San Francisco",
    "postcode": "2400",
    "lat": -31.438188,
    "lon": -62.0923662
  },
  {
    "street": "Juan B. Justo",
    "housenumber": "1001",
    "city": "San Francisco",
    "postcode": "2400",
    "lat": -31.4379224,
    "lon": -62.0937402
  },
  {
    "street": "Rivadavia",
    "housenumber": "1001",
    "city": "San Francisco",
    "postcode": "2400",
    "lat": -31.4388258,
    "lon": -62.0881609
  },
  {
    "street": "Avenida del Libertador Sur",
    "housenumber": "1001",
    "city": "San Francisco",
    "postcode": "2400",
    "lat": -31.4389968,
    "lon": -62.0870127
  },
  {
    "street": "Avellaneda",
    "housenumber": "1001",
    "city": "San Francisco",
    "postcode": "2400",
    "lat": -31.4391678,
    "lon": -62.085948
  },
  {
    "street": "Carlos Pellegrini",
    "housenumber": "1001",
    "city": "San Francisco",
    "postcode": "2400",
    "lat": -31.4393494,
    "lon": -62.0848833
  },
  {
    "street": "Sarmiento",
    "housenumber": "1001",
    "city": "San Francisco",
    "postcode": "2400",
    "lat": -31.4395311,
    "lon": -62.0838437
  },
  {
    "street": "Corrientes",
    "housenumber": "1001",
    "city": "San Francisco",
    "postcode": "2400",
    "lat": -31.4397413,
    "lon": -62.0827915
  },
  {
    "street": "General Paz",
    "housenumber": "1002",
    "city": "San Francisco",
    "postcode": "2400",
    "lat": -31.4384475,
    "lon": -62.0904123
  },
  {
    "street": "Jonas Salk",
    "housenumber": "1002",
    "city": "San Francisco",
    "postcode": "2400",
    "lat": -31.4381305,
    "lon": -62.0925121
  },
  {
    "street": "Rivadavia",
    "housenumber": "1002",
    "city": "San Francisco",
    "postcode": "2400",
    "lat": -31.4388115,
    "lon": -62.0882778
  },
  {
    "street": "Fleming",
    "housenumber": "1002",
    "city": "San Francisco",
    "postcode": "2400",
    "lat": -31.4382861,
    "lon": -62.0914531
  },
  {
    "street": "Córdoba",
    "housenumber": "1002",
    "city": "San Francisco",
    "postcode": "2400",
    "lat": -31.4386672,
    "lon": -62.0893237
  },
  {
    "street": "Avenida del Libertador Sur",
    "housenumber": "1002",
    "city": "San Francisco",
    "postcode": "2400",
    "lat": -31.4389932,
    "lon": -62.087138
  },
  {
    "street": "Avellaneda",
    "housenumber": "1002",
    "city": "San Francisco",
    "postcode": "2400",
    "lat": -31.4391571,
    "lon": -62.0860733
  },
  {
    "street": "Carlos Pellegrini",
    "housenumber": "1002",
    "city": "San Francisco",
    "postcode": "2400",
    "lat": -31.4393352,
    "lon": -62.0850086
  },
  {
    "street": "Sarmiento",
    "housenumber": "1002",
    "city": "San Francisco",
    "postcode": "2400",
    "lat": -31.4395169,
    "lon": -62.0839773
  },
  {
    "street": "Corrientes",
    "housenumber": "1002",
    "city": "San Francisco",
    "postcode": "2400",
    "lat": -31.4397057,
    "lon": -62.0829168
  },
  {
    "street": "Echeverría",
    "housenumber": "1002",
    "city": "San Francisco",
    "postcode": "2400",
    "lat": -31.4398945,
    "lon": -62.0818396
  },
  {
    "street": "Fleming",
    "housenumber": "1099",
    "city": "San Francisco",
    "postcode": "2400",
    "lat": -31.4388587,
    "lon": -62.0914277
  },
  {
    "street": "General Paz",
    "housenumber": "1099",
    "city": "San Francisco",
    "postcode": "2400",
    "lat": -31.4390128,
    "lon": -62.0903968
  },
  {
    "street": "Jonas Salk",
    "housenumber": "1099",
    "city": "San Francisco",
    "postcode": "2400",
    "lat": -31.4386822,
    "lon": -62.0924794
  },
  {
    "street": "Juan B. Justo",
    "housenumber": "1099",
    "city": "San Francisco",
    "postcode": "2400",
    "lat": -31.438476,
    "lon": -62.0938578
  },
  {
    "street": "Rivadavia",
    "housenumber": "1099",
    "city": "San Francisco",
    "postcode": "2400",
    "lat": -31.4394171,
    "lon": -62.0882653
  },
  {
    "street": "Avenida del Libertador Sur",
    "housenumber": "1099",
    "city": "San Francisco",
    "postcode": "2400",
    "lat": -31.4395952,
    "lon": -62.0871463
  },
  {
    "street": "Avellaneda",
    "housenumber": "1099",
    "city": "San Francisco",
    "postcode": "2400",
    "lat": -31.4397448,
    "lon": -62.0860733
  },
  {
    "street": "Carlos Pellegrini",
    "housenumber": "1099",
    "city": "San Francisco",
    "postcode": "2400",
    "lat": -31.4399123,
    "lon": -62.0850086
  },
  {
    "street": "Sarmiento",
    "housenumber": "1099",
    "city": "San Francisco",
    "postcode": "2400",
    "lat": -31.4401011,
    "lon": -62.0839606
  },
  {
    "street": "Corrientes",
    "housenumber": "1099",
    "city": "San Francisco",
    "postcode": "2400",
    "lat": -31.4402649,
    "lon": -62.0828834
  },
  {
    "street": "General Paz",
    "housenumber": "1100",
    "city": "San Francisco",
    "postcode": "2400",
    "lat": -31.439042,
    "lon": -62.0905386
  },
  {
    "street": "Jonas Salk",
    "housenumber": "1100",
    "city": "San Francisco",
    "postcode": "2400",
    "lat": -31.4386841,
    "lon": -62.0926297
  },
  {
    "street": "Rivadavia",
    "housenumber": "1100",
    "city": "San Francisco",
    "postcode": "2400",
    "lat": -31.4394207,
    "lon": -62.0884031
  },
  {
    "street": "Fleming",
    "housenumber": "1100",
    "city": "San Francisco",
    "postcode": "2400",
    "lat": -31.4388703,
    "lon": -62.0915825
  },
  {
    "street": "Córdoba",
    "housenumber": "1100",
    "city": "San Francisco",
    "postcode": "2400",
    "lat": -31.4391818,
    "lon": -62.0894348
  },
  {
    "street": "Avenida del Libertador Sur",
    "housenumber": "1100",
    "city": "San Francisco",
    "postcode": "2400",
    "lat": -31.439581,
    "lon": -62.0872799
  },
  {
    "street": "Avellaneda",
    "housenumber": "1100",
    "city": "San Francisco",
    "postcode": "2400",
    "lat": -31.4397484,
    "lon": -62.0862069
  },
  {
    "street": "Carlos Pellegrini",
    "housenumber": "1100",
    "city": "San Francisco",
    "postcode": "2400",
    "lat": -31.4399051,
    "lon": -62.085138
  },
  {
    "street": "Sarmiento",
    "housenumber": "1100",
    "city": "San Francisco",
    "postcode": "2400",
    "lat": -31.4400904,
    "lon": -62.0840984
  },
  {
    "street": "Corrientes",
    "housenumber": "1100",
    "city": "San Francisco",
    "postcode": "2400",
    "lat": -31.4402471,
    "lon": -62.0830087
  },
  {
    "street": "Echeverría",
    "housenumber": "1100",
    "city": "San Francisco",
    "postcode": "2400",
    "lat": -31.4403967,
    "lon": -62.0819565
  },
  {
    "street": "Fleming",
    "housenumber": "1101",
    "city": "San Francisco",
    "postcode": "2400",
    "lat": -31.4391268,
    "lon": -62.0915032
  },
  {
    "street": "General Paz",
    "housenumber": "1101",
    "city": "San Francisco",
    "postcode": "2400",
    "lat": -31.4392978,
    "lon": -62.0904719
  },
  {
    "street": "Córdoba",
    "housenumber": "1101",
    "city": "San Francisco",
    "postcode": "2400",
    "lat": -31.4394634,
    "lon": -62.0893801
  },
  {
    "street": "Jonas Salk",
    "housenumber": "1101",
    "city": "San Francisco",
    "postcode": "2400",
    "lat": -31.4389721,
    "lon": -62.092536
  },
  {
    "street": "Juan B. Justo",
    "housenumber": "1101",
    "city": "San Francisco",
    "postcode": "2400",
    "lat": -31.4387621,
    "lon": -62.0939144
  },
  {
    "street": "Rivadavia",
    "housenumber": "1101",
    "city": "San Francisco",
    "postcode": "2400",
    "lat": -31.4396024,
    "lon": -62.0883071
  },
  {
    "street": "Avenida del Libertador Sur",
    "housenumber": "1101",
    "city": "San Francisco",
    "postcode": "2400",
    "lat": -31.4397947,
    "lon": -62.0871923
  },
  {
    "street": "Avellaneda",
    "housenumber": "1101",
    "city": "San Francisco",
    "postcode": "2400",
    "lat": -31.4400387,
    "lon": -62.0856829
  },
  {
    "street": "Corrientes",
    "housenumber": "1101",
    "city": "San Francisco",
    "postcode": "2400",
    "lat": -31.4404586,
    "lon": -62.0829347
  },
  {
    "street": "General Paz",
    "housenumber": "1102",
    "city": "San Francisco",
    "postcode": "2400",
    "lat": -31.4392907,
    "lon": -62.0906055
  },
  {
    "street": "Jonas Salk",
    "housenumber": "1102",
    "city": "San Francisco",
    "postcode": "2400",
    "lat": -31.4389231,
    "lon": -62.0926987
  },
  {
    "street": "Fleming",
    "housenumber": "1102",
    "city": "San Francisco",
    "postcode": "2400",
    "lat": -31.4391018,
    "lon": -62.0916619
  },
  {
    "street": "Córdoba",
    "housenumber": "1102",
    "city": "San Francisco",
    "postcode": "2400",
    "lat": -31.4394545,
    "lon": -62.0895074
  },
  {
    "street": "Rivadavia",
    "housenumber": "1102",
    "city": "San Francisco",
    "postcode": "2400",
    "lat": -31.4395917,
    "lon": -62.0884532
  },
  {
    "street": "Avenida del Libertador Sur",
    "housenumber": "1102",
    "city": "San Francisco",
    "postcode": "2400",
    "lat": -31.4397698,
    "lon": -62.0873384
  },
  {
    "street": "Avellaneda",
    "housenumber": "1102",
    "city": "San Francisco",
    "postcode": "2400",
    "lat": -31.440012,
    "lon": -62.0858144
  },
  {
    "street": "Corrientes",
    "housenumber": "1102",
    "city": "San Francisco",
    "postcode": "2400",
    "lat": -31.4404484,
    "lon": -62.0830621
  },
  {
    "street": "Echeverría",
    "housenumber": "1102",
    "city": "San Francisco",
    "postcode": "2400",
    "lat": -31.4406212,
    "lon": -62.0820024
  },
  {
    "street": "Fleming",
    "housenumber": "1199",
    "city": "San Francisco",
    "postcode": "2400",
    "lat": -31.4397787,
    "lon": -62.0916452
  },
  {
    "street": "Córdoba",
    "housenumber": "1099",
    "city": "San Francisco",
    "postcode": "2400",
    "lat": -31.439195,
    "lon": -62.0893089
  },
  {
    "street": "General Paz",
    "housenumber": "1199",
    "city": "San Francisco",
    "postcode": "2400",
    "lat": -31.4399497,
    "lon": -62.0905888
  },
  {
    "street": "Córdoba",
    "housenumber": "1199",
    "city": "San Francisco",
    "postcode": "2400",
    "lat": -31.4401296,
    "lon": -62.0895304
  },
  {
    "street": "Jonas Salk",
    "housenumber": "1199",
    "city": "San Francisco",
    "postcode": "2400",
    "lat": -31.4396037,
    "lon": -62.0926885
  },
  {
    "street": "Juan B. Justo",
    "housenumber": "1199",
    "city": "San Francisco",
    "postcode": "2400",
    "lat": -31.4393641,
    "lon": -62.0940451
  },
  {
    "street": "Rivadavia",
    "housenumber": "1199",
    "city": "San Francisco",
    "postcode": "2400",
    "lat": -31.4402827,
    "lon": -62.088449
  },
  {
    "street": "Avenida del Libertador Sur",
    "housenumber": "1199",
    "city": "San Francisco",
    "postcode": "2400",
    "lat": -31.4405143,
    "lon": -62.0873676
  },
  {
    "street": "Corrientes",
    "housenumber": "1199",
    "city": "San Francisco",
    "postcode": "2400",
    "lat": -31.4411107,
    "lon": -62.0830958
  },
  {
    "street": "General Paz",
    "housenumber": "1200",
    "city": "San Francisco",
    "postcode": "2400",
    "lat": -31.4398998,
    "lon": -62.0907141
  },
  {
    "street": "Jonas Salk",
    "housenumber": "1200",
    "city": "San Francisco",
    "postcode": "2400",
    "lat": -31.4395919,
    "lon": -62.0928468
  },
  {
    "street": "Fleming",
    "housenumber": "1200",
    "city": "San Francisco",
    "postcode": "2400",
    "lat": -31.4397431,
    "lon": -62.0917746
  },
  {
    "street": "Córdoba",
    "housenumber": "1200",
    "city": "San Francisco",
    "postcode": "2400",
    "lat": -31.4400993,
    "lon": -62.0896494
  },
  {
    "street": "Rivadavia",
    "housenumber": "1200",
    "city": "San Francisco",
    "postcode": "2400",
    "lat": -31.4403077,
    "lon": -62.0885951
  },
  {
    "street": "Avenida del Libertador Sur",
    "housenumber": "1200",
    "city": "San Francisco",
    "postcode": "2400",
    "lat": -31.4405036,
    "lon": -62.0875096
  },
  {
    "street": "Avellaneda",
    "housenumber": "1200",
    "city": "San Francisco",
    "postcode": "2400",
    "lat": -31.4407387,
    "lon": -62.0859814
  },
  {
    "street": "Echeverría",
    "housenumber": "1200",
    "city": "San Francisco",
    "postcode": "2400",
    "lat": -31.4412481,
    "lon": -62.0821444
  },
  {
    "street": "Fleming",
    "housenumber": "1201",
    "city": "San Francisco",
    "postcode": "2400",
    "lat": -31.4399942,
    "lon": -62.0916974
  },
  {
    "street": "General Paz",
    "housenumber": "1201",
    "city": "San Francisco",
    "postcode": "2400",
    "lat": -31.4401723,
    "lon": -62.090641
  },
  {
    "street": "Córdoba",
    "housenumber": "1201",
    "city": "San Francisco",
    "postcode": "2400",
    "lat": -31.440354,
    "lon": -62.0895763
  },
  {
    "street": "Jonas Salk",
    "housenumber": "1201",
    "city": "San Francisco",
    "postcode": "2400",
    "lat": -31.4398378,
    "lon": -62.0927385
  },
  {
    "street": "Juan B. Justo",
    "housenumber": "1201",
    "city": "San Francisco",
    "postcode": "2400",
    "lat": -31.4396743,
    "lon": -62.0941104
  },
  {
    "street": "Rivadavia",
    "housenumber": "1201",
    "city": "San Francisco",
    "postcode": "2400",
    "lat": -31.4405072,
    "lon": -62.0885116
  },
  {
    "street": "Avenida del Libertador Sur",
    "housenumber": "1201",
    "city": "San Francisco",
    "postcode": "2400",
    "lat": -31.4406978,
    "lon": -62.0874094
  },
  {
    "street": "Corrientes",
    "housenumber": "1201",
    "city": "San Francisco",
    "postcode": "2400",
    "lat": -31.4412926,
    "lon": -62.0831256
  },
  {
    "street": "General Paz",
    "housenumber": "1202",
    "city": "San Francisco",
    "postcode": "2400",
    "lat": -31.4401474,
    "lon": -62.0907705
  },
  {
    "street": "Jonas Salk",
    "housenumber": "1202",
    "city": "San Francisco",
    "postcode": "2400",
    "lat": -31.4398111,
    "lon": -62.0929056
  },
  {
    "street": "Fleming",
    "housenumber": "1202",
    "city": "San Francisco",
    "postcode": "2400",
    "lat": -31.4399976,
    "lon": -62.0918283
  },
  {
    "street": "Córdoba",
    "housenumber": "1202",
    "city": "San Francisco",
    "postcode": "2400",
    "lat": -31.4403148,
    "lon": -62.0897099
  },
  {
    "street": "Rivadavia",
    "housenumber": "1202",
    "city": "San Francisco",
    "postcode": "2400",
    "lat": -31.440525,
    "lon": -62.0886578
  },
  {
    "street": "Avenida del Libertador Sur",
    "housenumber": "1202",
    "city": "San Francisco",
    "postcode": "2400",
    "lat": -31.4406906,
    "lon": -62.0875597
  },
  {
    "street": "Avellaneda",
    "housenumber": "1202",
    "city": "San Francisco",
    "postcode": "2400",
    "lat": -31.44094,
    "lon": -62.0860107
  },
  {
    "street": "Echeverría",
    "housenumber": "1202",
    "city": "San Francisco",
    "postcode": "2400",
    "lat": -31.4414423,
    "lon": -62.0821903
  },
  {
    "street": "Fleming",
    "housenumber": "1299",
    "city": "San Francisco",
    "postcode": "2400",
    "lat": -31.4406746,
    "lon": -62.0918477
  },
  {
    "street": "General Paz",
    "housenumber": "1299",
    "city": "San Francisco",
    "postcode": "2400",
    "lat": -31.4408349,
    "lon": -62.090783
  },
  {
    "street": "Córdoba",
    "housenumber": "1299",
    "city": "San Francisco",
    "postcode": "2400",
    "lat": -31.4409916,
    "lon": -62.0897099
  },
  {
    "street": "Jonas Salk",
    "housenumber": "1299",
    "city": "San Francisco",
    "postcode": "2400",
    "lat": -31.4405066,
    "lon": -62.0928866
  },
  {
    "street": "Juan B. Justo",
    "housenumber": "1299",
    "city": "San Francisco",
    "postcode": "2400",
    "lat": -31.4402651,
    "lon": -62.094241
  },
  {
    "street": "Rivadavia",
    "housenumber": "1299",
    "city": "San Francisco",
    "postcode": "2400",
    "lat": -31.4412161,
    "lon": -62.0886578
  },
  {
    "street": "Avenida del Libertador Sur",
    "housenumber": "1299",
    "city": "San Francisco",
    "postcode": "2400",
    "lat": -31.4413675,
    "lon": -62.0875639
  },
  {
    "street": "Avellaneda",
    "housenumber": "1299",
    "city": "San Francisco",
    "postcode": "2400",
    "lat": -31.4416809,
    "lon": -62.0860545
  },
  {
    "street": "Corrientes",
    "housenumber": "1299",
    "city": "San Francisco",
    "postcode": "2400",
    "lat": -31.4420906,
    "lon": -62.0832717
  },
  {
    "street": "General Paz",
    "housenumber": "1300",
    "city": "San Francisco",
    "postcode": "2400",
    "lat": -31.4408242,
    "lon": -62.0909124
  },
  {
    "street": "Jonas Salk",
    "housenumber": "1300",
    "city": "San Francisco",
    "postcode": "2400",
    "lat": -31.4404428,
    "lon": -62.0930319
  },
  {
    "street": "Fleming",
    "housenumber": "1300",
    "city": "San Francisco",
    "postcode": "2400",
    "lat": -31.4406441,
    "lon": -62.0919633
  },
  {
    "street": "Córdoba",
    "housenumber": "1300",
    "city": "San Francisco",
    "postcode": "2400",
    "lat": -31.4410059,
    "lon": -62.0898603
  },
  {
    "street": "Rivadavia",
    "housenumber": "1300",
    "city": "San Francisco",
    "postcode": "2400",
    "lat": -31.4411626,
    "lon": -62.0887872
  },
  {
    "street": "Avenida del Libertador Sur",
    "housenumber": "1300",
    "city": "San Francisco",
    "postcode": "2400",
    "lat": -31.4413532,
    "lon": -62.0877016
  },
  {
    "street": "Avellaneda",
    "housenumber": "1300",
    "city": "San Francisco",
    "postcode": "2400",
    "lat": -31.4415669,
    "lon": -62.0861735
  },
  {
    "street": "Corrientes",
    "housenumber": "1300",
    "city": "San Francisco",
    "postcode": "2400",
    "lat": -31.442109,
    "lon": -62.0834638
  },
  {
    "street": "Echeverría",
    "housenumber": "1300",
    "city": "San Francisco",
    "postcode": "2400",
    "lat": -31.4422509,
    "lon": -62.0823698
  },
  {
    "street": "Bulevard 25 de Mayo",
    "housenumber": "2799",
    "city": "San Francisco",
    "postcode": "2400",
    "lat": -31.4278226,
    "lon": -62.0966772
  },
  {
    "street": "Avenida Urquiza",
    "housenumber": "49",
    "city": "San Francisco",
    "postcode": "2400",
    "lat": -31.4280801,
    "lon": -62.0967942
  },
  {
    "street": "Hermanos Casalis",
    "housenumber": "2800",
    "city": "San Francisco",
    "postcode": "2400",
    "lat": -31.4281563,
    "lon": -62.0968004
  },
  {
    "street": "Falucho",
    "housenumber": "1",
    "city": "San Francisco",
    "postcode": "2400",
    "lat": -31.4281756,
    "lon": -62.100193
  },
  {
    "street": "Misiones",
    "housenumber": "2",
    "city": "San Francisco",
    "postcode": "2400",
    "lat": -31.4283168,
    "lon": -62.0992741
  },
  {
    "street": "Misiones",
    "housenumber": "1",
    "city": "San Francisco",
    "postcode": "2400",
    "lat": -31.428354,
    "lon": -62.0991304
  },
  {
    "street": "Avenida Cervantes",
    "housenumber": "2999",
    "city": "San Francisco",
    "postcode": "2400",
    "lat": -31.4283614,
    "lon": -62.0990651
  },
  {
    "street": "Hermanos Casalis",
    "housenumber": "2799",
    "city": "San Francisco",
    "postcode": "2400",
    "lat": -31.4283718,
    "lon": -62.096825
  },
  {
    "street": "Avenida Cervantes",
    "housenumber": "2901",
    "city": "San Francisco",
    "postcode": "2400",
    "lat": -31.4285138,
    "lon": -62.0982637
  },
  {
    "street": "Formosa",
    "housenumber": "1",
    "city": "San Francisco",
    "postcode": "2400",
    "lat": -31.4285435,
    "lon": -62.0980808
  },
  {
    "street": "Formosa",
    "housenumber": "2",
    "city": "San Francisco",
    "postcode": "2400",
    "lat": -31.428551,
    "lon": -62.0982289
  },
  {
    "street": "Juan B. Justo",
    "housenumber": "2",
    "city": "San Francisco",
    "postcode": "2400",
    "lat": -31.4285925,
    "lon": -62.0918794
  },
  {
    "street": "Bulevard 25 de Mayo",
    "housenumber": "2301",
    "city": "San Francisco",
    "postcode": "2400",
    "lat": -31.4285951,
    "lon": -62.0919594
  },
  {
    "street": "Falucho",
    "housenumber": "99",
    "city": "San Francisco",
    "postcode": "2400",
    "lat": -31.4286624,
    "lon": -62.1002975
  },
  {
    "street": "Bulevar 9 de Julio",
    "housenumber": "3100",
    "city": "San Francisco",
    "postcode": "2400",
    "lat": -31.4287202,
    "lon": -62.1003286
  },
  {
    "street": "Caseros",
    "housenumber": "2",
    "city": "San Francisco",
    "postcode": "2400",
    "lat": -31.4288185,
    "lon": -62.0971314
  },
  {
    "street": "Misiones",
    "housenumber": "100",
    "city": "San Francisco",
    "postcode": "2400",
    "lat": -31.4288297,
    "lon": -62.0993917
  },
  {
    "street": "Bulevar 9 de Julio",
    "housenumber": "3099",
    "city": "San Francisco",
    "postcode": "2400",
    "lat": -31.4288614,
    "lon": -62.1003461
  },
  {
    "street": "Boulevard 9 de Julio",
    "housenumber": "2800",
    "city": "San Francisco",
    "postcode": "2400",
    "lat": -31.4288633,
    "lon": -62.0970079
  },
  {
    "street": "Misiones",
    "housenumber": "99",
    "city": "San Francisco",
    "postcode": "2400",
    "lat": -31.4288668,
    "lon": -62.0992567
  },
  {
    "street": "Bulevar 9 de Julio",
    "housenumber": "3002",
    "city": "San Francisco",
    "postcode": "2400",
    "lat": -31.4288725,
    "lon": -62.0993923
  },
  {
    "street": "Falucho",
    "housenumber": "101",
    "city": "San Francisco",
    "postcode": "2400",
    "lat": -31.4288986,
    "lon": -62.1003548
  },
  {
    "street": "Bulevar 9 de Julio",
    "housenumber": "3000",
    "city": "San Francisco",
    "postcode": "2400",
    "lat": -31.4289023,
    "lon": -62.0992791
  },
  {
    "street": "Juan B. Justo",
    "housenumber": "50",
    "city": "San Francisco",
    "postcode": "2400",
    "lat": -31.4289183,
    "lon": -62.091941
  },
  {
    "street": "Bulevar 9 de Julio",
    "housenumber": "3001",
    "city": "San Francisco",
    "postcode": "2400",
    "lat": -31.4289877,
    "lon": -62.0994968
  },
  {
    "street": "Hermanos Casalis",
    "housenumber": "2302",
    "city": "San Francisco",
    "postcode": "2400",
    "lat": -31.4289919,
    "lon": -62.0919594
  },
  {
    "street": "Hermanos Casalis",
    "housenumber": "2401",
    "city": "San Francisco",
    "postcode": "2400",
    "lat": -31.4289972,
    "lon": -62.0931604
  },
  {
    "street": "Formosa",
    "housenumber": "100",
    "city": "San Francisco",
    "postcode": "2400",
    "lat": -31.4290229,
    "lon": -62.0983421
  },
  {
    "street": "Misiones",
    "housenumber": "102",
    "city": "San Francisco",
    "postcode": "2400",
    "lat": -31.4290286,
    "lon": -62.0994446
  },
  {
    "street": "Misiones",
    "housenumber": "101",
    "city": "San Francisco",
    "postcode": "2400",
    "lat": -31.4290323,
    "lon": -62.0992878
  },
  {
    "street": "Formosa",
    "housenumber": "99",
    "city": "San Francisco",
    "postcode": "2400",
    "lat": -31.4290452,
    "lon": -62.0982028
  },
  {
    "street": "Bulevar 9 de Julio",
    "housenumber": "2902",
    "city": "San Francisco",
    "postcode": "2400",
    "lat": -31.4290584,
    "lon": -62.0983645
  },
  {
    "street": "Bulevar 9 de Julio",
    "housenumber": "2999",
    "city": "San Francisco",
    "postcode": "2400",
    "lat": -31.4290584,
    "lon": -62.0992355
  },
  {
    "street": "Bulevar 9 de Julio",
    "housenumber": "2900",
    "city": "San Francisco",
    "postcode": "2400",
    "lat": -31.4290769,
    "lon": -62.0982339
  },
  {
    "street": "Caseros",
    "housenumber": "101",
    "city": "San Francisco",
    "postcode": "2400",
    "lat": -31.4291104,
    "lon": -62.0970144
  },
  {
    "street": "Boulevard 9 de Julio",
    "housenumber": "2799",
    "city": "San Francisco",
    "postcode": "2400",
    "lat": -31.4291178,
    "lon": -62.0969622
  },
  {
    "street": "Bulevar 9 de Julio",
    "housenumber": "2901",
    "city": "San Francisco",
    "postcode": "2400",
    "lat": -31.4291847,
    "lon": -62.0985474
  },
  {
    "street": "Hermanos Casalis",
    "housenumber": "2399",
    "city": "San Francisco",
    "postcode": "2400",
    "lat": -31.4291864,
    "lon": -62.0931173
  },
  {
    "street": "Formosa",
    "housenumber": "102",
    "city": "San Francisco",
    "postcode": "2400",
    "lat": -31.4291884,
    "lon": -62.0983994
  },
  {
    "street": "Caseros",
    "housenumber": "100",
    "city": "San Francisco",
    "postcode": "2400",
    "lat": -31.4292087,
    "lon": -62.0972272
  },
  {
    "street": "Bulevar 9 de Julio",
    "housenumber": "2899",
    "city": "San Francisco",
    "postcode": "2400",
    "lat": -31.4292107,
    "lon": -62.0982426
  },
  {
    "street": "Boulevard 9 de Julio",
    "housenumber": "2701",
    "city": "San Francisco",
    "postcode": "2400",
    "lat": -31.429233,
    "lon": -62.0962828
  },
  {
    "street": "Bulevar 9 de Julio",
    "housenumber": "2802",
    "city": "San Francisco",
    "postcode": "2400",
    "lat": -31.4292442,
    "lon": -62.0972757
  },
  {
    "street": "Boulevard 9 de Julio",
    "housenumber": "2699",
    "city": "San Francisco",
    "postcode": "2400",
    "lat": -31.4292553,
    "lon": -62.0960607
  },
  {
    "street": "Marconi",
    "housenumber": "102",
    "city": "San Francisco",
    "postcode": "2400",
    "lat": -31.4292665,
    "lon": -62.0962175
  },
  {
    "street": "Formosa",
    "housenumber": "101",
    "city": "San Francisco",
    "postcode": "2400",
    "lat": -31.4292665,
    "lon": -62.0982469
  },
  {
    "street": "Marconi",
    "housenumber": "101",
    "city": "San Francisco",
    "postcode": "2400",
    "lat": -31.4292962,
    "lon": -62.096065
  },
  {
    "street": "Falucho",
    "housenumber": "199",
    "city": "San Francisco",
    "postcode": "2400",
    "lat": -31.4292999,
    "lon": -62.1004332
  },
  {
    "street": "Libertad",
    "housenumber": "3100",
    "city": "San Francisco",
    "postcode": "2400",
    "lat": -31.4293445,
    "lon": -62.1004593
  },
  {
    "street": "Caseros",
    "housenumber": "102",
    "city": "San Francisco",
    "postcode": "2400",
    "lat": -31.4293668,
    "lon": -62.0972845
  },
  {
    "street": "Bulevar 9 de Julio",
    "housenumber": "2801",
    "city": "San Francisco",
    "postcode": "2400",
    "lat": -31.4293779,
    "lon": -62.0973541
  },
  {
    "street": "Hermanos Casalis",
    "housenumber": "2301",
    "city": "San Francisco",
    "postcode": "2400",
    "lat": -31.4293808,
    "lon": -62.0920333
  },
  {
    "street": "Boulevard 9 de Julio",
    "housenumber": "2601",
    "city": "San Francisco",
    "postcode": "2400",
    "lat": -31.4293928,
    "lon": -62.0952419
  },
  {
    "street": "Boulevard 9 de Julio",
    "housenumber": "2599",
    "city": "San Francisco",
    "postcode": "2400",
    "lat": -31.4294151,
    "lon": -62.0950939
  },
  {
    "street": "Juan B. Justo",
    "housenumber": "52",
    "city": "San Francisco",
    "postcode": "2400",
    "lat": -31.4294439,
    "lon": -62.0920395
  },
  {
    "street": "Ameghino",
    "housenumber": "102",
    "city": "San Francisco",
    "postcode": "2400",
    "lat": -31.4294448,
    "lon": -62.0952507
  },
  {
    "street": "Ameghino",
    "housenumber": "101",
    "city": "San Francisco",
    "postcode": "2400",
    "lat": -31.4294597,
    "lon": -62.0951026
  },
  {
    "street": "Libertad",
    "housenumber": "3002",
    "city": "San Francisco",
    "postcode": "2400",
    "lat": -31.4294671,
    "lon": -62.099597
  },
  {
    "street": "Libertad",
    "housenumber": "3099",
    "city": "San Francisco",
    "postcode": "2400",
    "lat": -31.4294783,
    "lon": -62.1004811
  },
  {
    "street": "Misiones",
    "housenumber": "200",
    "city": "San Francisco",
    "postcode": "2400",
    "lat": -31.4295006,
    "lon": -62.0995317
  },
  {
    "street": "Libertad",
    "housenumber": "3000",
    "city": "San Francisco",
    "postcode": "2400",
    "lat": -31.4295229,
    "lon": -62.099327
  },
  {
    "street": "Misiones",
    "housenumber": "199",
    "city": "San Francisco",
    "postcode": "2400",
    "lat": -31.4295229,
    "lon": -62.0993923
  },
  {
    "street": "Falucho",
    "housenumber": "201",
    "city": "San Francisco",
    "postcode": "2400",
    "lat": -31.4295377,
    "lon": -62.1004898
  },
  {
    "street": "Boulevard 9 de Julio",
    "housenumber": "2501",
    "city": "San Francisco",
    "postcode": "2400",
    "lat": -31.4295712,
    "lon": -62.0942054
  },
  {
    "street": "Juan B. Justo",
    "housenumber": "100",
    "city": "San Francisco",
    "postcode": "2400",
    "lat": -31.429591,
    "lon": -62.0920765
  },
  {
    "street": "Libertad",
    "housenumber": "3001",
    "city": "San Francisco",
    "postcode": "2400",
    "lat": -31.4296083,
    "lon": -62.0996667
  },
  {
    "street": "Boulevard 9 de Julio",
    "housenumber": "2499",
    "city": "San Francisco",
    "postcode": "2400",
    "lat": -31.4296176,
    "lon": -62.0940312
  },
  {
    "street": "Lavalle",
    "housenumber": "102",
    "city": "San Francisco",
    "postcode": "2400",
    "lat": -31.4296269,
    "lon": -62.0942185
  },
  {
    "street": "Misiones",
    "housenumber": "202",
    "city": "San Francisco",
    "postcode": "2400",
    "lat": -31.4296269,
    "lon": -62.0995883
  },
  {
    "street": "Formosa",
    "housenumber": "199",
    "city": "San Francisco",
    "postcode": "2400",
    "lat": -31.4296343,
    "lon": -62.098334
  },
  {
    "street": "Misiones",
    "housenumber": "201",
    "city": "San Francisco",
    "postcode": "2400",
    "lat": -31.4296455,
    "lon": -62.0994315
  },
  {
    "street": "Libertad",
    "housenumber": "2902",
    "city": "San Francisco",
    "postcode": "2400",
    "lat": -31.4296529,
    "lon": -62.0985518
  },
  {
    "street": "Boulevard 9 de Julio",
    "housenumber": "2302",
    "city": "San Francisco",
    "postcode": "2400",
    "lat": -31.4296548,
    "lon": -62.0920432
  },
  {
    "street": "Libertad",
    "housenumber": "2999",
    "city": "San Francisco",
    "postcode": "2400",
    "lat": -31.4296641,
    "lon": -62.0993705
  },
  {
    "street": "Formosa",
    "housenumber": "200",
    "city": "San Francisco",
    "postcode": "2400",
    "lat": -31.4296752,
    "lon": -62.0984908
  },
  {
    "street": "Lavalle",
    "housenumber": "101",
    "city": "San Francisco",
    "postcode": "2400",
    "lat": -31.4296882,
    "lon": -62.094053
  },
  {
    "street": "Libertad",
    "housenumber": "2900",
    "city": "San Francisco",
    "postcode": "2400",
    "lat": -31.4296901,
    "lon": -62.0983689
  },
  {
    "street": "Boulevard 9 de Julio",
    "housenumber": "2401",
    "city": "San Francisco",
    "postcode": "2400",
    "lat": -31.4297254,
    "lon": -62.0932909
  },
  {
    "street": "Alem",
    "housenumber": "102",
    "city": "San Francisco",
    "postcode": "2400",
    "lat": -31.4297514,
    "lon": -62.0931994
  },
  {
    "street": "Boulevard 9 de Julio",
    "housenumber": "2399",
    "city": "San Francisco",
    "postcode": "2400",
    "lat": -31.4297811,
    "lon": -62.0929773
  },
  {
    "street": "Libertad",
    "housenumber": "2901",
    "city": "San Francisco",
    "postcode": "2400",
    "lat": -31.4297867,
    "lon": -62.0985953
  },
  {
    "street": "Formosa",
    "housenumber": "202",
    "city": "San Francisco",
    "postcode": "2400",
    "lat": -31.4298164,
    "lon": -62.0985387
  },
  {
    "street": "Formosa",
    "housenumber": "201",
    "city": "San Francisco",
    "postcode": "2400",
    "lat": -31.4298313,
    "lon": -62.0983863
  },
  {
    "street": "Alem",
    "housenumber": "101",
    "city": "San Francisco",
    "postcode": "2400",
    "lat": -31.4298332,
    "lon": -62.0930209
  },
  {
    "street": "Caseros",
    "housenumber": "199",
    "city": "San Francisco",
    "postcode": "2400",
    "lat": -31.429835,
    "lon": -62.0972061
  },
  {
    "street": "Libertad",
    "housenumber": "2899",
    "city": "San Francisco",
    "postcode": "2400",
    "lat": -31.4298387,
    "lon": -62.098321
  },
  {
    "street": "Libertad",
    "housenumber": "2802",
    "city": "San Francisco",
    "postcode": "2400",
    "lat": -31.4298462,
    "lon": -62.0974543
  },
  {
    "street": "Caseros",
    "housenumber": "200",
    "city": "San Francisco",
    "postcode": "2400",
    "lat": -31.429861,
    "lon": -62.097389
  },
  {
    "street": "Libertad",
    "housenumber": "2800",
    "city": "San Francisco",
    "postcode": "2400",
    "lat": -31.429887,
    "lon": -62.0972104
  },
  {
    "street": "Boulevard 9 de Julio",
    "housenumber": "2301",
    "city": "San Francisco",
    "postcode": "2400",
    "lat": -31.4299223,
    "lon": -62.0921281
  },
  {
    "street": "Marconi",
    "housenumber": "200",
    "city": "San Francisco",
    "postcode": "2400",
    "lat": -31.4299614,
    "lon": -62.0964004
  },
  {
    "street": "Juan B. Justo",
    "housenumber": "102",
    "city": "San Francisco",
    "postcode": "2400",
    "lat": -31.4299744,
    "lon": -62.0921412
  },
  {
    "street": "Libertad",
    "housenumber": "2801",
    "city": "San Francisco",
    "postcode": "2400",
    "lat": -31.4299762,
    "lon": -62.0975196
  },
  {
    "street": "Marconi",
    "housenumber": "199",
    "city": "San Francisco",
    "postcode": "2400",
    "lat": -31.4299799,
    "lon": -62.096248
  },
  {
    "street": "Caseros",
    "housenumber": "202",
    "city": "San Francisco",
    "postcode": "2400",
    "lat": -31.4299948,
    "lon": -62.0974282
  },
  {
    "street": "Libertad",
    "housenumber": "2702",
    "city": "San Francisco",
    "postcode": "2400",
    "lat": -31.4300022,
    "lon": -62.0964352
  },
  {
    "street": "Libertad",
    "housenumber": "2799",
    "city": "San Francisco",
    "postcode": "2400",
    "lat": -31.4300245,
    "lon": -62.097254
  },
  {
    "street": "Libertad",
    "housenumber": "2700",
    "city": "San Francisco",
    "postcode": "2400",
    "lat": -31.4300282,
    "lon": -62.0962392
  },
  {
    "street": "Caseros",
    "housenumber": "201",
    "city": "San Francisco",
    "postcode": "2400",
    "lat": -31.430084,
    "lon": -62.0972627
  },
  {
    "street": "Ameghino",
    "housenumber": "200",
    "city": "San Francisco",
    "postcode": "2400",
    "lat": -31.4301063,
    "lon": -62.0954031
  },
  {
    "street": "Libertad",
    "housenumber": "2701",
    "city": "San Francisco",
    "postcode": "2400",
    "lat": -31.4301249,
    "lon": -62.0964439
  },
  {
    "street": "Ameghino",
    "housenumber": "199",
    "city": "San Francisco",
    "postcode": "2400",
    "lat": -31.4301397,
    "lon": -62.0952724
  },
  {
    "street": "Libertad",
    "housenumber": "2602",
    "city": "San Francisco",
    "postcode": "2400",
    "lat": -31.4301583,
    "lon": -62.095451
  },
  {
    "street": "Marconi",
    "housenumber": "201",
    "city": "San Francisco",
    "postcode": "2400",
    "lat": -31.4301713,
    "lon": -62.0963068
  },
  {
    "street": "Libertad",
    "housenumber": "2699",
    "city": "San Francisco",
    "postcode": "2400",
    "lat": -31.4301806,
    "lon": -62.0962262
  },
  {
    "street": "Marconi",
    "housenumber": "202",
    "city": "San Francisco",
    "postcode": "2400",
    "lat": -31.4301806,
    "lon": -62.0964526
  },
  {
    "street": "Falucho",
    "housenumber": "299",
    "city": "San Francisco",
    "postcode": "2400",
    "lat": -31.430188,
    "lon": -62.1006204
  },
  {
    "street": "Libertad",
    "housenumber": "2600",
    "city": "San Francisco",
    "postcode": "2400",
    "lat": -31.4301955,
    "lon": -62.0952942
  },
  {
    "street": "Dante Alighieri",
    "housenumber": "3100",
    "city": "San Francisco",
    "postcode": "2400",
    "lat": -31.4302326,
    "lon": -62.1006596
  },
  {
    "street": "Lavalle",
    "housenumber": "200",
    "city": "San Francisco",
    "postcode": "2400",
    "lat": -31.4302884,
    "lon": -62.0943666
  },
  {
    "street": "Ameghino",
    "housenumber": "202",
    "city": "San Francisco",
    "postcode": "2400",
    "lat": -31.4303014,
    "lon": -62.0954662
  },
  {
    "street": "Libertad",
    "housenumber": "2601",
    "city": "San Francisco",
    "postcode": "2400",
    "lat": -31.430307,
    "lon": -62.0955599
  },
  {
    "street": "Ameghino",
    "housenumber": "201",
    "city": "San Francisco",
    "postcode": "2400",
    "lat": -31.4303181,
    "lon": -62.095329
  },
  {
    "street": "Libertad",
    "housenumber": "2599",
    "city": "San Francisco",
    "postcode": "2400",
    "lat": -31.4303237,
    "lon": -62.0952855
  },
  {
    "street": "Dante Alighieri",
    "housenumber": "3002",
    "city": "San Francisco",
    "postcode": "2400",
    "lat": -31.4303478,
    "lon": -62.0998278
  },
  {
    "street": "Libertad",
    "housenumber": "2502",
    "city": "San Francisco",
    "postcode": "2400",
    "lat": -31.4303515,
    "lon": -62.0943753
  },
  {
    "street": "Misiones",
    "housenumber": "300",
    "city": "San Francisco",
    "postcode": "2400",
    "lat": -31.4303664,
    "lon": -62.0997363
  },
  {
    "street": "Lavalle",
    "housenumber": "199",
    "city": "San Francisco",
    "postcode": "2400",
    "lat": -31.430372,
    "lon": -62.0942054
  },
  {
    "street": "Falucho",
    "housenumber": "301",
    "city": "San Francisco",
    "postcode": "2400",
    "lat": -31.4303794,
    "lon": -62.1006661
  },
  {
    "street": "Dante Alighieri",
    "housenumber": "3099",
    "city": "San Francisco",
    "postcode": "2400",
    "lat": -31.430383,
    "lon": -62.1005937
  },
  {
    "street": "Libertad",
    "housenumber": "2500",
    "city": "San Francisco",
    "postcode": "2400",
    "lat": -31.4303886,
    "lon": -62.094146
  },
  {
    "street": "Misiones",
    "housenumber": "299",
    "city": "San Francisco",
    "postcode": "2400",
    "lat": -31.4303961,
    "lon": -62.0996013
  },
  {
    "street": "Dante Alighieri",
    "housenumber": "3000",
    "city": "San Francisco",
    "postcode": "2400",
    "lat": -31.4304073,
    "lon": -62.0995404
  },
  {
    "street": "Libertad",
    "housenumber": "2501",
    "city": "San Francisco",
    "postcode": "2400",
    "lat": -31.4304649,
    "lon": -62.0944145
  },
  {
    "street": "Alem",
    "housenumber": "199",
    "city": "San Francisco",
    "postcode": "2400",
    "lat": -31.430476,
    "lon": -62.0931951
  },
  {
    "street": "Misiones",
    "housenumber": "302",
    "city": "San Francisco",
    "postcode": "2400",
    "lat": -31.4304983,
    "lon": -62.0997734
  },
  {
    "street": "Libertad",
    "housenumber": "2402",
    "city": "San Francisco",
    "postcode": "2400",
    "lat": -31.4305038,
    "lon": -62.0934275
  },
  {
    "street": "Dante Alighieri",
    "housenumber": "3001",
    "city": "San Francisco",
    "postcode": "2400",
    "lat": -31.4305056,
    "lon": -62.0998446
  },
  {
    "street": "Alem",
    "housenumber": "200",
    "city": "San Francisco",
    "postcode": "2400",
    "lat": -31.4305169,
    "lon": -62.0933693
  },
  {
    "street": "Dante Alighieri",
    "housenumber": "2902",
    "city": "San Francisco",
    "postcode": "2400",
    "lat": -31.4305299,
    "lon": -62.0987521
  },
  {
    "street": "Libertad",
    "housenumber": "2400",
    "city": "San Francisco",
    "postcode": "2400",
    "lat": -31.4305355,
    "lon": -62.0932038
  },
  {
    "street": "Lavalle",
    "housenumber": "201",
    "city": "San Francisco",
    "postcode": "2400",
    "lat": -31.4305355,
    "lon": -62.0942359
  },
  {
    "street": "Lavalle",
    "housenumber": "202",
    "city": "San Francisco",
    "postcode": "2400",
    "lat": -31.4305392,
    "lon": -62.0944232
  },
  {
    "street": "Misiones",
    "housenumber": "301",
    "city": "San Francisco",
    "postcode": "2400",
    "lat": -31.4305466,
    "lon": -62.0996079
  },
  {
    "street": "Libertad",
    "housenumber": "2499",
    "city": "San Francisco",
    "postcode": "2400",
    "lat": -31.4305596,
    "lon": -62.0941619
  },
  {
    "street": "Dante Alighieri",
    "housenumber": "2900",
    "city": "San Francisco",
    "postcode": "2400",
    "lat": -31.430574,
    "lon": -62.0985664
  },
  {
    "street": "Dante Alighieri",
    "housenumber": "2999",
    "city": "San Francisco",
    "postcode": "2400",
    "lat": -31.4305762,
    "lon": -62.0995354
  },
  {
    "street": "Formosa",
    "housenumber": "300",
    "city": "San Francisco",
    "postcode": "2400",
    "lat": -31.4305782,
    "lon": -62.0987086
  },
  {
    "street": "Formosa",
    "housenumber": "299",
    "city": "San Francisco",
    "postcode": "2400",
    "lat": -31.4305857,
    "lon": -62.0985692
  },
  {
    "street": "Juan B. Justo",
    "housenumber": "200",
    "city": "San Francisco",
    "postcode": "2400",
    "lat": -31.4306358,
    "lon": -62.0922805
  },
  {
    "street": "Libertad",
    "housenumber": "2401",
    "city": "San Francisco",
    "postcode": "2400",
    "lat": -31.4306637,
    "lon": -62.0934825
  },
  {
    "street": "Formosa",
    "housenumber": "302",
    "city": "San Francisco",
    "postcode": "2400",
    "lat": -31.4306767,
    "lon": -62.0987325
  },
  {
    "street": "Libertad",
    "housenumber": "2302",
    "city": "San Francisco",
    "postcode": "2400",
    "lat": -31.4306804,
    "lon": -62.0923023
  },
  {
    "street": "Dante Alighieri",
    "housenumber": "2901",
    "city": "San Francisco",
    "postcode": "2400",
    "lat": -31.430684,
    "lon": -62.0988125
  },
  {
    "street": "Caseros",
    "housenumber": "299",
    "city": "San Francisco",
    "postcode": "2400",
    "lat": -31.4307083,
    "lon": -62.0974195
  },
  {
    "street": "Libertad",
    "housenumber": "2399",
    "city": "San Francisco",
    "postcode": "2400",
    "lat": -31.430712,
    "lon": -62.0931733
  },
  {
    "street": "Formosa",
    "housenumber": "301",
    "city": "San Francisco",
    "postcode": "2400",
    "lat": -31.4307157,
    "lon": -62.0985953
  },
  {
    "street": "Alem",
    "housenumber": "202",
    "city": "San Francisco",
    "postcode": "2400",
    "lat": -31.4307231,
    "lon": -62.0934346
  },
  {
    "street": "Dante Alighieri",
    "housenumber": "2802",
    "city": "San Francisco",
    "postcode": "2400",
    "lat": -31.4307231,
    "lon": -62.0976633
  },
  {
    "street": "Dante Alighieri",
    "housenumber": "2899",
    "city": "San Francisco",
    "postcode": "2400",
    "lat": -31.4307231,
    "lon": -62.09853
  },
  {
    "street": "Caseros",
    "housenumber": "300",
    "city": "San Francisco",
    "postcode": "2400",
    "lat": -31.430738,
    "lon": -62.0976198
  },
  {
    "street": "Dante Alighieri",
    "housenumber": "2800",
    "city": "San Francisco",
    "postcode": "2400",
    "lat": -31.4307417,
    "lon": -62.0974412
  },
  {
    "street": "Alem",
    "housenumber": "201",
    "city": "San Francisco",
    "postcode": "2400",
    "lat": -31.4307454,
    "lon": -62.0932343
  },
  {
    "street": "Libertad",
    "housenumber": "2301",
    "city": "San Francisco",
    "postcode": "2400",
    "lat": -31.4308383,
    "lon": -62.0924199
  },
  {
    "street": "Marconi",
    "housenumber": "300",
    "city": "San Francisco",
    "postcode": "2400",
    "lat": -31.4308495,
    "lon": -62.0966094
  },
  {
    "street": "Dante Alighieri",
    "housenumber": "2801",
    "city": "San Francisco",
    "postcode": "2400",
    "lat": -31.4308532,
    "lon": -62.0977287
  },
  {
    "street": "Juan B. Justo",
    "housenumber": "202",
    "city": "San Francisco",
    "postcode": "2400",
    "lat": -31.4308644,
    "lon": -62.0923415
  },
  {
    "street": "Caseros",
    "housenumber": "302",
    "city": "San Francisco",
    "postcode": "2400",
    "lat": -31.4308681,
    "lon": -62.0976677
  },
  {
    "street": "Dante Alighieri",
    "housenumber": "2702",
    "city": "San Francisco",
    "postcode": "2400",
    "lat": -31.4308867,
    "lon": -62.0966312
  },
  {
    "street": "Marconi",
    "housenumber": "299",
    "city": "San Francisco",
    "postcode": "2400",
    "lat": -31.4308997,
    "lon": -62.0964679
  },
  {
    "street": "Caseros",
    "housenumber": "301",
    "city": "San Francisco",
    "postcode": "2400",
    "lat": -31.4308997,
    "lon": -62.097487
  },
  {
    "street": "Dante Alighieri",
    "housenumber": "2700",
    "city": "San Francisco",
    "postcode": "2400",
    "lat": -31.4309052,
    "lon": -62.0964047
  },
  {
    "street": "Dante Alighieri",
    "housenumber": "2799",
    "city": "San Francisco",
    "postcode": "2400",
    "lat": -31.4309127,
    "lon": -62.0974195
  },
  {
    "street": "Salta",
    "housenumber": "3299",
    "city": "San Francisco",
    "postcode": "2400",
    "lat": -31.4309703,
    "lon": -62.1028807
  },
  {
    "street": "Dante Alighieri",
    "housenumber": "2602",
    "city": "San Francisco",
    "postcode": "2400",
    "lat": -31.4310241,
    "lon": -62.0956818
  },
  {
    "street": "Dante Alighieri",
    "housenumber": "2701",
    "city": "San Francisco",
    "postcode": "2400",
    "lat": -31.4310241,
    "lon": -62.096727
  },
  {
    "street": "Marconi",
    "housenumber": "302",
    "city": "San Francisco",
    "postcode": "2400",
    "lat": -31.4310409,
    "lon": -62.0966595
  },
  {
    "street": "Marconi",
    "housenumber": "301",
    "city": "San Francisco",
    "postcode": "2400",
    "lat": -31.4310557,
    "lon": -62.0964897
  },
  {
    "street": "Ameghino",
    "housenumber": "300",
    "city": "San Francisco",
    "postcode": "2400",
    "lat": -31.4310594,
    "lon": -62.0956187
  },
  {
    "street": "Dante Alighieri",
    "housenumber": "2699",
    "city": "San Francisco",
    "postcode": "2400",
    "lat": -31.4310725,
    "lon": -62.0964222
  },
  {
    "street": "Ameghino",
    "housenumber": "299",
    "city": "San Francisco",
    "postcode": "2400",
    "lat": -31.4310948,
    "lon": -62.0954945
  },
  {
    "street": "Dante Alighieri",
    "housenumber": "2600",
    "city": "San Francisco",
    "postcode": "2400",
    "lat": -31.4310966,
    "lon": -62.0954423
  },
  {
    "street": "Dante Alighieri",
    "housenumber": "2601",
    "city": "San Francisco",
    "postcode": "2400",
    "lat": -31.4311728,
    "lon": -62.0957428
  },
  {
    "street": "Falucho",
    "housenumber": "399",
    "city": "San Francisco",
    "postcode": "2400",
    "lat": -31.4311784,
    "lon": -62.1008665
  },
  {
    "street": "Salta",
    "housenumber": "3100",
    "city": "San Francisco",
    "postcode": "2400",
    "lat": -31.4311856,
    "lon": -62.1007984
  },
  {
    "street": "Lavalle",
    "housenumber": "300",
    "city": "San Francisco",
    "postcode": "2400",
    "lat": -31.4311969,
    "lon": -62.0945713
  },
  {
    "street": "Ameghino",
    "housenumber": "302",
    "city": "San Francisco",
    "postcode": "2400",
    "lat": -31.4312044,
    "lon": -62.095684
  },
  {
    "street": "Dante Alighieri",
    "housenumber": "2599",
    "city": "San Francisco",
    "postcode": "2400",
    "lat": -31.4312341,
    "lon": -62.0954445
  },
  {
    "street": "Ameghino",
    "housenumber": "301",
    "city": "San Francisco",
    "postcode": "2400",
    "lat": -31.4312378,
    "lon": -62.0955228
  },
  {
    "street": "Dante Alighieri",
    "housenumber": "2502",
    "city": "San Francisco",
    "postcode": "2400",
    "lat": -31.4312415,
    "lon": -62.0945843
  },
  {
    "street": "Lavalle",
    "housenumber": "299",
    "city": "San Francisco",
    "postcode": "2400",
    "lat": -31.4312601,
    "lon": -62.0944188
  },
  {
    "street": "Dante Alighieri",
    "housenumber": "2500",
    "city": "San Francisco",
    "postcode": "2400",
    "lat": -31.4312657,
    "lon": -62.0943492
  },
  {
    "street": "Salta",
    "housenumber": "3002",
    "city": "San Francisco",
    "postcode": "2400",
    "lat": -31.4312897,
    "lon": -62.1000406
  },
  {
    "street": "Salta",
    "housenumber": "3101",
    "city": "San Francisco",
    "postcode": "2400",
    "lat": -31.4312898,
    "lon": -62.1010385
  },
  {
    "street": "Falucho",
    "housenumber": "401",
    "city": "San Francisco",
    "postcode": "2400",
    "lat": -31.4313047,
    "lon": -62.1008752
  },
  {
    "street": "Salta",
    "housenumber": "3099",
    "city": "San Francisco",
    "postcode": "2400",
    "lat": -31.4313084,
    "lon": -62.1007968
  },
  {
    "street": "Misiones",
    "housenumber": "400",
    "city": "San Francisco",
    "postcode": "2400",
    "lat": -31.4313121,
    "lon": -62.099965
  },
  {
    "street": "Misiones",
    "housenumber": "399",
    "city": "San Francisco",
    "postcode": "2400",
    "lat": -31.4313344,
    "lon": -62.0997995
  },
  {
    "street": "Salta",
    "housenumber": "3000",
    "city": "San Francisco",
    "postcode": "2400",
    "lat": -31.4313419,
    "lon": -62.0997385
  },
  {
    "street": "Dante Alighieri",
    "housenumber": "2501",
    "city": "San Francisco",
    "postcode": "2400",
    "lat": -31.4313642,
    "lon": -62.0946867
  },
  {
    "street": "Dante Alighieri",
    "housenumber": "2402",
    "city": "San Francisco",
    "postcode": "2400",
    "lat": -31.4313772,
    "lon": -62.0936306
  },
  {
    "street": "Lavalle",
    "housenumber": "302",
    "city": "San Francisco",
    "postcode": "2400",
    "lat": -31.4313865,
    "lon": -62.094617
  },
  {
    "street": "Alem",
    "housenumber": "300",
    "city": "San Francisco",
    "postcode": "2400",
    "lat": -31.4314032,
    "lon": -62.0935653
  },
  {
    "street": "Dante Alighieri",
    "housenumber": "2400",
    "city": "San Francisco",
    "postcode": "2400",
    "lat": -31.4314143,
    "lon": -62.093317
  },
  {
    "street": "Lavalle",
    "housenumber": "301",
    "city": "San Francisco",
    "postcode": "2400",
    "lat": -31.431418,
    "lon": -62.0944493
  },
  {
    "street": "Dante Alighieri",
    "housenumber": "2499",
    "city": "San Francisco",
    "postcode": "2400",
    "lat": -31.4314255,
    "lon": -62.0943622
  },
  {
    "street": "Salta",
    "housenumber": "3001",
    "city": "San Francisco",
    "postcode": "2400",
    "lat": -31.4314311,
    "lon": -62.1000608
  },
  {
    "street": "Alem",
    "housenumber": "299",
    "city": "San Francisco",
    "postcode": "2400",
    "lat": -31.4314329,
    "lon": -62.0934128
  },
  {
    "street": "Misiones",
    "housenumber": "402",
    "city": "San Francisco",
    "postcode": "2400",
    "lat": -31.4314459,
    "lon": -62.0999868
  },
  {
    "street": "Salta",
    "housenumber": "2902",
    "city": "San Francisco",
    "postcode": "2400",
    "lat": -31.4314571,
    "lon": -62.0989851
  },
  {
    "street": "Formosa",
    "housenumber": "399",
    "city": "San Francisco",
    "postcode": "2400",
    "lat": -31.4314626,
    "lon": -62.0987652
  },
  {
    "street": "Formosa",
    "housenumber": "400",
    "city": "San Francisco",
    "postcode": "2400",
    "lat": -31.4314682,
    "lon": -62.0989111
  },
  {
    "street": "Salta",
    "housenumber": "2999",
    "city": "San Francisco",
    "postcode": "2400",
    "lat": -31.4314979,
    "lon": -62.0997647
  },
  {
    "street": "Misiones",
    "housenumber": "401",
    "city": "San Francisco",
    "postcode": "2400",
    "lat": -31.4315017,
    "lon": -62.099843
  },
  {
    "street": "Salta",
    "housenumber": "2900",
    "city": "San Francisco",
    "postcode": "2400",
    "lat": -31.4315109,
    "lon": -62.0987695
  },
  {
    "street": "Dante Alighieri",
    "housenumber": "2401",
    "city": "San Francisco",
    "postcode": "2400",
    "lat": -31.4315184,
    "lon": -62.0936959
  },
  {
    "street": "Alem",
    "housenumber": "302",
    "city": "San Francisco",
    "postcode": "2400",
    "lat": -31.4315258,
    "lon": -62.0936132
  },
  {
    "street": "Dante Alighieri",
    "housenumber": "2302",
    "city": "San Francisco",
    "postcode": "2400",
    "lat": -31.4315332,
    "lon": -62.0925418
  },
  {
    "street": "Juan B. Justo",
    "housenumber": "300",
    "city": "San Francisco",
    "postcode": "2400",
    "lat": -31.4315518,
    "lon": -62.0924808
  },
  {
    "street": "Alem",
    "housenumber": "301",
    "city": "San Francisco",
    "postcode": "2400",
    "lat": -31.4315518,
    "lon": -62.0934607
  },
  {
    "street": "Dante Alighieri",
    "housenumber": "2399",
    "city": "San Francisco",
    "postcode": "2400",
    "lat": -31.4315741,
    "lon": -62.0933867
  },
  {
    "street": "Caseros",
    "housenumber": "400",
    "city": "San Francisco",
    "postcode": "2400",
    "lat": -31.4315964,
    "lon": -62.0978419
  },
  {
    "street": "Salta",
    "housenumber": "2901",
    "city": "San Francisco",
    "postcode": "2400",
    "lat": -31.4316094,
    "lon": -62.0990374
  },
  {
    "street": "Formosa",
    "housenumber": "402",
    "city": "San Francisco",
    "postcode": "2400",
    "lat": -31.4316169,
    "lon": -62.0989633
  },
  {
    "street": "Formosa",
    "housenumber": "401",
    "city": "San Francisco",
    "postcode": "2400",
    "lat": -31.4316261,
    "lon": -62.0988087
  },
  {
    "street": "Salta",
    "housenumber": "2802",
    "city": "San Francisco",
    "postcode": "2400",
    "lat": -31.431641,
    "lon": -62.0978593
  },
  {
    "street": "Salta",
    "housenumber": "2899",
    "city": "San Francisco",
    "postcode": "2400",
    "lat": -31.4316596,
    "lon": -62.0987521
  },
  {
    "street": "Caseros",
    "housenumber": "399",
    "city": "San Francisco",
    "postcode": "2400",
    "lat": -31.4316726,
    "lon": -62.0976917
  },
  {
    "street": "Salta",
    "housenumber": "2800",
    "city": "San Francisco",
    "postcode": "2400",
    "lat": -31.4316856,
    "lon": -62.0976285
  },
  {
    "street": "Juan B. Justo",
    "housenumber": "302",
    "city": "San Francisco",
    "postcode": "2400",
    "lat": -31.431719,
    "lon": -62.0925113
  },
  {
    "street": "Dante Alighieri",
    "housenumber": "2301",
    "city": "San Francisco",
    "postcode": "2400",
    "lat": -31.431719,
    "lon": -62.0925854
  },
  {
    "street": "Salta",
    "housenumber": "2801",
    "city": "San Francisco",
    "postcode": "2400",
    "lat": -31.4317711,
    "lon": -62.098003
  },
  {
    "street": "Caseros",
    "housenumber": "402",
    "city": "San Francisco",
    "postcode": "2400",
    "lat": -31.4317748,
    "lon": -62.0978942
  },
  {
    "street": "Salta",
    "housenumber": "2702",
    "city": "San Francisco",
    "postcode": "2400",
    "lat": -31.4318082,
    "lon": -62.0968969
  },
  {
    "street": "Marconi",
    "housenumber": "400",
    "city": "San Francisco",
    "postcode": "2400",
    "lat": -31.4318101,
    "lon": -62.0968206
  },
  {
    "street": "Salta",
    "housenumber": "2799",
    "city": "San Francisco",
    "postcode": "2400",
    "lat": -31.4318138,
    "lon": -62.0977221
  },
  {
    "street": "Marconi",
    "housenumber": "399",
    "city": "San Francisco",
    "postcode": "2400",
    "lat": -31.4318361,
    "lon": -62.0966726
  },
  {
    "street": "Salta",
    "housenumber": "2700",
    "city": "San Francisco",
    "postcode": "2400",
    "lat": -31.4318491,
    "lon": -62.0966181
  },
  {
    "street": "Caseros",
    "housenumber": "401",
    "city": "San Francisco",
    "postcode": "2400",
    "lat": -31.4318918,
    "lon": -62.0977352
  },
  {
    "street": "Salta",
    "housenumber": "2701",
    "city": "San Francisco",
    "postcode": "2400",
    "lat": -31.4319439,
    "lon": -62.0968686
  },
  {
    "street": "Salta",
    "housenumber": "2602",
    "city": "San Francisco",
    "postcode": "2400",
    "lat": -31.4319606,
    "lon": -62.0959126
  },
  {
    "street": "Ameghino",
    "housenumber": "400",
    "city": "San Francisco",
    "postcode": "2400",
    "lat": -31.4319773,
    "lon": -62.0958495
  },
  {
    "street": "Ameghino",
    "housenumber": "399",
    "city": "San Francisco",
    "postcode": "2400",
    "lat": -31.4319847,
    "lon": -62.095697
  },
  {
    "street": "Salta",
    "housenumber": "2699",
    "city": "San Francisco",
    "postcode": "2400",
    "lat": -31.4319922,
    "lon": -62.0966421
  },
  {
    "street": "Salta",
    "housenumber": "2600",
    "city": "San Francisco",
    "postcode": "2400",
    "lat": -31.4320015,
    "lon": -62.0956295
  },
  {
    "street": "Marconi",
    "housenumber": "401",
    "city": "San Francisco",
    "postcode": "2400",
    "lat": -31.4320033,
    "lon": -62.0967205
  },
  {
    "street": "Marconi",
    "housenumber": "402",
    "city": "San Francisco",
    "postcode": "2400",
    "lat": -31.4320107,
    "lon": -62.0968947
  },
  {
    "street": "Paraguay",
    "housenumber": "3100",
    "city": "San Francisco",
    "postcode": "2400",
    "lat": -31.4320591,
    "lon": -62.1010102
  },
  {
    "street": "Falucho",
    "housenumber": "499",
    "city": "San Francisco",
    "postcode": "2400",
    "lat": -31.4320591,
    "lon": -62.1010668
  },
  {
    "street": "Salta",
    "housenumber": "2601",
    "city": "San Francisco",
    "postcode": "2400",
    "lat": -31.4320999,
    "lon": -62.0959366
  },
  {
    "street": "Salta",
    "housenumber": "2599",
    "city": "San Francisco",
    "postcode": "2400",
    "lat": -31.4321297,
    "lon": -62.0957188
  },
  {
    "street": "Salta",
    "housenumber": "2502",
    "city": "San Francisco",
    "postcode": "2400",
    "lat": -31.4321352,
    "lon": -62.0948761
  },
  {
    "street": "Ameghino",
    "housenumber": "402",
    "city": "San Francisco",
    "postcode": "2400",
    "lat": -31.4321482,
    "lon": -62.095893
  },
  {
    "street": "Lavalle",
    "housenumber": "400",
    "city": "San Francisco",
    "postcode": "2400",
    "lat": -31.4321668,
    "lon": -62.0947825
  },
  {
    "street": "Ameghino",
    "housenumber": "401",
    "city": "San Francisco",
    "postcode": "2400",
    "lat": -31.4321705,
    "lon": -62.0957362
  },
  {
    "street": "Paraguay",
    "housenumber": "3002",
    "city": "San Francisco",
    "postcode": "2400",
    "lat": -31.432178,
    "lon": -62.1002437
  },
  {
    "street": "Lavalle",
    "housenumber": "399",
    "city": "San Francisco",
    "postcode": "2400",
    "lat": -31.4321835,
    "lon": -62.0946105
  },
  {
    "street": "Paraguay",
    "housenumber": "3099",
    "city": "San Francisco",
    "postcode": "2400",
    "lat": -31.4321891,
    "lon": -62.1010712
  },
  {
    "street": "Misiones",
    "housenumber": "500",
    "city": "San Francisco",
    "postcode": "2400",
    "lat": -31.4321965,
    "lon": -62.1001566
  },
  {
    "street": "Salta",
    "housenumber": "2500",
    "city": "San Francisco",
    "postcode": "2400",
    "lat": -31.4322021,
    "lon": -62.0945495
  },
  {
    "street": "Misiones",
    "housenumber": "499",
    "city": "San Francisco",
    "postcode": "2400",
    "lat": -31.4322337,
    "lon": -62.1000172
  },
  {
    "street": "Paraguay",
    "housenumber": "3000",
    "city": "San Francisco",
    "postcode": "2400",
    "lat": -31.4322374,
    "lon": -62.0999476
  },
  {
    "street": "Falucho",
    "housenumber": "501",
    "city": "San Francisco",
    "postcode": "2400",
    "lat": -31.4322449,
    "lon": -62.1010799
  },
  {
    "street": "Salta",
    "housenumber": "2501",
    "city": "San Francisco",
    "postcode": "2400",
    "lat": -31.432282,
    "lon": -62.094826
  },
  {
    "street": "Salta",
    "housenumber": "2402",
    "city": "San Francisco",
    "postcode": "2400",
    "lat": -31.4323062,
    "lon": -62.0938353
  },
  {
    "street": "Alem",
    "housenumber": "400",
    "city": "San Francisco",
    "postcode": "2400",
    "lat": -31.4323173,
    "lon": -62.0937612
  },
  {
    "street": "Salta",
    "housenumber": "2499",
    "city": "San Francisco",
    "postcode": "2400",
    "lat": -31.432321,
    "lon": -62.0946693
  },
  {
    "street": "Paraguay",
    "housenumber": "3001",
    "city": "San Francisco",
    "postcode": "2400",
    "lat": -31.4323229,
    "lon": -62.1002089
  },
  {
    "street": "Lavalle",
    "housenumber": "402",
    "city": "San Francisco",
    "postcode": "2400",
    "lat": -31.4323247,
    "lon": -62.0948086
  },
  {
    "street": "Salta",
    "housenumber": "2400",
    "city": "San Francisco",
    "postcode": "2400",
    "lat": -31.4323508,
    "lon": -62.0935609
  },
  {
    "street": "Alem",
    "housenumber": "399",
    "city": "San Francisco",
    "postcode": "2400",
    "lat": -31.4323508,
    "lon": -62.0936349
  },
  {
    "street": "Paraguay",
    "housenumber": "2902",
    "city": "San Francisco",
    "postcode": "2400",
    "lat": -31.43236,
    "lon": -62.0991724
  },
  {
    "street": "Paraguay",
    "housenumber": "2999",
    "city": "San Francisco",
    "postcode": "2400",
    "lat": -31.43236,
    "lon": -62.1000434
  },
  {
    "street": "Lavalle",
    "housenumber": "401",
    "city": "San Francisco",
    "postcode": "2400",
    "lat": -31.4323619,
    "lon": -62.0946736
  },
  {
    "street": "Formosa",
    "housenumber": "500",
    "city": "San Francisco",
    "postcode": "2400",
    "lat": -31.4323935,
    "lon": -62.099107
  },
  {
    "street": "Misiones",
    "housenumber": "502",
    "city": "San Francisco",
    "postcode": "2400",
    "lat": -31.4323935,
    "lon": -62.1002089
  },
  {
    "street": "Paraguay",
    "housenumber": "2900",
    "city": "San Francisco",
    "postcode": "2400",
    "lat": -31.4324065,
    "lon": -62.0989089
  },
  {
    "street": "Formosa",
    "housenumber": "499",
    "city": "San Francisco",
    "postcode": "2400",
    "lat": -31.4324102,
    "lon": -62.0989742
  },
  {
    "street": "Misiones",
    "housenumber": "501",
    "city": "San Francisco",
    "postcode": "2400",
    "lat": -31.4324381,
    "lon": -62.1000521
  },
  {
    "street": "Salta",
    "housenumber": "2401",
    "city": "San Francisco",
    "postcode": "2400",
    "lat": -31.4324585,
    "lon": -62.0938113
  },
  {
    "street": "Salta",
    "housenumber": "2302",
    "city": "San Francisco",
    "postcode": "2400",
    "lat": -31.4324808,
    "lon": -62.0927465
  },
  {
    "street": "Salta",
    "housenumber": "2399",
    "city": "San Francisco",
    "postcode": "2400",
    "lat": -31.4324994,
    "lon": -62.0936807
  },
  {
    "street": "Alem",
    "housenumber": "402",
    "city": "San Francisco",
    "postcode": "2400",
    "lat": -31.4325068,
    "lon": -62.0938287
  },
  {
    "street": "Juan B. Justo",
    "housenumber": "400",
    "city": "San Francisco",
    "postcode": "2400",
    "lat": -31.4325105,
    "lon": -62.0926768
  },
  {
    "street": "Paraguay",
    "housenumber": "2901",
    "city": "San Francisco",
    "postcode": "2400",
    "lat": -31.4325161,
    "lon": -62.099168
  },
  {
    "street": "Caseros",
    "housenumber": "499",
    "city": "San Francisco",
    "postcode": "2400",
    "lat": -31.4325198,
    "lon": -62.0978528
  },
  {
    "street": "Paraguay",
    "housenumber": "2802",
    "city": "San Francisco",
    "postcode": "2400",
    "lat": -31.4325291,
    "lon": -62.0980989
  },
  {
    "street": "Paraguay",
    "housenumber": "2899",
    "city": "San Francisco",
    "postcode": "2400",
    "lat": -31.4325496,
    "lon": -62.0990069
  },
  {
    "street": "Caseros",
    "housenumber": "500",
    "city": "San Francisco",
    "postcode": "2400",
    "lat": -31.4325514,
    "lon": -62.0980422
  },
  {
    "street": "Alem",
    "housenumber": "401",
    "city": "San Francisco",
    "postcode": "2400",
    "lat": -31.4325551,
    "lon": -62.0936807
  },
  {
    "street": "Paraguay",
    "housenumber": "2800",
    "city": "San Francisco",
    "postcode": "2400",
    "lat": -31.4325756,
    "lon": -62.0978484
  },
  {
    "street": "Formosa",
    "housenumber": "501",
    "city": "San Francisco",
    "postcode": "2400",
    "lat": -31.4325886,
    "lon": -62.0990156
  },
  {
    "street": "Formosa",
    "housenumber": "502",
    "city": "San Francisco",
    "postcode": "2400",
    "lat": -31.4325942,
    "lon": -62.0991724
  },
  {
    "street": "Paraguay",
    "housenumber": "2801",
    "city": "San Francisco",
    "postcode": "2400",
    "lat": -31.432661,
    "lon": -62.0981533
  },
  {
    "street": "Salta",
    "housenumber": "2301",
    "city": "San Francisco",
    "postcode": "2400",
    "lat": -31.4326666,
    "lon": -62.0927313
  },
  {
    "street": "Marconi",
    "housenumber": "500",
    "city": "San Francisco",
    "postcode": "2400",
    "lat": -31.4326908,
    "lon": -62.0970253
  },
  {
    "street": "Paraguay",
    "housenumber": "2702",
    "city": "San Francisco",
    "postcode": "2400",
    "lat": -31.4326908,
    "lon": -62.0971168
  },
  {
    "street": "Caseros",
    "housenumber": "502",
    "city": "San Francisco",
    "postcode": "2400",
    "lat": -31.4327001,
    "lon": -62.0980901
  },
  {
    "street": "Juan B. Justo",
    "housenumber": "402",
    "city": "San Francisco",
    "postcode": "2400",
    "lat": -31.4327075,
    "lon": -62.09274
  },
  {
    "street": "Caseros",
    "housenumber": "501",
    "city": "San Francisco",
    "postcode": "2400",
    "lat": -31.4327242,
    "lon": -62.0979181
  },
  {
    "street": "Marconi",
    "housenumber": "499",
    "city": "San Francisco",
    "postcode": "2400",
    "lat": -31.4327316,
    "lon": -62.0968947
  },
  {
    "street": "Paraguay",
    "housenumber": "2700",
    "city": "San Francisco",
    "postcode": "2400",
    "lat": -31.4327354,
    "lon": -62.0968424
  },
  {
    "street": "Paraguay",
    "housenumber": "2799",
    "city": "San Francisco",
    "postcode": "2400",
    "lat": -31.4327465,
    "lon": -62.0978659
  },
  {
    "street": "Ameghino",
    "housenumber": "499",
    "city": "San Francisco",
    "postcode": "2400",
    "lat": -31.4328506,
    "lon": -62.0958756
  },
  {
    "street": "Paraguay",
    "housenumber": "2701",
    "city": "San Francisco",
    "postcode": "2400",
    "lat": -31.4328543,
    "lon": -62.0971603
  },
  {
    "street": "Paraguay",
    "housenumber": "2602",
    "city": "San Francisco",
    "postcode": "2400",
    "lat": -31.4328617,
    "lon": -62.0960977
  },
  {
    "street": "Marconi",
    "housenumber": "502",
    "city": "San Francisco",
    "postcode": "2400",
    "lat": -31.4328617,
    "lon": -62.0970863
  },
  {
    "street": "Ameghino",
    "housenumber": "500",
    "city": "San Francisco",
    "postcode": "2400",
    "lat": -31.4328803,
    "lon": -62.0960324
  },
  {
    "street": "Paraguay",
    "housenumber": "2699",
    "city": "San Francisco",
    "postcode": "2400",
    "lat": -31.4328914,
    "lon": -62.0968686
  },
  {
    "street": "Marconi",
    "housenumber": "501",
    "city": "San Francisco",
    "postcode": "2400",
    "lat": -31.4328951,
    "lon": -62.0969252
  },
  {
    "street": "Paraguay",
    "housenumber": "2600",
    "city": "San Francisco",
    "postcode": "2400",
    "lat": -31.4329082,
    "lon": -62.0959148
  },
  {
    "street": "Falucho",
    "housenumber": "599",
    "city": "San Francisco",
    "postcode": "2400",
    "lat": -31.43291,
    "lon": -62.101241
  },
  {
    "street": "Bulevar Sáenz Peña",
    "housenumber": "3100",
    "city": "San Francisco",
    "postcode": "2400",
    "lat": -31.432962,
    "lon": -62.101241
  },
  {
    "street": "Paraguay",
    "housenumber": "2601",
    "city": "San Francisco",
    "postcode": "2400",
    "lat": -31.4329955,
    "lon": -62.09615
  },
  {
    "street": "Ameghino",
    "housenumber": "502",
    "city": "San Francisco",
    "postcode": "2400",
    "lat": -31.4330048,
    "lon": -62.0960629
  },
  {
    "street": "Lavalle",
    "housenumber": "500",
    "city": "San Francisco",
    "postcode": "2400",
    "lat": -31.4330196,
    "lon": -62.0949523
  },
  {
    "street": "Paraguay",
    "housenumber": "2599",
    "city": "San Francisco",
    "postcode": "2400",
    "lat": -31.4330233,
    "lon": -62.0959192
  },
  {
    "street": "Lavalle",
    "housenumber": "499",
    "city": "San Francisco",
    "postcode": "2400",
    "lat": -31.4330456,
    "lon": -62.0948086
  },
  {
    "street": "Misiones",
    "housenumber": "600",
    "city": "San Francisco",
    "postcode": "2400",
    "lat": -31.4330698,
    "lon": -62.1003526
  },
  {
    "street": "Paraguay",
    "housenumber": "2502",
    "city": "San Francisco",
    "postcode": "2400",
    "lat": -31.4330791,
    "lon": -62.0949698
  },
  {
    "street": "Ameghino",
    "housenumber": "501",
    "city": "San Francisco",
    "postcode": "2400",
    "lat": -31.4330791,
    "lon": -62.0959279
  },
  {
    "street": "Paraguay",
    "housenumber": "2500",
    "city": "San Francisco",
    "postcode": "2400",
    "lat": -31.4330939,
    "lon": -62.0948304
  },
  {
    "street": "Bulevar Sáenz Peña",
    "housenumber": "3002",
    "city": "San Francisco",
    "postcode": "2400",
    "lat": -31.433107,
    "lon": -62.1003744
  },
  {
    "street": "Misiones",
    "housenumber": "599",
    "city": "San Francisco",
    "postcode": "2400",
    "lat": -31.4331255,
    "lon": -62.1001914
  },
  {
    "street": "Bulevar Sáenz Peña",
    "housenumber": "3000",
    "city": "San Francisco",
    "postcode": "2400",
    "lat": -31.4331348,
    "lon": -62.1001174
  },
  {
    "street": "Alem",
    "housenumber": "500",
    "city": "San Francisco",
    "postcode": "2400",
    "lat": -31.4331831,
    "lon": -62.0939681
  },
  {
    "street": "Paraguay",
    "housenumber": "2501",
    "city": "San Francisco",
    "postcode": "2400",
    "lat": -31.4331906,
    "lon": -62.0949915
  },
  {
    "street": "Alem",
    "housenumber": "499",
    "city": "San Francisco",
    "postcode": "2400",
    "lat": -31.4332129,
    "lon": -62.0938157
  },
  {
    "street": "Paraguay",
    "housenumber": "2402",
    "city": "San Francisco",
    "postcode": "2400",
    "lat": -31.4332277,
    "lon": -62.0939768
  },
  {
    "street": "Paraguay",
    "housenumber": "2499",
    "city": "San Francisco",
    "postcode": "2400",
    "lat": -31.4332314,
    "lon": -62.0948043
  },
  {
    "street": "Lavalle",
    "housenumber": "502",
    "city": "San Francisco",
    "postcode": "2400",
    "lat": -31.4332482,
    "lon": -62.0950133
  },
  {
    "street": "Bulevar Sáenz Peña",
    "housenumber": "2902",
    "city": "San Francisco",
    "postcode": "2400",
    "lat": -31.43325,
    "lon": -62.0993596
  },
  {
    "street": "Lavalle",
    "housenumber": "501",
    "city": "San Francisco",
    "postcode": "2400",
    "lat": -31.4332537,
    "lon": -62.0948565
  },
  {
    "street": "Formosa",
    "housenumber": "599",
    "city": "San Francisco",
    "postcode": "2400",
    "lat": -31.4332574,
    "lon": -62.0991419
  },
  {
    "street": "Paraguay",
    "housenumber": "2400",
    "city": "San Francisco",
    "postcode": "2400",
    "lat": -31.4332649,
    "lon": -62.0938374
  },
  {
    "street": "Formosa",
    "housenumber": "600",
    "city": "San Francisco",
    "postcode": "2400",
    "lat": -31.4332797,
    "lon": -62.0993074
  },
  {
    "street": "Bulevar Sáenz Peña",
    "housenumber": "2900",
    "city": "San Francisco",
    "postcode": "2400",
    "lat": -31.4332983,
    "lon": -62.0991419
  },
  {
    "street": "Paraguay",
    "housenumber": "2401",
    "city": "San Francisco",
    "postcode": "2400",
    "lat": -31.4333503,
    "lon": -62.0940639
  },
  {
    "street": "Juan B. Justo",
    "housenumber": "500",
    "city": "San Francisco",
    "postcode": "2400",
    "lat": -31.4333578,
    "lon": -62.0928837
  },
  {
    "street": "Alem",
    "housenumber": "502",
    "city": "San Francisco",
    "postcode": "2400",
    "lat": -31.4333615,
    "lon": -62.0940029
  },
  {
    "street": "Paraguay",
    "housenumber": "2399",
    "city": "San Francisco",
    "postcode": "2400",
    "lat": -31.4333838,
    "lon": -62.0938026
  },
  {
    "street": "Alem",
    "housenumber": "501",
    "city": "San Francisco",
    "postcode": "2400",
    "lat": -31.4333838,
    "lon": -62.0938679
  },
  {
    "street": "Paraguay",
    "housenumber": "2302",
    "city": "San Francisco",
    "postcode": "2400",
    "lat": -31.4334135,
    "lon": -62.0929055
  },
  {
    "street": "Caseros",
    "housenumber": "600",
    "city": "San Francisco",
    "postcode": "2400",
    "lat": -31.4334247,
    "lon": -62.0982339
  },
  {
    "street": "Bulevar Sáenz Peña",
    "housenumber": "2802",
    "city": "San Francisco",
    "postcode": "2400",
    "lat": -31.4334247,
    "lon": -62.0983318
  },
  {
    "street": "Bulevar Sáenz Peña",
    "housenumber": "2800",
    "city": "San Francisco",
    "postcode": "2400",
    "lat": -31.4335083,
    "lon": -62.098027
  },
  {
    "street": "Caseros",
    "housenumber": "599",
    "city": "San Francisco",
    "postcode": "2400",
    "lat": -31.4335083,
    "lon": -62.098088
  },
  {
    "street": "Paraguay",
    "housenumber": "2301",
    "city": "San Francisco",
    "postcode": "2400",
    "lat": -31.433525,
    "lon": -62.0929839
  },
  {
    "street": "Juan B. Justo",
    "housenumber": "502",
    "city": "San Francisco",
    "postcode": "2400",
    "lat": -31.433551,
    "lon": -62.0929272
  },
  {
    "street": "Bulevar Sáenz Peña",
    "housenumber": "2702",
    "city": "San Francisco",
    "postcode": "2400",
    "lat": -31.4336198,
    "lon": -62.0973302
  },
  {
    "street": "Marconi",
    "housenumber": "600",
    "city": "San Francisco",
    "postcode": "2400",
    "lat": -31.4336383,
    "lon": -62.0972518
  },
  {
    "street": "Bulevar Sáenz Peña",
    "housenumber": "2700",
    "city": "San Francisco",
    "postcode": "2400",
    "lat": -31.4336569,
    "lon": -62.0970471
  },
  {
    "street": "Marconi",
    "housenumber": "599",
    "city": "San Francisco",
    "postcode": "2400",
    "lat": -31.4336606,
    "lon": -62.0971168
  },
  {
    "street": "Bulevar Sáenz Peña",
    "housenumber": "2799",
    "city": "San Francisco",
    "postcode": "2400",
    "lat": -31.4336606,
    "lon": -62.0980444
  },
  {
    "street": "Caseros",
    "housenumber": "601",
    "city": "San Francisco",
    "postcode": "2400",
    "lat": -31.4337022,
    "lon": -62.0980988
  },
  {
    "street": "Bulevar Sáenz Peña",
    "housenumber": "2602",
    "city": "San Francisco",
    "postcode": "2400",
    "lat": -31.4337758,
    "lon": -62.0963198
  },
  {
    "street": "Bulevar Sáenz Peña",
    "housenumber": "2701",
    "city": "San Francisco",
    "postcode": "2400",
    "lat": -31.4337758,
    "lon": -62.0973824
  },
  {
    "street": "Ameghino",
    "housenumber": "599",
    "city": "San Francisco",
    "postcode": "2400",
    "lat": -31.4337963,
    "lon": -62.0960846
  },
  {
    "street": "Ameghino",
    "housenumber": "600",
    "city": "San Francisco",
    "postcode": "2400",
    "lat": -31.4338074,
    "lon": -62.0962371
  },
  {
    "street": "Bulevar Sáenz Peña",
    "housenumber": "2699",
    "city": "San Francisco",
    "postcode": "2400",
    "lat": -31.4338167,
    "lon": -62.0970885
  },
  {
    "street": "Marconi",
    "housenumber": "602",
    "city": "San Francisco",
    "postcode": "2400",
    "lat": -31.4338211,
    "lon": -62.0973411
  },
  {
    "street": "Bulevar Sáenz Peña",
    "housenumber": "2600",
    "city": "San Francisco",
    "postcode": "2400",
    "lat": -31.433839,
    "lon": -62.0961064
  },
  {
    "street": "Marconi",
    "housenumber": "601",
    "city": "San Francisco",
    "postcode": "2400",
    "lat": -31.4338657,
    "lon": -62.0971233
  },
  {
    "street": "Lavalle",
    "housenumber": "600",
    "city": "San Francisco",
    "postcode": "2400",
    "lat": -31.433943,
    "lon": -62.0952006
  },
  {
    "street": "Bulevar Sáenz Peña",
    "housenumber": "2601",
    "city": "San Francisco",
    "postcode": "2400",
    "lat": -31.433943,
    "lon": -62.0963568
  },
  {
    "street": "Lavalle",
    "housenumber": "599",
    "city": "San Francisco",
    "postcode": "2400",
    "lat": -31.4339672,
    "lon": -62.0950525
  },
  {
    "street": "Bulevar Sáenz Peña",
    "housenumber": "2502",
    "city": "San Francisco",
    "postcode": "2400",
    "lat": -31.4339839,
    "lon": -62.0952223
  },
  {
    "street": "Ameghino",
    "housenumber": "602",
    "city": "San Francisco",
    "postcode": "2400",
    "lat": -31.4339846,
    "lon": -62.0963568
  },
  {
    "street": "Bulevar Sáenz Peña",
    "housenumber": "2599",
    "city": "San Francisco",
    "postcode": "2400",
    "lat": -31.4339913,
    "lon": -62.0960825
  },
  {
    "street": "Bulevar Sáenz Peña",
    "housenumber": "2500",
    "city": "San Francisco",
    "postcode": "2400",
    "lat": -31.4340174,
    "lon": -62.0950656
  },
  {
    "street": "Ameghino",
    "housenumber": "601",
    "city": "San Francisco",
    "postcode": "2400",
    "lat": -31.4340323,
    "lon": -62.0961057
  },
  {
    "street": "Alem",
    "housenumber": "600",
    "city": "San Francisco",
    "postcode": "2400",
    "lat": -31.434101,
    "lon": -62.0941641
  },
  {
    "street": "Bulevar Sáenz Peña",
    "housenumber": "2501",
    "city": "San Francisco",
    "postcode": "2400",
    "lat": -31.4341288,
    "lon": -62.0952811
  },
  {
    "street": "Alem",
    "housenumber": "599",
    "city": "San Francisco",
    "postcode": "2400",
    "lat": -31.4341418,
    "lon": -62.0940334
  },
  {
    "street": "Bulevar Sáenz Peña",
    "housenumber": "2402",
    "city": "San Francisco",
    "postcode": "2400",
    "lat": -31.4341548,
    "lon": -62.0941815
  },
  {
    "street": "Lavalle",
    "housenumber": "602",
    "city": "San Francisco",
    "postcode": "2400",
    "lat": -31.4341795,
    "lon": -62.095305
  },
  {
    "street": "Bulevar Sáenz Peña",
    "housenumber": "2400",
    "city": "San Francisco",
    "postcode": "2400",
    "lat": -31.4341846,
    "lon": -62.0940421
  },
  {
    "street": "Lavalle",
    "housenumber": "601",
    "city": "San Francisco",
    "postcode": "2400",
    "lat": -31.4342005,
    "lon": -62.0950709
  },
  {
    "street": "Bulevar Sáenz Peña",
    "housenumber": "2499",
    "city": "San Francisco",
    "postcode": "2400",
    "lat": -31.4342069,
    "lon": -62.0950155
  },
  {
    "street": "Juan B. Justo",
    "housenumber": "600",
    "city": "San Francisco",
    "postcode": "2400",
    "lat": -31.4342942,
    "lon": -62.0930797
  },
  {
    "street": "Bulevar Sáenz Peña",
    "housenumber": "2401",
    "city": "San Francisco",
    "postcode": "2400",
    "lat": -31.4343221,
    "lon": -62.0943274
  },
  {
    "street": "Alem",
    "housenumber": "602",
    "city": "San Francisco",
    "postcode": "2400",
    "lat": -31.4343266,
    "lon": -62.0942764
  },
  {
    "street": "Bulevar Sáenz Peña",
    "housenumber": "2302",
    "city": "San Francisco",
    "postcode": "2400",
    "lat": -31.4343444,
    "lon": -62.0930971
  },
  {
    "street": "Bulevar Sáenz Peña",
    "housenumber": "2399",
    "city": "San Francisco",
    "postcode": "2400",
    "lat": -31.4343444,
    "lon": -62.0940204
  },
  {
    "street": "Alem",
    "housenumber": "601",
    "city": "San Francisco",
    "postcode": "2400",
    "lat": -31.4343792,
    "lon": -62.0940609
  },
  {
    "street": "Caseros",
    "housenumber": "699",
    "city": "San Francisco",
    "postcode": "2400",
    "lat": -31.4344453,
    "lon": -62.0982556
  },
  {
    "street": "Gerónimo del Barco",
    "housenumber": "2800",
    "city": "San Francisco",
    "postcode": "2400",
    "lat": -31.4344781,
    "lon": -62.0982339
  },
  {
    "street": "Bulevar Sáenz Peña",
    "housenumber": "2301",
    "city": "San Francisco",
    "postcode": "2400",
    "lat": -31.4344893,
    "lon": -62.0931581
  },
  {
    "street": "Juan B. Justo",
    "housenumber": "601",
    "city": "San Francisco",
    "postcode": "2400",
    "lat": -31.4345413,
    "lon": -62.0929751
  },
  {
    "street": "Juan B. Justo",
    "housenumber": "602",
    "city": "San Francisco",
    "postcode": "2400",
    "lat": -31.4345526,
    "lon": -62.0931863
  },
  {
    "street": "Marconi",
    "housenumber": "700",
    "city": "San Francisco",
    "postcode": "2400",
    "lat": -31.4345643,
    "lon": -62.0974978
  },
  {
    "street": "Gerónimo del Barco",
    "housenumber": "2702",
    "city": "San Francisco",
    "postcode": "2400",
    "lat": -31.4345822,
    "lon": -62.0975545
  },
  {
    "street": "Marconi",
    "housenumber": "699",
    "city": "San Francisco",
    "postcode": "2400",
    "lat": -31.4346088,
    "lon": -62.0972714
  },
  {
    "street": "Gerónimo del Barco",
    "housenumber": "2799",
    "city": "San Francisco",
    "postcode": "2400",
    "lat": -31.4346416,
    "lon": -62.0982208
  },
  {
    "street": "Gerónimo del Barco",
    "housenumber": "2700",
    "city": "San Francisco",
    "postcode": "2400",
    "lat": -31.4346528,
    "lon": -62.0972845
  },
  {
    "street": "Caseros",
    "housenumber": "701",
    "city": "San Francisco",
    "postcode": "2400",
    "lat": -31.4346534,
    "lon": -62.0982992
  },
  {
    "street": "Ameghino",
    "housenumber": "700",
    "city": "San Francisco",
    "postcode": "2400",
    "lat": -31.4347129,
    "lon": -62.0964962
  },
  {
    "street": "Gerónimo del Barco",
    "housenumber": "2701",
    "city": "San Francisco",
    "postcode": "2400",
    "lat": -31.4347382,
    "lon": -62.0976024
  },
  {
    "street": "Gerónimo del Barco",
    "housenumber": "2602",
    "city": "San Francisco",
    "postcode": "2400",
    "lat": -31.4347642,
    "lon": -62.0965441
  },
  {
    "street": "Gerónimo del Barco",
    "housenumber": "2699",
    "city": "San Francisco",
    "postcode": "2400",
    "lat": -31.434768,
    "lon": -62.0972888
  },
  {
    "street": "Ameghino",
    "housenumber": "699",
    "city": "San Francisco",
    "postcode": "2400",
    "lat": -31.4347681,
    "lon": -62.0962719
  },
  {
    "street": "Marconi",
    "housenumber": "702",
    "city": "San Francisco",
    "postcode": "2400",
    "lat": -31.4347723,
    "lon": -62.0975588
  },
  {
    "street": "Gerónimo del Barco",
    "housenumber": "2600",
    "city": "San Francisco",
    "postcode": "2400",
    "lat": -31.4348088,
    "lon": -62.0962828
  },
  {
    "street": "Marconi",
    "housenumber": "701",
    "city": "San Francisco",
    "postcode": "2400",
    "lat": -31.4348169,
    "lon": -62.0973149
  },
  {
    "street": "Gerónimo del Barco",
    "housenumber": "2601",
    "city": "San Francisco",
    "postcode": "2400",
    "lat": -31.4348869,
    "lon": -62.0965746
  },
  {
    "street": "Lavalle",
    "housenumber": "700",
    "city": "San Francisco",
    "postcode": "2400",
    "lat": -31.4348889,
    "lon": -62.0954713
  },
  {
    "street": "Gerónimo del Barco",
    "housenumber": "2599",
    "city": "San Francisco",
    "postcode": "2400",
    "lat": -31.4349166,
    "lon": -62.0963307
  },
  {
    "street": "Ameghino",
    "housenumber": "702",
    "city": "San Francisco",
    "postcode": "2400",
    "lat": -31.4349358,
    "lon": -62.0965659
  },
  {
    "street": "Gerónimo del Barco",
    "housenumber": "2502",
    "city": "San Francisco",
    "postcode": "2400",
    "lat": -31.4349389,
    "lon": -62.0954641
  },
  {
    "street": "Lavalle",
    "housenumber": "699",
    "city": "San Francisco",
    "postcode": "2400",
    "lat": -31.4349415,
    "lon": -62.0952496
  },
  {
    "street": "Ameghino",
    "housenumber": "701",
    "city": "San Francisco",
    "postcode": "2400",
    "lat": -31.4349677,
    "lon": -62.0963335
  },
  {
    "street": "Gerónimo del Barco",
    "housenumber": "2500",
    "city": "San Francisco",
    "postcode": "2400",
    "lat": -31.4349798,
    "lon": -62.0952637
  },
  {
    "street": "Alem",
    "housenumber": "700",
    "city": "San Francisco",
    "postcode": "2400",
    "lat": -31.4350623,
    "lon": -62.0944304
  },
  {
    "street": "Gerónimo del Barco",
    "housenumber": "2501",
    "city": "San Francisco",
    "postcode": "2400",
    "lat": -31.4350689,
    "lon": -62.0955076
  },
  {
    "street": "Gerónimo del Barco",
    "housenumber": "2402",
    "city": "San Francisco",
    "postcode": "2400",
    "lat": -31.4350987,
    "lon": -62.094445
  },
  {
    "street": "Lavalle",
    "housenumber": "702",
    "city": "San Francisco",
    "postcode": "2400",
    "lat": -31.4351096,
    "lon": -62.0955144
  },
  {
    "street": "Alem",
    "housenumber": "699",
    "city": "San Francisco",
    "postcode": "2400",
    "lat": -31.4351149,
    "lon": -62.094221
  },
  {
    "street": "Lavalle",
    "housenumber": "701",
    "city": "San Francisco",
    "postcode": "2400",
    "lat": -31.4351464,
    "lon": -62.0952927
  },
  {
    "street": "Gerónimo del Barco",
    "housenumber": "2400",
    "city": "San Francisco",
    "postcode": "2400",
    "lat": -31.4351544,
    "lon": -62.0942272
  },
  {
    "street": "Gerónimo del Barco",
    "housenumber": "2499",
    "city": "San Francisco",
    "postcode": "2400",
    "lat": -31.4351569,
    "lon": -62.0952311
  },
  {
    "street": "Juan B. Justo",
    "housenumber": "700",
    "city": "San Francisco",
    "postcode": "2400",
    "lat": -31.4352463,
    "lon": -62.0933341
  },
  {
    "street": "Gerónimo del Barco",
    "housenumber": "2401",
    "city": "San Francisco",
    "postcode": "2400",
    "lat": -31.4352568,
    "lon": -62.0945536
  },
  {
    "street": "Alem",
    "housenumber": "702",
    "city": "San Francisco",
    "postcode": "2400",
    "lat": -31.4352673,
    "lon": -62.0944735
  },
  {
    "street": "Gerónimo del Barco",
    "housenumber": "2302",
    "city": "San Francisco",
    "postcode": "2400",
    "lat": -31.435277,
    "lon": -62.0933867
  },
  {
    "street": "Alem",
    "housenumber": "701",
    "city": "San Francisco",
    "postcode": "2400",
    "lat": -31.4353041,
    "lon": -62.094258
  },
  {
    "street": "Juan B. Justo",
    "housenumber": "699",
    "city": "San Francisco",
    "postcode": "2400",
    "lat": -31.4353142,
    "lon": -62.0931537
  },
  {
    "street": "Gerónimo del Barco",
    "housenumber": "2399",
    "city": "San Francisco",
    "postcode": "2400",
    "lat": -31.4353303,
    "lon": -62.0941964
  },
  {
    "street": "Caseros",
    "housenumber": "799",
    "city": "San Francisco",
    "postcode": "2400",
    "lat": -31.4353743,
    "lon": -62.0984647
  },
  {
    "street": "Larrea",
    "housenumber": "2800",
    "city": "San Francisco",
    "postcode": "2400",
    "lat": -31.4354071,
    "lon": -62.0984211
  },
  {
    "street": "Gerónimo del Barco",
    "housenumber": "2301",
    "city": "San Francisco",
    "postcode": "2400",
    "lat": -31.4354512,
    "lon": -62.093445
  },
  {
    "street": "Juan B. Justo",
    "housenumber": "702",
    "city": "San Francisco",
    "postcode": "2400",
    "lat": -31.4354565,
    "lon": -62.0933772
  },
  {
    "street": "Marconi",
    "housenumber": "800",
    "city": "San Francisco",
    "postcode": "2400",
    "lat": -31.4354784,
    "lon": -62.0976982
  },
  {
    "street": "Larrea",
    "housenumber": "2702",
    "city": "San Francisco",
    "postcode": "2400",
    "lat": -31.4355111,
    "lon": -62.0977548
  },
  {
    "street": "Marconi",
    "housenumber": "799",
    "city": "San Francisco",
    "postcode": "2400",
    "lat": -31.4355155,
    "lon": -62.0974717
  },
  {
    "street": "Larrea",
    "housenumber": "2799",
    "city": "San Francisco",
    "postcode": "2400",
    "lat": -31.435539,
    "lon": -62.0984516
  },
  {
    "street": "Larrea",
    "housenumber": "2700",
    "city": "San Francisco",
    "postcode": "2400",
    "lat": -31.4355594,
    "lon": -62.0974674
  },
  {
    "street": "Caseros",
    "housenumber": "801",
    "city": "San Francisco",
    "postcode": "2400",
    "lat": -31.4355675,
    "lon": -62.0985256
  },
  {
    "street": "Ameghino",
    "housenumber": "800",
    "city": "San Francisco",
    "postcode": "2400",
    "lat": -31.4356419,
    "lon": -62.0967052
  },
  {
    "street": "Larrea",
    "housenumber": "2701",
    "city": "San Francisco",
    "postcode": "2400",
    "lat": -31.4356579,
    "lon": -62.0977984
  },
  {
    "street": "Marconi",
    "housenumber": "802",
    "city": "San Francisco",
    "postcode": "2400",
    "lat": -31.4356802,
    "lon": -62.0977178
  },
  {
    "street": "Ameghino",
    "housenumber": "799",
    "city": "San Francisco",
    "postcode": "2400",
    "lat": -31.4356824,
    "lon": -62.0964937
  },
  {
    "street": "Larrea",
    "housenumber": "2602",
    "city": "San Francisco",
    "postcode": "2400",
    "lat": -31.4356895,
    "lon": -62.0967227
  },
  {
    "street": "Larrea",
    "housenumber": "2699",
    "city": "San Francisco",
    "postcode": "2400",
    "lat": -31.4357006,
    "lon": -62.0974695
  },
  {
    "street": "Larrea",
    "housenumber": "2600",
    "city": "San Francisco",
    "postcode": "2400",
    "lat": -31.4357192,
    "lon": -62.0964657
  },
  {
    "street": "Marconi",
    "housenumber": "801",
    "city": "San Francisco",
    "postcode": "2400",
    "lat": -31.4357459,
    "lon": -62.0975066
  },
  {
    "street": "Larrea",
    "housenumber": "2601",
    "city": "San Francisco",
    "postcode": "2400",
    "lat": -31.4358158,
    "lon": -62.0967466
  },
  {
    "street": "Lavalle",
    "housenumber": "800",
    "city": "San Francisco",
    "postcode": "2400",
    "lat": -31.4358296,
    "lon": -62.0956684
  },
  {
    "street": "Larrea",
    "housenumber": "2502",
    "city": "San Francisco",
    "postcode": "2400",
    "lat": -31.4358456,
    "lon": -62.0957123
  },
  {
    "street": "Larrea",
    "housenumber": "2599",
    "city": "San Francisco",
    "postcode": "2400",
    "lat": -31.4358641,
    "lon": -62.0965202
  },
  {
    "street": "Ameghino",
    "housenumber": "802",
    "city": "San Francisco",
    "postcode": "2400",
    "lat": -31.4358648,
    "lon": -62.0967488
  },
  {
    "street": "Lavalle",
    "housenumber": "799",
    "city": "San Francisco",
    "postcode": "2400",
    "lat": -31.4358716,
    "lon": -62.0954528
  },
  {
    "street": "Larrea",
    "housenumber": "2500",
    "city": "San Francisco",
    "postcode": "2400",
    "lat": -31.4359032,
    "lon": -62.095414
  },
  {
    "street": "Ameghino",
    "housenumber": "801",
    "city": "San Francisco",
    "postcode": "2400",
    "lat": -31.435918,
    "lon": -62.0965463
  },
  {
    "street": "Larrea",
    "housenumber": "2501",
    "city": "San Francisco",
    "postcode": "2400",
    "lat": -31.4359868,
    "lon": -62.0956927
  },
  {
    "street": "Alem",
    "housenumber": "800",
    "city": "San Francisco",
    "postcode": "2400",
    "lat": -31.4359977,
    "lon": -62.0946275
  },
  {
    "street": "Larrea",
    "housenumber": "2402",
    "city": "San Francisco",
    "postcode": "2400",
    "lat": -31.4360072,
    "lon": -62.094691
  },
  {
    "street": "Alem",
    "housenumber": "799",
    "city": "San Francisco",
    "postcode": "2400",
    "lat": -31.4360293,
    "lon": -62.0944119
  },
  {
    "street": "Larrea",
    "housenumber": "2499",
    "city": "San Francisco",
    "postcode": "2400",
    "lat": -31.4360444,
    "lon": -62.0955011
  },
  {
    "street": "Larrea",
    "housenumber": "2400",
    "city": "San Francisco",
    "postcode": "2400",
    "lat": -31.4360604,
    "lon": -62.0943989
  },
  {
    "street": "Lavalle",
    "housenumber": "802",
    "city": "San Francisco",
    "postcode": "2400",
    "lat": -31.4360629,
    "lon": -62.0957232
  },
  {
    "street": "Lavalle",
    "housenumber": "801",
    "city": "San Francisco",
    "postcode": "2400",
    "lat": -31.4360852,
    "lon": -62.0955228
  },
  {
    "street": "Juan B. Justo",
    "housenumber": "800",
    "city": "San Francisco",
    "postcode": "2400",
    "lat": -31.4361659,
    "lon": -62.093525
  },
  {
    "street": "Larrea",
    "housenumber": "2401",
    "city": "San Francisco",
    "postcode": "2400",
    "lat": -31.4361744,
    "lon": -62.0947085
  },
  {
    "street": "Alem",
    "housenumber": "802",
    "city": "San Francisco",
    "postcode": "2400",
    "lat": -31.4361763,
    "lon": -62.0946344
  },
  {
    "street": "Larrea",
    "housenumber": "2302",
    "city": "San Francisco",
    "postcode": "2400",
    "lat": -31.4361971,
    "lon": -62.0935489
  },
  {
    "street": "Alem",
    "housenumber": "801",
    "city": "San Francisco",
    "postcode": "2400",
    "lat": -31.4362041,
    "lon": -62.0944689
  },
  {
    "street": "Larrea",
    "housenumber": "2399",
    "city": "San Francisco",
    "postcode": "2400",
    "lat": -31.4362049,
    "lon": -62.0944204
  },
  {
    "street": "Caseros",
    "housenumber": "899",
    "city": "San Francisco",
    "postcode": "2400",
    "lat": -31.4362512,
    "lon": -62.0986737
  },
  {
    "street": "López y Planes",
    "housenumber": "2800",
    "city": "San Francisco",
    "postcode": "2400",
    "lat": -31.4363007,
    "lon": -62.0986607
  },
  {
    "street": "Larrea",
    "housenumber": "2301",
    "city": "San Francisco",
    "postcode": "2400",
    "lat": -31.4363547,
    "lon": -62.0935305
  },
  {
    "street": "López y Planes",
    "housenumber": "2702",
    "city": "San Francisco",
    "postcode": "2400",
    "lat": -31.4364048,
    "lon": -62.0979638
  },
  {
    "street": "Marconi",
    "housenumber": "900",
    "city": "San Francisco",
    "postcode": "2400",
    "lat": -31.4364085,
    "lon": -62.0978789
  },
  {
    "street": "López y Planes",
    "housenumber": "2799",
    "city": "San Francisco",
    "postcode": "2400",
    "lat": -31.4364085,
    "lon": -62.0987521
  },
  {
    "street": "Marconi",
    "housenumber": "899",
    "city": "San Francisco",
    "postcode": "2400",
    "lat": -31.4364147,
    "lon": -62.0976895
  },
  {
    "street": "Juan B. Justo",
    "housenumber": "802",
    "city": "San Francisco",
    "postcode": "2400",
    "lat": -31.436444,
    "lon": -62.0935582
  },
  {
    "street": "López y Planes",
    "housenumber": "2700",
    "city": "San Francisco",
    "postcode": "2400",
    "lat": -31.4364512,
    "lon": -62.0976481
  },
  {
    "street": "Ameghino",
    "housenumber": "900",
    "city": "San Francisco",
    "postcode": "2400",
    "lat": -31.4365336,
    "lon": -62.0969143
  },
  {
    "street": "Ameghino",
    "housenumber": "899",
    "city": "San Francisco",
    "postcode": "2400",
    "lat": -31.4365423,
    "lon": -62.0966987
  },
  {
    "street": "López y Planes",
    "housenumber": "2602",
    "city": "San Francisco",
    "postcode": "2400",
    "lat": -31.4365478,
    "lon": -62.0969687
  },
  {
    "street": "López y Planes",
    "housenumber": "2600",
    "city": "San Francisco",
    "postcode": "2400",
    "lat": -31.4365962,
    "lon": -62.0967118
  },
  {
    "street": "Lavalle",
    "housenumber": "900",
    "city": "San Francisco",
    "postcode": "2400",
    "lat": -31.4366686,
    "lon": -62.0958364
  },
  {
    "street": "Lavalle",
    "housenumber": "899",
    "city": "San Francisco",
    "postcode": "2400",
    "lat": -31.4366983,
    "lon": -62.0956666
  },
  {
    "street": "López y Planes",
    "housenumber": "2601",
    "city": "San Francisco",
    "postcode": "2400",
    "lat": -31.4367021,
    "lon": -62.0968947
  },
  {
    "street": "López y Planes",
    "housenumber": "2502",
    "city": "San Francisco",
    "postcode": "2400",
    "lat": -31.4367188,
    "lon": -62.0958669
  },
  {
    "street": "López y Planes",
    "housenumber": "2599",
    "city": "San Francisco",
    "postcode": "2400",
    "lat": -31.4367466,
    "lon": -62.0967074
  },
  {
    "street": "Ameghino",
    "housenumber": "901",
    "city": "San Francisco",
    "postcode": "2400",
    "lat": -31.4367504,
    "lon": -62.0967553
  },
  {
    "street": "López y Planes",
    "housenumber": "2500",
    "city": "San Francisco",
    "postcode": "2400",
    "lat": -31.4367541,
    "lon": -62.0956796
  },
  {
    "street": "López y Planes",
    "housenumber": "2501",
    "city": "San Francisco",
    "postcode": "2400",
    "lat": -31.4368618,
    "lon": -62.0959235
  },
  {
    "street": "Lavalle",
    "housenumber": "902",
    "city": "San Francisco",
    "postcode": "2400",
    "lat": -31.4368693,
    "lon": -62.0958756
  },
  {
    "street": "López y Planes",
    "housenumber": "2402",
    "city": "San Francisco",
    "postcode": "2400",
    "lat": -31.4368767,
    "lon": -62.0948696
  },
  {
    "street": "French y Berutti",
    "housenumber": "2800",
    "city": "San Francisco",
    "postcode": "2400",
    "lat": -31.4368828,
    "lon": -62.0988749
  },
  {
    "street": "Alem",
    "housenumber": "900",
    "city": "San Francisco",
    "postcode": "2400",
    "lat": -31.436899,
    "lon": -62.0948043
  },
  {
    "street": "López y Planes",
    "housenumber": "2400",
    "city": "San Francisco",
    "postcode": "2400",
    "lat": -31.4369091,
    "lon": -62.0945652
  },
  {
    "street": "Lavalle",
    "housenumber": "901",
    "city": "San Francisco",
    "postcode": "2400",
    "lat": -31.4369213,
    "lon": -62.0957188
  },
  {
    "street": "López y Planes",
    "housenumber": "2499",
    "city": "San Francisco",
    "postcode": "2400",
    "lat": -31.436925,
    "lon": -62.0956274
  },
  {
    "street": "Alem",
    "housenumber": "899",
    "city": "San Francisco",
    "postcode": "2400",
    "lat": -31.4369361,
    "lon": -62.0946475
  },
  {
    "street": "Ameghino",
    "housenumber": "851",
    "city": "San Francisco",
    "postcode": "2400",
    "lat": -31.4369473,
    "lon": -62.0967902
  }
]